<?xml version="1.0" encoding="UTF-8"?>
<seiscomp xmlns="http://geofon.gfz-potsdam.de/ns/seiscomp3-schema/0.12" version="0.12">
  <EventParameters>
    <pick publicID="smi:ch.ethz.sed/sc3a/Pick/20191105134404.883756.528491">
      <time>
        <value>2019-11-05T01:06:28.477643Z</value>
        <lowerUncertainty>0.02500000037</lowerUncertainty>
        <upperUncertainty>0.02500000037</upperUncertainty>
      </time>
      <waveformID networkCode="8D" stationCode="RAW2" channelCode="HHZ"/>
      <filterID>RMHP(4)-&gt;BW_BP(2,1,30)</filterID>
      <phaseHint>Pg</phaseHint>
      <polarity>negative</polarity>
      <evaluationMode>manual</evaluationMode>
      <creationInfo>
        <agencyID>SED</agencyID>
        <author>lanzaf@sc3ag</author>
        <creationTime>2019-11-05T13:44:04.883974Z</creationTime>
      </creationInfo>
    </pick>
    <pick publicID="smi:ch.ethz.sed/sc3a/Pick/20191105134404.884255.528492">
      <time>
        <value>2019-11-05T01:06:29.324048Z</value>
        <lowerUncertainty>0.05000000075</lowerUncertainty>
        <upperUncertainty>0.05000000075</upperUncertainty>
      </time>
      <waveformID networkCode="8D" stationCode="RAW2" channelCode="HHT"/>
      <filterID>RMHP(4)-&gt;BW_BP(2,1,30) -&gt; INT(0)</filterID>
      <phaseHint>Sg</phaseHint>
      <evaluationMode>manual</evaluationMode>
      <creationInfo>
        <agencyID>SED</agencyID>
        <author>lanzaf@sc3ag</author>
        <creationTime>2019-11-05T13:44:04.884357Z</creationTime>
      </creationInfo>
    </pick>
    <pick publicID="smi:ch.ethz.sed/sc3a/Pick/20191105134404.884436.528493">
      <time>
        <value>2019-11-05T01:06:28.791305Z</value>
        <lowerUncertainty>0.02500000037</lowerUncertainty>
        <upperUncertainty>0.02500000037</upperUncertainty>
      </time>
      <waveformID networkCode="CH" stationCode="SENIN" channelCode="HHZ"/>
      <filterID>RMHP(4)-&gt;BW_BP(2,1,30)</filterID>
      <phaseHint>Pg</phaseHint>
      <polarity>negative</polarity>
      <evaluationMode>manual</evaluationMode>
      <creationInfo>
        <agencyID>SED</agencyID>
        <author>lanzaf@sc3ag</author>
        <creationTime>2019-11-05T13:44:04.884505Z</creationTime>
      </creationInfo>
    </pick>
    <pick publicID="smi:ch.ethz.sed/sc3a/Pick/20191105134404.884547.528494">
      <time>
        <value>2019-11-05T01:06:29.941866Z</value>
        <lowerUncertainty>0.05000000075</lowerUncertainty>
        <upperUncertainty>0.05000000075</upperUncertainty>
      </time>
      <waveformID networkCode="CH" stationCode="SENIN" channelCode="HHT"/>
      <filterID>RMHP(4)-&gt;BW_BP(2,1,30) -&gt; INT(0)</filterID>
      <phaseHint>Sg</phaseHint>
      <evaluationMode>manual</evaluationMode>
      <creationInfo>
        <agencyID>SED</agencyID>
        <author>lanzaf@sc3ag</author>
        <creationTime>2019-11-05T13:44:04.884619Z</creationTime>
      </creationInfo>
    </pick>
    <pick publicID="smi:ch.ethz.sed/sc3a/Pick/20191105134404.884672.528495">
      <time>
        <value>2019-11-05T01:06:28.65887Z</value>
        <lowerUncertainty>0.02500000037</lowerUncertainty>
        <upperUncertainty>0.02500000037</upperUncertainty>
      </time>
      <waveformID networkCode="CH" stationCode="SAYF2" channelCode="HGZ"/>
      <filterID>RMHP(4)-&gt;BW_BP(2,1,30)</filterID>
      <phaseHint>Pg</phaseHint>
      <polarity>negative</polarity>
      <evaluationMode>manual</evaluationMode>
      <creationInfo>
        <agencyID>SED</agencyID>
        <author>lanzaf@sc3ag</author>
        <creationTime>2019-11-05T13:44:04.884739Z</creationTime>
      </creationInfo>
    </pick>
    <pick publicID="smi:ch.ethz.sed/sc3a/Pick/20191105134404.884836.528496">
      <time>
        <value>2019-11-05T01:06:28.79912Z</value>
        <lowerUncertainty>0.02500000037</lowerUncertainty>
        <upperUncertainty>0.02500000037</upperUncertainty>
      </time>
      <waveformID networkCode="CH" stationCode="STSW2" channelCode="HGZ"/>
      <filterID>RMHP(4)-&gt;BW_BP(2,1,30)</filterID>
      <phaseHint>Pg</phaseHint>
      <polarity>positive</polarity>
      <evaluationMode>manual</evaluationMode>
      <creationInfo>
        <agencyID>SED</agencyID>
        <author>lanzaf@sc3ag</author>
        <creationTime>2019-11-05T13:44:04.88492Z</creationTime>
      </creationInfo>
    </pick>
    <pick publicID="smi:ch.ethz.sed/sc3a/Pick/20191105134404.884958.528497">
      <time>
        <value>2019-11-05T01:06:29.888159Z</value>
        <lowerUncertainty>0.05000000075</lowerUncertainty>
        <upperUncertainty>0.05000000075</upperUncertainty>
      </time>
      <waveformID networkCode="CH" stationCode="STSW2" channelCode="HGT"/>
      <filterID>RMHP(4)-&gt;BW_BP(2,1,30) -&gt; INT(0) -&gt; INT(0)</filterID>
      <phaseHint>Sg</phaseHint>
      <evaluationMode>manual</evaluationMode>
      <creationInfo>
        <agencyID>SED</agencyID>
        <author>lanzaf@sc3ag</author>
        <creationTime>2019-11-05T13:44:04.885024Z</creationTime>
      </creationInfo>
    </pick>
    <pick publicID="smi:ch.ethz.sed/sc3a/Pick/20191105134404.885117.528498">
      <time>
        <value>2019-11-05T01:06:29.183971Z</value>
        <lowerUncertainty>0.05000000075</lowerUncertainty>
        <upperUncertainty>0.05000000075</upperUncertainty>
      </time>
      <waveformID networkCode="CH" stationCode="SIOV" channelCode="HGZ"/>
      <filterID>RMHP(4)-&gt;BW_BP(2,1,30) -&gt; INT(0)</filterID>
      <phaseHint>Pg</phaseHint>
      <polarity>undecidable</polarity>
      <evaluationMode>manual</evaluationMode>
      <creationInfo>
        <agencyID>SED</agencyID>
        <author>lanzaf@sc3ag</author>
        <creationTime>2019-11-05T13:44:04.885194Z</creationTime>
      </creationInfo>
    </pick>
    <pick publicID="smi:ch.ethz.sed/sc3a/Pick/20191105134404.885237.528499">
      <time>
        <value>2019-11-05T01:06:30.561623Z</value>
        <lowerUncertainty>0.05000000075</lowerUncertainty>
        <upperUncertainty>0.05000000075</upperUncertainty>
      </time>
      <waveformID networkCode="CH" stationCode="SIOV" channelCode="HGT"/>
      <filterID>RMHP(4)-&gt;BW_BP(2,1,30) -&gt; INT(0) -&gt; INT(0)</filterID>
      <phaseHint>Sg</phaseHint>
      <evaluationMode>manual</evaluationMode>
      <creationInfo>
        <agencyID>SED</agencyID>
        <author>lanzaf@sc3ag</author>
        <creationTime>2019-11-05T13:44:04.885302Z</creationTime>
      </creationInfo>
    </pick>
    <pick publicID="smi:ch.ethz.sed/sc3a/Pick/20191105134404.885414.528500">
      <time>
        <value>2019-11-05T01:06:29.405893Z</value>
        <lowerUncertainty>0.05000000075</lowerUncertainty>
        <upperUncertainty>0.05000000075</upperUncertainty>
      </time>
      <waveformID networkCode="CH" stationCode="SCRM" channelCode="HGZ"/>
      <filterID>RMHP(4)-&gt;BW_BP(2,1,30) -&gt; INT(0)</filterID>
      <phaseHint>Pg</phaseHint>
      <polarity>undecidable</polarity>
      <evaluationMode>manual</evaluationMode>
      <creationInfo>
        <agencyID>SED</agencyID>
        <author>lanzaf@sc3ag</author>
        <creationTime>2019-11-05T13:44:04.885487Z</creationTime>
      </creationInfo>
    </pick>
    <pick publicID="smi:ch.ethz.sed/sc3a/Pick/20191105134404.885533.528501">
      <time>
        <value>2019-11-05T01:06:30.912217Z</value>
        <lowerUncertainty>0.05000000075</lowerUncertainty>
        <upperUncertainty>0.05000000075</upperUncertainty>
      </time>
      <waveformID networkCode="CH" stationCode="SIOM" channelCode="HGT"/>
      <filterID>RMHP(4)-&gt;BW_BP(2,1,30) -&gt; INT(0) -&gt; INT(0)</filterID>
      <phaseHint>Sg</phaseHint>
      <evaluationMode>manual</evaluationMode>
      <creationInfo>
        <agencyID>SED</agencyID>
        <author>lanzaf@sc3ag</author>
        <creationTime>2019-11-05T13:44:04.885599Z</creationTime>
      </creationInfo>
    </pick>
    <pick publicID="smi:ch.ethz.sed/sc3a/Pick/20191105134404.885875.528504">
      <time>
        <value>2019-11-05T01:06:29.720962Z</value>
        <lowerUncertainty>0.05000000075</lowerUncertainty>
        <upperUncertainty>0.05000000075</upperUncertainty>
      </time>
      <waveformID networkCode="XY" stationCode="SIE01" channelCode="HHZ"/>
      <filterID>RMHP(4)-&gt;BW_BP(2,1,30)</filterID>
      <phaseHint>Pg</phaseHint>
      <polarity>negative</polarity>
      <evaluationMode>manual</evaluationMode>
      <creationInfo>
        <agencyID>SED</agencyID>
        <author>lanzaf@sc3ag</author>
        <creationTime>2019-11-05T13:44:04.885938Z</creationTime>
      </creationInfo>
    </pick>
    <pick publicID="smi:ch.ethz.sed/sc3a/Pick/20191105134404.88603.528505">
      <time>
        <value>2019-11-05T01:06:31.825074Z</value>
        <lowerUncertainty>0.1000000015</lowerUncertainty>
        <upperUncertainty>0.1000000015</upperUncertainty>
      </time>
      <waveformID networkCode="XY" stationCode="SIE01" channelCode="HHT"/>
      <filterID> WA(1)-&gt;BW_HP(4,.5)</filterID>
      <phaseHint>Sg</phaseHint>
      <evaluationMode>manual</evaluationMode>
      <creationInfo>
        <agencyID>SED</agencyID>
        <author>lanzaf@sc3ag</author>
        <creationTime>2019-11-05T13:44:04.886092Z</creationTime>
      </creationInfo>
    </pick>
    <pick publicID="smi:ch.ethz.sed/sc3a/Pick/20191105134404.885656.528502">
      <time>
        <value>2019-11-05T01:06:29.678785Z</value>
        <lowerUncertainty>0.02500000037</lowerUncertainty>
        <upperUncertainty>0.02500000037</upperUncertainty>
      </time>
      <waveformID networkCode="8D" stationCode="RAW1" channelCode="HHZ"/>
      <filterID>RMHP(4)-&gt;BW_BP(2,1,30)</filterID>
      <phaseHint>Pg</phaseHint>
      <polarity>positive</polarity>
      <evaluationMode>manual</evaluationMode>
      <creationInfo>
        <agencyID>SED</agencyID>
        <author>lanzaf@sc3ag</author>
        <creationTime>2019-11-05T13:44:04.885721Z</creationTime>
      </creationInfo>
    </pick>
    <pick publicID="smi:ch.ethz.sed/sc3a/Pick/20191105134404.885759.528503">
      <time>
        <value>2019-11-05T01:06:31.478299Z</value>
        <lowerUncertainty>0.05000000075</lowerUncertainty>
        <upperUncertainty>0.05000000075</upperUncertainty>
      </time>
      <waveformID networkCode="8D" stationCode="RAW1" channelCode="HHT"/>
      <filterID>RMHP(4)-&gt;BW_BP(2,1,30) -&gt; INT(0)</filterID>
      <phaseHint>Sg</phaseHint>
      <evaluationMode>manual</evaluationMode>
      <creationInfo>
        <agencyID>SED</agencyID>
        <author>lanzaf@sc3ag</author>
        <creationTime>2019-11-05T13:44:04.885819Z</creationTime>
      </creationInfo>
    </pick>
    <pick publicID="smi:ch.ethz.sed/sc3a/Pick/20191105134404.886155.528506">
      <time>
        <value>2019-11-05T01:06:29.561758Z</value>
        <lowerUncertainty>0.02500000037</lowerUncertainty>
        <upperUncertainty>0.02500000037</upperUncertainty>
      </time>
      <waveformID networkCode="XY" stationCode="VET01" channelCode="HHZ"/>
      <filterID>RMHP(4)-&gt;BW_BP(2,1,30)</filterID>
      <phaseHint>Pg</phaseHint>
      <polarity>positive</polarity>
      <evaluationMode>manual</evaluationMode>
      <creationInfo>
        <agencyID>SED</agencyID>
        <author>lanzaf@sc3ag</author>
        <creationTime>2019-11-05T13:44:04.886219Z</creationTime>
      </creationInfo>
    </pick>
    <pick publicID="smi:ch.ethz.sed/sc3a/Pick/20191105134404.886258.528507">
      <time>
        <value>2019-11-05T01:06:31.505439Z</value>
        <lowerUncertainty>0.1000000015</lowerUncertainty>
        <upperUncertainty>0.1000000015</upperUncertainty>
      </time>
      <waveformID networkCode="XY" stationCode="VET01" channelCode="HHT"/>
      <filterID>RMHP(4)-&gt;BW_BP(2,1,30) -&gt; INT(0)</filterID>
      <phaseHint>Sg</phaseHint>
      <evaluationMode>manual</evaluationMode>
      <creationInfo>
        <agencyID>SED</agencyID>
        <author>lanzaf@sc3ag</author>
        <creationTime>2019-11-05T13:44:04.886314Z</creationTime>
      </creationInfo>
    </pick>
    <pick publicID="smi:ch.ethz.sed/sc3a/Pick/20191105134404.886371.528508">
      <time>
        <value>2019-11-05T01:06:30.044881Z</value>
        <lowerUncertainty>0.05000000075</lowerUncertainty>
        <upperUncertainty>0.05000000075</upperUncertainty>
      </time>
      <waveformID networkCode="CH" stationCode="SARC" channelCode="HGZ"/>
      <filterID>RMHP(4)-&gt;BW_BP(2,1,30) -&gt; INT(0)</filterID>
      <phaseHint>Pg</phaseHint>
      <polarity>negative</polarity>
      <evaluationMode>manual</evaluationMode>
      <creationInfo>
        <agencyID>SED</agencyID>
        <author>lanzaf@sc3ag</author>
        <creationTime>2019-11-05T13:44:04.88643Z</creationTime>
      </creationInfo>
    </pick>
    <pick publicID="smi:ch.ethz.sed/sc3a/Pick/20191105134404.886477.528509">
      <time>
        <value>2019-11-05T01:06:32.122973Z</value>
        <lowerUncertainty>0.05000000075</lowerUncertainty>
        <upperUncertainty>0.05000000075</upperUncertainty>
      </time>
      <waveformID networkCode="CH" stationCode="SARC" channelCode="HGT"/>
      <filterID>RMHP(4)-&gt;BW_BP(2,1,30) -&gt; INT(0) -&gt; INT(0)</filterID>
      <phaseHint>Sg</phaseHint>
      <evaluationMode>manual</evaluationMode>
      <creationInfo>
        <agencyID>SED</agencyID>
        <author>lanzaf@sc3ag</author>
        <creationTime>2019-11-05T13:44:04.886535Z</creationTime>
      </creationInfo>
    </pick>
    <pick publicID="smi:ch.ethz.sed/sc3a/Pick/20191105134404.886651.528510">
      <time>
        <value>2019-11-05T01:06:30.315111Z</value>
        <lowerUncertainty>0.05000000075</lowerUncertainty>
        <upperUncertainty>0.05000000075</upperUncertainty>
      </time>
      <waveformID networkCode="CH" stationCode="SHER" channelCode="HGZ"/>
      <filterID>RMHP(4)-&gt;BW_BP(2,1,30) -&gt; INT(0)</filterID>
      <phaseHint>Pg</phaseHint>
      <polarity>undecidable</polarity>
      <evaluationMode>manual</evaluationMode>
      <creationInfo>
        <agencyID>SED</agencyID>
        <author>lanzaf@sc3ag</author>
        <creationTime>2019-11-05T13:44:04.886715Z</creationTime>
      </creationInfo>
    </pick>
    <pick publicID="smi:ch.ethz.sed/sc3a/Pick/20191105134404.886753.528511">
      <time>
        <value>2019-11-05T01:06:32.361058Z</value>
        <lowerUncertainty>0.1000000015</lowerUncertainty>
        <upperUncertainty>0.1000000015</upperUncertainty>
      </time>
      <waveformID networkCode="CH" stationCode="SHER" channelCode="HGT"/>
      <filterID>RMHP(4)-&gt;BW_BP(2,1,30) -&gt; INT(0) -&gt; INT(0)</filterID>
      <phaseHint>Sg</phaseHint>
      <evaluationMode>manual</evaluationMode>
      <creationInfo>
        <agencyID>SED</agencyID>
        <author>lanzaf@sc3ag</author>
        <creationTime>2019-11-05T13:44:04.886818Z</creationTime>
      </creationInfo>
    </pick>
    <pick publicID="smi:ch.ethz.sed/sc3a/Pick/20191105134404.886902.528512">
      <time>
        <value>2019-11-05T01:06:30.669782Z</value>
        <lowerUncertainty>0.02500000037</lowerUncertainty>
        <upperUncertainty>0.02500000037</upperUncertainty>
      </time>
      <waveformID networkCode="8D" stationCode="RAW4" channelCode="EHZ"/>
      <filterID>RMHP(4)-&gt;BW_BP(2,1,30)</filterID>
      <phaseHint>Pg</phaseHint>
      <polarity>positive</polarity>
      <evaluationMode>manual</evaluationMode>
      <creationInfo>
        <agencyID>SED</agencyID>
        <author>lanzaf@sc3ag</author>
        <creationTime>2019-11-05T13:44:04.886964Z</creationTime>
      </creationInfo>
    </pick>
    <pick publicID="smi:ch.ethz.sed/sc3a/Pick/20191105134404.887048.528513">
      <time>
        <value>2019-11-05T01:06:30.99338Z</value>
        <lowerUncertainty>0.05000000075</lowerUncertainty>
        <upperUncertainty>0.05000000075</upperUncertainty>
      </time>
      <waveformID networkCode="CH" stationCode="GRYON" channelCode="HHZ"/>
      <filterID>RMHP(4)-&gt;BW_BP(2,1,30)</filterID>
      <phaseHint>Pg</phaseHint>
      <polarity>undecidable</polarity>
      <evaluationMode>manual</evaluationMode>
      <creationInfo>
        <agencyID>SED</agencyID>
        <author>lanzaf@sc3ag</author>
        <creationTime>2019-11-05T13:44:04.887108Z</creationTime>
      </creationInfo>
    </pick>
    <pick publicID="smi:ch.ethz.sed/sc3a/Pick/20191105134404.887146.528514">
      <time>
        <value>2019-11-05T01:06:33.745553Z</value>
        <lowerUncertainty>0.1000000015</lowerUncertainty>
        <upperUncertainty>0.1000000015</upperUncertainty>
      </time>
      <waveformID networkCode="CH" stationCode="GRYON" channelCode="HHT"/>
      <filterID> WA(1)-&gt;BW_HP(4,.5)</filterID>
      <phaseHint>Sg</phaseHint>
      <evaluationMode>manual</evaluationMode>
      <creationInfo>
        <agencyID>SED</agencyID>
        <author>lanzaf@sc3ag</author>
        <creationTime>2019-11-05T13:44:04.887248Z</creationTime>
      </creationInfo>
    </pick>
    <pick publicID="smi:ch.ethz.sed/sc3a/Pick/20191105134404.887354.528515">
      <time>
        <value>2019-11-05T01:06:31.475801Z</value>
        <lowerUncertainty>0.05000000075</lowerUncertainty>
        <upperUncertainty>0.05000000075</upperUncertainty>
      </time>
      <waveformID networkCode="CH" stationCode="LKBD2" channelCode="HHT"/>
      <filterID>RMHP(4)-&gt;BW_BP(2,1,30)</filterID>
      <phaseHint>Pg</phaseHint>
      <polarity>undecidable</polarity>
      <evaluationMode>manual</evaluationMode>
      <creationInfo>
        <agencyID>SED</agencyID>
        <author>lanzaf@sc3ag</author>
        <creationTime>2019-11-05T13:44:04.887416Z</creationTime>
      </creationInfo>
    </pick>
    <pick publicID="smi:ch.ethz.sed/sc3a/Pick/20191105134404.887457.528516">
      <time>
        <value>2019-11-05T01:06:34.404382Z</value>
        <lowerUncertainty>0.05000000075</lowerUncertainty>
        <upperUncertainty>0.05000000075</upperUncertainty>
      </time>
      <waveformID networkCode="CH" stationCode="LKBD2" channelCode="HHT"/>
      <filterID> WA(1)-&gt;BW_HP(4,.5)</filterID>
      <phaseHint>Sg</phaseHint>
      <evaluationMode>manual</evaluationMode>
      <creationInfo>
        <agencyID>SED</agencyID>
        <author>lanzaf@sc3ag</author>
        <creationTime>2019-11-05T13:44:04.887512Z</creationTime>
      </creationInfo>
    </pick>
    <pick publicID="smi:ch.ethz.sed/sc3a/Pick/20191105134404.887609.528517">
      <time>
        <value>2019-11-05T01:06:31.641796Z</value>
        <lowerUncertainty>0.02500000037</lowerUncertainty>
        <upperUncertainty>0.02500000037</upperUncertainty>
      </time>
      <waveformID networkCode="CH" stationCode="FULLY" channelCode="HHZ"/>
      <filterID>RMHP(4)-&gt;BW_BP(2,1,30)</filterID>
      <phaseHint>Pg</phaseHint>
      <polarity>positive</polarity>
      <evaluationMode>manual</evaluationMode>
      <creationInfo>
        <agencyID>SED</agencyID>
        <author>lanzaf@sc3ag</author>
        <creationTime>2019-11-05T13:44:04.887672Z</creationTime>
      </creationInfo>
    </pick>
    <pick publicID="smi:ch.ethz.sed/sc3a/Pick/20191105134404.887711.528518">
      <time>
        <value>2019-11-05T01:06:34.822753Z</value>
        <lowerUncertainty>0.1000000015</lowerUncertainty>
        <upperUncertainty>0.1000000015</upperUncertainty>
      </time>
      <waveformID networkCode="CH" stationCode="FULLY" channelCode="HHT"/>
      <filterID> WA(1)-&gt;BW_HP(4,.5)</filterID>
      <phaseHint>Sg</phaseHint>
      <evaluationMode>manual</evaluationMode>
      <creationInfo>
        <agencyID>SED</agencyID>
        <author>lanzaf@sc3ag</author>
        <creationTime>2019-11-05T13:44:04.887772Z</creationTime>
      </creationInfo>
    </pick>
    <pick publicID="smi:ch.ethz.sed/sc3a/Pick/20191105134404.887865.528519">
      <time>
        <value>2019-11-05T01:06:32.26193Z</value>
        <lowerUncertainty>0.05000000075</lowerUncertainty>
        <upperUncertainty>0.05000000075</upperUncertainty>
      </time>
      <waveformID networkCode="CH" stationCode="DIX" channelCode="HHZ"/>
