<?xml version="1.0" encoding="UTF-8"?>
<seiscomp xmlns="http://geofon.gfz-potsdam.de/ns/seiscomp3-schema/0.11" version="0.11">
  <EventParameters>
    <pick publicID="Pick/20210310155336.049818.1987">
      <time>
        <value>2020-10-25T19:35:56.458293Z</value>
      </time>
      <waveformID networkCode="CH" stationCode="HASLI" channelCode="HHZ"/>
      <phaseHint>Pg</phaseHint>
      <evaluationMode>automatic</evaluationMode>
    </pick>
    <origin publicID="Origin/20210310155336.04971.1986">
      <time>
        <value>2020-10-25T19:35:43.383891Z</value>
      </time>
      <latitude>
        <value>46.90474746</value>
      </latitude>
      <longitude>
        <value>9.124707839</value>
      </longitude>
      <depth>
        <value>1.436523438</value>
      </depth>
      <epicenterFixed>true</epicenterFixed>
      <methodID>SCDETECT</methodID>
      <quality>
        <associatedPhaseCount>1</associatedPhaseCount>
        <usedPhaseCount>1</usedPhaseCount>
        <associatedStationCount>1</associatedStationCount>
        <usedStationCount>1</usedStationCount>
        <standardError>0</standardError>
        <maximumDistance>0.6822777327</maximumDistance>
        <minimumDistance>0.6822777327</minimumDistance>
        <medianDistance>0.6822777327</medianDistance>
      </quality>
      <evaluationMode>automatic</evaluationMode>
      <creationInfo>
        <agencyID>TEST</agencyID>
        <author>scdetect@seiscomp-fedora32</author>
        <creationTime>2021-03-10T15:53:36.049588Z</creationTime>
      </creationInfo>
      <arrival>
        <pickID>Pick/20210310155336.049818.1987</pickID>
        <phase>Pg</phase>
        <creationInfo>
          <agencyID>TEST</agencyID>
          <author>scdetect@seiscomp-fedora32</author>
          <creationTime>2021-03-10T15:53:36.049588Z</creationTime>
        </creationInfo>
      </arrival>
      <magnitude publicID="Magnitude/20210310155336.049644.1985">
        <magnitude>
          <value>4.324859837</value>
        </magnitude>
        <type>SCDETECT</type>
        <stationCount>1</stationCount>
        <creationInfo>
          <agencyID>TEST</agencyID>
          <author>scdetect@seiscomp-fedora32</author>
          <creationTime>2021-03-10T15:53:36.049588Z</creationTime>
        </creationInfo>
      </magnitude>
    </origin>
  </EventParameters>
</seiscomp>
