<?xml version="1.0" encoding="UTF-8"?>
<seiscomp xmlns="http://geofon.gfz-potsdam.de/ns/seiscomp3-schema/0.11" version="0.11">
  <EventParameters>
    <pick publicID="Pick/20210119164429.603554.5959">
      <time>
        <value>2020-10-25T19:35:55.825641Z</value>
      </time>
      <waveformID networkCode="" stationCode="">
        <resourceURI>CH.GRIMS..HHZ</resourceURI>
      </waveformID>
      <phaseHint>Pg</phaseHint>
      <evaluationMode>automatic</evaluationMode>
    </pick>
    <pick publicID="Pick/20210119164429.607174.5962">
      <time>
        <value>2020-10-25T19:35:56.458294Z</value>
      </time>
      <waveformID networkCode="" stationCode="">
        <resourceURI>CH.HASLI..HHZ</resourceURI>
      </waveformID>
      <phaseHint>Pg</phaseHint>
      <evaluationMode>automatic</evaluationMode>
    </pick>
    <origin publicID="Origin/20210119164429.603468.5958">
      <time>
        <value>2020-10-25T19:35:43.383892Z</value>
      </time>
      <latitude>
        <value>46.90474746</value>
      </latitude>
      <longitude>
        <value>9.124707839</value>
      </longitude>
      <depth>
        <value>1.436523438</value>
      </depth>
      <epicenterFixed>true</epicenterFixed>
      <methodID>SCDETECT</methodID>
      <quality>
        <associatedPhaseCount>1</associatedPhaseCount>
        <usedPhaseCount>1</usedPhaseCount>
        <associatedStationCount>1</associatedStationCount>
        <usedStationCount>1</usedStationCount>
        <standardError>0.0</standardError>
        <maximumDistance>0.6415833155</maximumDistance>
        <minimumDistance>0.6415833155</minimumDistance>
        <medianDistance>0.6415833155</medianDistance>
      </quality>
      <evaluationMode>automatic</evaluationMode>
      <creationInfo>
        <agencyID>TEST</agencyID>
        <author>scdetect@seiscomp-fedora32</author>
        <creationTime>2021-01-19T16:44:29.603262Z</creationTime>
      </creationInfo>
      <arrival>
        <pickID>Pick/20210119164429.603554.5959</pickID>
        <phase>Pg</phase>
        <creationInfo>
          <agencyID>TEST</agencyID>
          <author>scdetect@seiscomp-fedora32</author>
          <creationTime>2021-01-19T16:44:29.603262Z</creationTime>
        </creationInfo>
      </arrival>
      <magnitude publicID="Magnitude/20210119164429.603325.5957">
        <magnitude>
          <value>4.324859837</value>
        </magnitude>
        <type>SCDETECT</type>
        <stationCount>1</stationCount>
        <creationInfo>
          <agencyID>TEST</agencyID>
          <author>scdetect@seiscomp-fedora32</author>
          <creationTime>2021-01-19T16:44:29.603262Z</creationTime>
        </creationInfo>
      </magnitude>
    </origin>
    <origin publicID="Origin/20210119164429.607131.5961">
      <time>
        <value>2020-10-25T19:35:43.383892Z</value>
      </time>
      <latitude>
        <value>46.90474746</value>
      </latitude>
      <longitude>
        <value>9.124707839</value>
      </longitude>
      <depth>
        <value>1.436523438</value>
      </depth>
      <epicenterFixed>true</epicenterFixed>
      <methodID>SCDETECT</methodID>
      <quality>
        <associatedPhaseCount>1</associatedPhaseCount>
        <usedPhaseCount>1</usedPhaseCount>
        <associatedStationCount>1</associatedStationCount>
        <usedStationCount>1</usedStationCount>
        <standardError>0.0</standardError>
        <maximumDistance>0.6822777327</maximumDistance>
        <minimumDistance>0.6822777327</minimumDistance>
        <medianDistance>0.6822777327</medianDistance>
      </quality>
      <evaluationMode>automatic</evaluationMode>
      <creationInfo>
        <agencyID>TEST</agencyID>
        <author>scdetect@seiscomp-fedora32</author>
        <creationTime>2021-01-19T16:44:29.607062Z</creationTime>
      </creationInfo>
      <arrival>
        <pickID>Pick/20210119164429.607174.5962</pickID>
        <phase>Pg</phase>
        <creationInfo>
          <agencyID>TEST</agencyID>
          <author>scdetect@seiscomp-fedora32</author>
          <creationTime>2021-01-19T16:44:29.607062Z</creationTime>
        </creationInfo>
      </arrival>
      <magnitude publicID="Magnitude/20210119164429.607092.5960">
        <magnitude>
          <value>4.324859837</value>
        </magnitude>
        <type>SCDETECT</type>
        <stationCount>1</stationCount>
        <creationInfo>
          <agencyID>TEST</agencyID>
          <author>scdetect@seiscomp-fedora32</author>
          <creationTime>2021-01-19T16:44:29.607062Z</creationTime>
        </creationInfo>
      </magnitude>
    </origin>
  </EventParameters>
</seiscomp>
