<?xml version="1.0" encoding="UTF-8"?>
<seiscomp xmlns="http://geofon.gfz-potsdam.de/ns/seiscomp3-schema/0.11" version="0.11"><EventParameters><pick publicID="smi:ch.ethz.sed/sc3a/Pick/20191105121831.191348.1895862"><time><value>2019-11-05T04:23:49.099929Z</value><lowerUncertainty>0.02500000037</lowerUncertainty><upperUncertainty>0.02500000037</upperUncertainty></time><waveformID networkCode="8D" stationCode="RAW2" channelCode="HHZ"/><filterID>RMHP(4)-&gt;BW_BP(2,1,30)</filterID><phaseHint>Pg</phaseHint><polarity>negative</polarity><evaluationMode>manual</evaluationMode><creationInfo><agencyID>SED</agencyID><author>toni@sc3ag</author><creationTime>2019-11-05T12:18:31.191866Z</creationTime></creationInfo></pick><pick publicID="smi:ch.ethz.sed/sc3a/Pick/20191105121831.192011.1895863"><time><value>2019-11-05T04:23:50.083441Z</value><lowerUncertainty>0.05000000075</lowerUncertainty><upperUncertainty>0.05000000075</upperUncertainty></time><waveformID networkCode="8D" stationCode="RAW2" channelCode="HHT"/><filterID>RMHP(4)-&gt;BW_BP(2,1,30)</filterID><phaseHint>Sg</phaseHint><evaluationMode>manual</evaluationMode><creationInfo><agencyID>SED</agencyID><author>toni@sc3ag</author><creationTime>2019-11-05T12:18:31.192146Z</creationTime></creationInfo></pick><pick publicID="smi:ch.ethz.sed/sc3a/Pick/20191105121831.192292.1895864"><time><value>2019-11-05T04:23:49.208711Z</value><lowerUncertainty>0.02500000037</lowerUncertainty><upperUncertainty>0.02500000037</upperUncertainty></time><waveformID networkCode="CH" stationCode="SAYF2" channelCode="HGZ"/><filterID>RMHP(4)-&gt;BW_BP(2,1,30)</filterID><phaseHint>Pg</phaseHint><polarity>positive</polarity><evaluationMode>manual</evaluationMode><creationInfo><agencyID>SED</agencyID><author>toni@sc3ag</author><creationTime>2019-11-05T12:18:31.192364Z</creationTime></creationInfo></pick><pick publicID="smi:ch.ethz.sed/sc3a/Pick/20191105121831.19241.1895865"><time><value>2019-11-05T04:23:50.306746Z</value><lowerUncertainty>0.05000000075</lowerUncertainty><upperUncertainty>0.05000000075</upperUncertainty></time><waveformID networkCode="CH" stationCode="SAYF2" channelCode="HGT"/><filterID>RMHP(4)-&gt;BW_BP(2,1,30)</filterID><phaseHint>Sg</phaseHint><evaluationMode>manual</evaluationMode><creationInfo><agencyID>SED</agencyID><author>toni@sc3ag</author><creationTime>2019-11-05T12:18:31.192486Z</creationTime></creationInfo></pick><pick publicID="smi:ch.ethz.sed/sc3a/Pick/20191105121831.192742.1895866"><time><value>2019-11-05T04:23:49.338674Z</value><lowerUncertainty>0.02500000037</lowerUncertainty><upperUncertainty>0.02500000037</upperUncertainty></time><waveformID networkCode="CH" stationCode="STSW2" channelCode="HGZ"/><filterID>RMHP(4)-&gt;BW_BP(2,1,30)</filterID><phaseHint>Pg</phaseHint><polarity>negative</polarity><evaluationMode>manual</evaluationMode><creationInfo><agencyID>SED</agencyID><author>toni@sc3ag</author><creationTime>2019-11-05T12:18:31.192836Z</creationTime></creationInfo></pick><pick publicID="smi:ch.ethz.sed/sc3a/Pick/20191105121831.192889.1895867"><time><value>2019-11-05T04:23:50.436709Z</value><lowerUncertainty>0.05000000075</lowerUncertainty><upperUncertainty>0.05000000075</upperUncertainty></time><waveformID networkCode="CH" stationCode="STSW2" channelCode="HGT"/><filterID>RMHP(4)-&gt;BW_BP(2,1,30)</filterID><phaseHint>Sg</phaseHint><evaluationMode>manual</evaluationMode><creationInfo><agencyID>SED</agencyID><author>toni@sc3ag</author><creationTime>2019-11-05T12:18:31.192948Z</creationTime></creationInfo></pick><pick publicID="smi:ch.ethz.sed/sc3a/Pick/20191105121831.193068.1895868"><time><value>2019-11-05T04:23:49.398532Z</value><lowerUncertainty>0.02500000037</lowerUncertainty><upperUncertainty>0.02500000037</upperUncertainty></time><waveformID networkCode="CH" stationCode="SENIN" channelCode="HHZ"/><filterID>RMHP(4)-&gt;BW_BP(2,1,30)</filterID><phaseHint>Pg</phaseHint><polarity>negative</polarity><evaluationMode>manual</evaluationMode><creationInfo><agencyID>SED</agencyID><author>toni@sc3ag</author><creationTime>2019-11-05T12:18:31.193153Z</creationTime></creationInfo></pick><pick publicID="smi:ch.ethz.sed/sc3a/Pick/20191105121831.19318.1895869"><time><value>2019-11-05T04:23:50.592709Z</value><lowerUncertainty>0.02500000037</lowerUncertainty><upperUncertainty>0.02500000037</upperUncertainty></time><waveformID networkCode="CH" stationCode="SENIN" channelCode="HHT"/><filterID>RMHP(4)-&gt;BW_BP(2,1,30)</filterID><phaseHint>Sg</phaseHint><evaluationMode>manual</evaluationMode><creationInfo><agencyID>SED</agencyID><author>toni@sc3ag</author><creationTime>2019-11-05T12:18:31.193227Z</creationTime></creationInfo></pick><pick publicID="smi:ch.ethz.sed/sc3a/Pick/20191105121831.193314.1895870"><time><value>2019-11-05T04:23:49.840839Z</value><lowerUncertainty>0.05000000075</lowerUncertainty><upperUncertainty>0.05000000075</upperUncertainty></time><waveformID networkCode="XY" stationCode="LEO01" channelCode="HHZ"/><filterID>RMHP(4)-&gt;BW_BP(2,1,30)</filterID><phaseHint>Pg</phaseHint><polarity>undecidable</polarity><evaluationMode>manual</evaluationMode><creationInfo><agencyID>SED</agencyID><author>toni@sc3ag</author><creationTime>2019-11-05T12:18:31.193365Z</creationTime></creationInfo></pick><pick publicID="smi:ch.ethz.sed/sc3a/Pick/20191105121831.19339.1895871"><time><value>2019-11-05T04:23:51.586566Z</value><lowerUncertainty>0.05000000075</lowerUncertainty><upperUncertainty>0.05000000075</upperUncertainty></time><waveformID networkCode="XY" stationCode="LEO01" channelCode="HHT"/><filterID>RMHP(4)-&gt;BW_BP(2,1,30)</filterID><phaseHint>Sg</phaseHint><evaluationMode>manual</evaluationMode><creationInfo><agencyID>SED</agencyID><author>toni@sc3ag</author><creationTime>2019-11-05T12:18:31.193485Z</creationTime></creationInfo></pick><pick publicID="smi:ch.ethz.sed/sc3a/Pick/20191105121831.193547.1895872"><time><value>2019-11-05T04:23:51.184301Z</value><lowerUncertainty>0.05000000075</lowerUncertainty><upperUncertainty>0.05000000075</upperUncertainty></time><waveformID networkCode="CH" stationCode="SIOV" channelCode="HGT"/><filterID>RMHP(4)-&gt;BW_BP(2,1,30)</filterID><phaseHint>Sg</phaseHint><evaluationMode>manual</evaluationMode><creationInfo><agencyID>SED</agencyID><author>toni@sc3ag</author><creationTime>2019-11-05T12:18:31.193618Z</creationTime></creationInfo></pick><pick publicID="smi:ch.ethz.sed/sc3a/Pick/20191105125413.086034.1897809"><time><value>2019-11-05T04:23:49.864767Z</value><lowerUncertainty>0.1000000015</lowerUncertainty><upperUncertainty>0.1000000015</upperUncertainty></time><waveformID networkCode="CH" stationCode="SCRM" channelCode="HGZ"/><filterID>RMHP(4)-&gt;BW_BP(2,1,30)</filterID><phaseHint>Pg</phaseHint><polarity>undecidable</polarity><evaluationMode>manual</evaluationMode><creationInfo><agencyID>SED</agencyID><author>toni@sc3ag</author><creationTime>2019-11-05T12:54:13.086188Z</creationTime></creationInfo></pick><pick publicID="smi:ch.ethz.sed/sc3a/Pick/20191105125413.086266.1897810"><time><value>2019-11-05T04:23:51.900151Z</value><lowerUncertainty>0.05000000075</lowerUncertainty><upperUncertainty>0.05000000075</upperUncertainty></time><waveformID networkCode="CH" stationCode="SIOO" channelCode="HGT"/><filterID>RMHP(4)-&gt;BW_BP(2,1,30)</filterID><phaseHint>Sg</phaseHint><evaluationMode>manual</evaluationMode><creationInfo><agencyID>SED</agencyID><author>toni@sc3ag</author><creationTime>2019-11-05T12:54:13.086317Z</creationTime></creationInfo></pick><pick publicID="smi:ch.ethz.sed/sc3a/Pick/20191105125413.086357.1897811"><time><value>2019-11-05T04:23:51.43968Z</value><lowerUncertainty>0.05000000075</lowerUncertainty><upperUncertainty>0.05000000075</upperUncertainty></time><waveformID networkCode="CH" stationCode="SIOM" channelCode="HGT"/><filterID>RMHP(4)-&gt;BW_BP(2,1,30)</filterID><phaseHint>Sg</phaseHint><evaluationMode>manual</evaluationMode><creationInfo><agencyID>SED</agencyID><author>toni@sc3ag</author><creationTime>2019-11-05T12:54:13.086551Z</creationTime></creationInfo></pick><pick publicID="smi:ch.ethz.sed/sc3a/Pick/20191105125413.086602.1897812"><time><value>2019-11-05T04:23:52.164273Z</value><lowerUncertainty>0.05000000075</lowerUncertainty><upperUncertainty>0.05000000075</upperUncertainty></time><waveformID networkCode="8D" stationCode="RAW1" channelCode="HHT"/><filterID>RMHP(4)-&gt;BW_BP(2,1,30)</filterID><phaseHint>Sg</phaseHint><evaluationMode>manual</evaluationMode><creationInfo><agencyID>SED</agencyID><author>toni@sc3ag</author><creationTime>2019-11-05T12:54:13.086648Z</creationTime></creationInfo></pick><pick publicID="smi:ch.ethz.sed/sc3a/Pick/20191105125413.08668.1897813"><time><value>2019-11-05T04:23:50.22641Z</value><lowerUncertainty>0.05000000075</lowerUncertainty><upperUncertainty>0.05000000075</upperUncertainty></time><waveformID networkCode="8D" stationCode="RAW1" channelCode="HHZ"/><filterID>RMHP(4)-&gt;BW_BP(2,1,30)</filterID><phaseHint>Pg</phaseHint><polarity>negative</polarity><evaluationMode>manual</evaluationMode><creationInfo><agencyID>SED</agencyID><author>toni@sc3ag</author><creationTime>2019-11-05T12:54:13.086724Z</creationTime></creationInfo></pick><pick publicID="smi:ch.ethz.sed/sc3a/Pick/20191105125413.086793.1897814"><time><value>2019-11-05T04:23:50.258388Z</value><lowerUncertainty>0.02500000037</lowerUncertainty><upperUncertainty>0.02500000037</upperUncertainty></time><waveformID networkCode="XY" stationCode="SIE01" channelCode="HHZ"/><filterID>RMHP(4)-&gt;BW_BP(2,1,30)</filterID><phaseHint>Pg</phaseHint><polarity>negative</polarity><evaluationMode>manual</evaluationMode><creationInfo><agencyID>SED</agencyID><author>toni@sc3ag</author><creationTime>2019-11-05T12:54:13.086838Z</creationTime></creationInfo></pick><pick publicID="smi:ch.ethz.sed/sc3a/Pick/20191105125413.086891.1897815"><time><value>2019-11-05T04:23:50.129619Z</value><lowerUncertainty>0.05000000075</lowerUncertainty><upperUncertainty>0.05000000075</upperUncertainty></time><waveformID networkCode="XY" stationCode="VET01" channelCode="HHZ"/><filterID>RMHP(4)-&gt;BW_BP(2,1,30)</filterID><phaseHint>Pg</phaseHint><polarity>undecidable</polarity><evaluationMode>manual</evaluationMode><creationInfo><agencyID>SED</agencyID><author>toni@sc3ag</author><creationTime>2019-11-05T12:54:13.086962Z</creationTime></creationInfo></pick><pick publicID="smi:ch.ethz.sed/sc3a/Pick/20191105125413.086992.1897816"><time><value>2019-11-05T04:23:52.245626Z</value><lowerUncertainty>0.02500000037</lowerUncertainty><upperUncertainty>0.02500000037</upperUncertainty></time><waveformID networkCode="XY" stationCode="VET01" channelCode="HHT"/><filterID>RMHP(4)-&gt;BW_BP(2,1,30)</filterID><phaseHint>Sg</phaseHint><evaluationMode>manual</evaluationMode><creationInfo><agencyID>SED</agencyID><author>toni@sc3ag</author><creationTime>2019-11-05T12:54:13.087036Z</creationTime></creationInfo></pick><pick publicID="smi:ch.ethz.sed/sc3a/Pick/20191105125413.087074.1897817"><time><value>2019-11-05T04:23:50.462872Z</value><lowerUncertainty>0.02500000037</lowerUncertainty><upperUncertainty>0.02500000037</upperUncertainty></time><waveformID networkCode="CH" stationCode="SIEB" channelCode="HGZ"/><filterID>RMHP(4)-&gt;BW_BP(2,1,30)</filterID><phaseHint>Pg</phaseHint><polarity>negative</polarity><evaluationMode>manual</evaluationMode><creationInfo><agencyID>SED</agencyID><author>toni@sc3ag</author><creationTime>2019-11-05T12:54:13.087117Z</creationTime></creationInfo></pick><pick publicID="smi:ch.ethz.sed/sc3a/Pick/20191105125413.08714.1897818"><time><value>2019-11-05T04:23:52.64616Z</value><lowerUncertainty>0.1000000015</lowerUncertainty><upperUncertainty>0.1000000015</upperUncertainty></time><waveformID networkCode="CH" stationCode="SIEB" channelCode="HGT"/><filterID>RMHP(4)-&gt;BW_BP(2,1,30)</filterID><phaseHint>Sg</phaseHint><evaluationMode>manual</evaluationMode><creationInfo><agencyID>SED</agencyID><author>toni@sc3ag</author><creationTime>2019-11-05T12:54:13.087202Z</creationTime></creationInfo></pick><pick publicID="smi:ch.ethz.sed/sc3a/Pick/20191105125413.087241.1897819"><time><value>2019-11-05T04:23:52.87362Z</value><lowerUncertainty>0.05000000075</lowerUncertainty><upperUncertainty>0.05000000075</upperUncertainty></time><waveformID networkCode="XY" stationCode="VET02" channelCode="HHT"/><filterID>RMHP(4)-&gt;BW_BP(2,1,30)</filterID><phaseHint>Sg</phaseHint><evaluationMode>manual</evaluationMode><creationInfo><agencyID>SED</agencyID><author>toni@sc3ag</author><creationTime>2019-11-05T12:54:13.087328Z</creationTime></creationInfo></pick><pick publicID="smi:ch.ethz.sed/sc3a/Pick/20191105125413.087461.1897820"><time><value>2019-11-05T04:23:53.328022Z</value><lowerUncertainty>0.1000000015</lowerUncertainty><upperUncertainty>0.1000000015</upperUncertainty></time><waveformID networkCode="CH" stationCode="SLENK" channelCode="HGT"/><filterID>RMHP(4)-&gt;BW_BP(2,1,30)</filterID><phaseHint>Sg</phaseHint><evaluationMode>manual</evaluationMode><creationInfo><agencyID>SED</agencyID><author>toni@sc3ag</author><creationTime>2019-11-05T12:54:13.087523Z</creationTime></creationInfo></pick><pick publicID="smi:ch.ethz.sed/sc3a/Pick/20191105125413.087643.1897821"><time><value>2019-11-05T04:23:52.736571Z</value><lowerUncertainty>0.05000000075</lowerUncertainty><upperUncertainty>0.05000000075</upperUncertainty></time><waveformID networkCode="CH" stationCode="SARC" channelCode="HGT"/><filterID>RMHP(4)-&gt;BW_BP(2,1,30)</filterID><phaseHint>Sg</phaseHint><evaluationMode>manual</evaluationMode><creationInfo><agencyID>SED</agencyID><author>toni@sc3ag</author><creationTime>2019-11-05T12:54:13.087741Z</creationTime></creationInfo></pick><pick publicID="smi:ch.ethz.sed/sc3a/Pick/20191105125413.0878.1897822"><time><value>2019-11-05T04:23:50.883231Z</value><lowerUncertainty>0.05000000075</lowerUncertainty><upperUncertainty>0.05000000075</upperUncertainty></time><waveformID networkCode="CH" stationCode="SHER" channelCode="HGR"/><filterID>RMHP(4)-&gt;BW_BP(2,1,30)</filterID><phaseHint>Pg</phaseHint><polarity>negative</polarity><evaluationMode>manual</evaluationMode><creationInfo><agencyID>SED</agencyID><author>toni@sc3ag</author><creationTime>2019-11-05T12:54:13.087858Z</creationTime></creationInfo></pick><pick publicID="smi:ch.ethz.sed/sc3a/Pick/20191105125413.087924.1897823"><time><value>2019-11-05T04:23:53.112208Z</value><lowerUncertainty>0.1000000015</lowerUncertainty><upperUncertainty>0.1000000015</upperUncertainty></time><waveformID networkCode="CH" stationCode="SHER" channelCode="HGT"/><filterID>RMHP(4)-&gt;BW_BP(2,1,30)</filterID><phaseHint>Sg</phaseHint><evaluationMode>manual</evaluationMode><creationInfo><agencyID>SED</agencyID><author>toni@sc3ag</author><creationTime>2019-11-05T12:54:13.087995Z</creationTime></creationInfo></pick><pick publicID="smi:ch.ethz.sed/sc3a/Pick/20191105125413.088062.1897824"><time><value>2019-11-05T04:23:53.840818Z</value><lowerUncertainty>0.05000000075</lowerUncertainty><upperUncertainty>0.05000000075</upperUncertainty></time><waveformID networkCode="8D" stationCode="RAW4" channelCode="EHT"/><filterID>RMHP(4)-&gt;BW_BP(2,1,30)</filterID><phaseHint>Sg</phaseHint><evaluationMode>manual</evaluationMode><creationInfo><agencyID>SED</agencyID><author>toni@sc3ag</author><creationTime>2019-11-05T12:54:13.08815Z</creationTime></creationInfo></pick><pick publicID="smi:ch.ethz.sed/sc3a/Pick/20191105125413.088204.1897825"><time><value>2019-11-05T04:23:51.229482Z</value><lowerUncertainty>0.05000000075</lowerUncertainty><upperUncertainty>0.05000000075</upperUncertainty></time><waveformID networkCode="8D" stationCode="RAW4" channelCode="EHZ"/><filterID>RMHP(4)-&gt;BW_BP(2,1,30)</filterID><phaseHint>Pg</phaseHint><polarity>undecidable</polarity><evaluationMode>manual</evaluationMode><creationInfo><agencyID>SED</agencyID><author>toni@sc3ag</author><creationTime>2019-11-05T12:54:13.088276Z</creationTime></creationInfo></pick><pick publicID="smi:ch.ethz.sed/sc3a/Pick/20191105125413.088327.1897826"><time><value>2019-11-05T04:23:51.238593Z</value><lowerUncertainty>0.02500000037</lowerUncertainty><upperUncertainty>0.02500000037</upperUncertainty></time><waveformID networkCode="CH" stationCode="GRYON" channelCode="HHZ"/><filterID>RMHP(4)-&gt;BW_BP(2,1,30)</filterID><phaseHint>Pg</phaseHint><polarity>negative</polarity><evaluationMode>manual</evaluationMode><creationInfo><agencyID>SED</agencyID><author>toni@sc3ag</author><creationTime>2019-11-05T12:54:13.088397Z</creationTime></creationInfo></pick><pick publicID="smi:ch.ethz.sed/sc3a/Pick/20191105125413.088426.1897827"><time><value>2019-11-05T04:23:54.258357Z</value><lowerUncertainty>0.05000000075</lowerUncertainty><upperUncertainty>0.05000000075</upperUncertainty></time><waveformID networkCode="CH" stationCode="GRYON" channelCode="HHT"/><filterID>RMHP(4)-&gt;BW_BP(2,1,30)</filterID><phaseHint>Sg</phaseHint><evaluationMode>manual</evaluationMode><creationInfo><agencyID>SED</agencyID><author>toni@sc3ag</author><creationTime>2019-11-05T12:54:13.08847Z</creationTime></creationInfo></pick><pick publicID="smi:ch.ethz.sed/sc3a/Pick/20191105125413.088542.1897828"><time><value>2019-11-05T04:23:51.763103Z</value><lowerUncertainty>0.02500000037</lowerUncertainty><upperUncertainty>0.02500000037</upperUncertainty></time><waveformID networkCode="CH" stationCode="LKBD2" channelCode="HHR"/><filterID>RMHP(4)-&gt;BW_BP(2,1,30)</filterID><phaseHint>Pg</phaseHint><polarity>positive</polarity><evaluationMode>manual</evaluationMode><creationInfo><agencyID>SED</agencyID><author>toni@sc3ag</author><creationTime>2019-11-05T12:54:13.088587Z</creationTime></creationInfo></pick><pick publicID="smi:ch.ethz.sed/sc3a/Pick/20191105125413.08861.1897829"><time><value>2019-11-05T04:23:54.904527Z</value><lowerUncertainty>0.05000000075</lowerUncertainty><upperUncertainty>0.05000000075</upperUncertainty></time><waveformID networkCode="CH" stationCode="LKBD2" channelCode="HHT"/><filterID>RMHP(4)-&gt;BW_BP(2,1,30)</filterID><phaseHint>Sg</phaseHint><evaluationMode>manual</evaluationMode><creationInfo><agencyID>SED</agencyID><author>toni@sc3ag</author><creationTime>2019-11-05T12:54:13.088653Z</creationTime></creationInfo></pick><pick publicID="smi:ch.ethz.sed/sc3a/Pick/20191105125413.088691.1897830"><time><value>2019-11-05T04:23:51.905748Z</value><lowerUncertainty>0.05000000075</lowerUncertainty><upperUncertainty>0.05000000075</upperUncertainty></time><waveformID networkCode="CH" stationCode="VANNI" channelCode="HHZ"/><filterID>RMHP(4)-&gt;BW_BP(2,1,30)</filterID><phaseHint>Pg</phaseHint><polarity>negative</polarity><evaluationMode>manual</evaluationMode><creationInfo><agencyID>SED</agencyID><author>toni@sc3ag</author><creationTime>2019-11-05T12:54:13.088734Z</creationTime></creationInfo></pick><pick publicID="smi:ch.ethz.sed/sc3a/Pick/20191105125413.088761.1897831"><time><value>2019-11-05T04:23:52.325452Z</value><lowerUncertainty>0.05000000075</lowerUncertainty><upperUncertainty>0.05000000075</upperUncertainty></time><waveformID networkCode="CH" stationCode="SCOD" channelCode="HGZ"/><filterID>RMHP(4)-&gt;BW_BP(2,1,30)</filterID><phaseHint>Pg</phaseHint><polarity>positive</polarity><evaluationMode>manual</evaluationMode><creationInfo><agencyID>SED</agencyID><author>toni@sc3ag</author><creationTime>2019-11-05T12:54:13.088835Z</creationTime></creationInfo></pick><pick publicID="smi:ch.ethz.sed/sc3a/Pick/20191105125413.088886.1897832"><time><value>2019-11-05T04:23:55.831855Z</value><lowerUncertainty>0.05000000075</lowerUncertainty><upperUncertainty>0.05000000075</upperUncertainty></time><waveformID networkCode="CH" stationCode="SCOD" channelCode="HGT"/><filterID>RMHP(4)-&gt;BW_BP(2,1,30)</filterID><phaseHint>Sg</phaseHint><evaluationMode>manual</evaluationMode><creationInfo><agencyID>SED</agencyID><author>toni@sc3ag</author><creationTime>2019-11-05T12:54:13.088937Z</creationTime></creationInfo></pick><pick publicID="smi:ch.ethz.sed/sc3a/Pick/20191105125413.088973.1897833"><time><value>2019-11-05T04:23:55.609351Z</value><lowerUncertainty>0.1000000015</lowerUncertainty><upperUncertainty>0.1000000015</upp