<?xml version="1.0" encoding="UTF-8"?>
<seiscomp xmlns="http://geofon.gfz-potsdam.de/ns/seiscomp3-schema/0.12" version="0.12">
  <EventParameters>
    <pick publicID="Pick/20230420150120.172828.43319">
      <time>
        <value>2019-11-05T04:30:31.46993Z</value>
      </time>
      <waveformID networkCode="8D" stationCode="RAW2" channelCode="HH"/>
      <phaseHint>Pg</phaseHint>
      <evaluationMode>automatic</evaluationMode>
      <creationInfo>
        <agencyID>TEST</agencyID>
        <author>scdetect-cc@lscarabellows</author>
        <creationTime>2023-04-20T15:01:20.172816Z</creationTime>
      </creationInfo>
      <comment>
        <text>2019-11-05T04:23:48.595Z|2019-11-05T04:23:51.1Z|2019-11-05T04:23:49.099929Z</text>
        <id>scdetectTemplateWaveformTimeInfo</id>
      </comment>
    </pick>
    <pick publicID="Pick/20230420150120.173353.43321">
      <time>
        <value>2019-11-05T04:30:49.80493Z</value>
      </time>
      <waveformID networkCode="8D" stationCode="RAW2" channelCode="HH"/>
      <phaseHint>Pg</phaseHint>
      <evaluationMode>automatic</evaluationMode>
      <creationInfo>
        <agencyID>TEST</agencyID>
        <author>scdetect-cc@lscarabellows</author>
        <creationTime>2023-04-20T15:01:20.173347Z</creationTime>
      </creationInfo>
      <comment>
        <text>2019-11-05T04:23:48.595Z|2019-11-05T04:23:51.1Z|2019-11-05T04:23:49.099929Z</text>
        <id>scdetectTemplateWaveformTimeInfo</id>
      </comment>
    </pick>
    <origin publicID="Origin/20230420150120.172819.43318">
      <time>
        <value>2019-11-05T04:30:30.010489Z</value>
      </time>
      <latitude>
        <value>46.32480762</value>
      </latitude>
      <longitude>
        <value>7.36023502</value>
      </longitude>
      <depth>
        <value>4.813476562</value>
      </depth>
      <epicenterFixed>true</epicenterFixed>
      <methodID>DETECT</methodID>
      <quality>
        <associatedPhaseCount>1</associatedPhaseCount>
        <usedPhaseCount>1</usedPhaseCount>
        <associatedStationCount>1</associatedStationCount>
        <usedStationCount>1</usedStationCount>
        <standardError>0.33423896800256747</standardError>
        <maximumDistance>0.03223286148198979</maximumDistance>
        <minimumDistance>0.03223286148198979</minimumDistance>
        <medianDistance>0.03223286148198979</medianDistance>
      </quality>
      <evaluationMode>automatic</evaluationMode>
      <creationInfo>
        <agencyID>TEST</agencyID>
        <author>scdetect-cc@lscarabellows</author>
        <creationTime>2023-04-20T15:01:20.172816Z</creationTime>
      </creationInfo>
      <comment>
        <text>detector-01</text>
        <id>scdetectDetectorId</id>
      </comment>
      <comment>
        <text>0.665761</text>
        <id>scdetectResultCCC</id>
      </comment>
      <arrival>
        <pickID>Pick/20230420150120.172828.43319</pickID>
        <phase>Pg</phase>
        <azimuth>251.92795642647147</azimuth>
        <distance>0.03223286148198979</distance>
        <weight>1.037711232</weight>
        <creationInfo>
          <agencyID>TEST</agencyID>
          <author>scdetect-cc@lscarabellows</author>
          <creationTime>2023-04-20T15:01:20.172816Z</creationTime>
        </creationInfo>
      </arrival>
    </origin>
    <origin publicID="Origin/20230420150120.173349.43320">
      <time>
        <value>2019-11-05T04:30:48.345489Z</value>
      </time>
      <latitude>
        <value>46.32480762</value>
      </latitude>
      <longitude>
        <value>7.36023502</value>
      </longitude>
      <depth>
        <value>4.813476562</value>
      </depth>
      <epicenterFixed>true</epicenterFixed>
      <methodID>DETECT</methodID>
      <quality>
        <associatedPhaseCount>1</associatedPhaseCount>
        <usedPhaseCount>1</usedPhaseCount>
        <associatedStationCount>1</associatedStationCount>
        <usedStationCount>1</usedStationCount>
        <standardError>0.2736064535109556</standardError>
        <maximumDistance>0.03223286148198979</maximumDistance>
        <minimumDistance>0.03223286148198979</minimumDistance>
        <medianDistance>0.03223286148198979</medianDistance>
      </quality>
      <evaluationMode>automatic</evaluationMode>
      <creationInfo>
        <agencyID>TEST</agencyID>
        <author>scdetect-cc@lscarabellows</author>
        <creationTime>2023-04-20T15:01:20.173347Z</creationTime>
      </creationInfo>
      <comment>
        <text>detector-01</text>
        <id>scdetectDetectorId</id>
      </comment>
      <comment>
        <text>0.726394</text>
        <id>scdetectResultCCC</id>
      </comment>
      <arrival>
        <pickID>Pick/20230420150120.173353.43321</pickID>
        <phase>Pg</phase>
        <azimuth>251.92795642647147</azimuth>
        <distance>0.03223286148198979</distance>
        <weight>1.037711232</weight>
        <creationInfo>
          <agencyID>TEST</agencyID>
          <author>scdetect-cc@lscarabellows</author>
          <creationTime>2023-04-20T15:01:20.173347Z</creationTime>
        </creationInfo>
      </arrival>
    </origin>
  </EventParameters>
</seiscomp>
