<?xml version="1.0" encoding="UTF-8"?>
<seiscomp xmlns="http://geofon.gfz-potsdam.de/ns/seiscomp3-schema/0.12" version="0.12">
  <EventParameters>
    <pick publicID="Pick/20230420150116.187783.34418">
      <time>
        <value>2019-11-05T05:23:50.083442Z</value>
      </time>
      <waveformID networkCode="8D" stationCode="RAW2" channelCode="HH"/>
      <phaseHint>Sg</phaseHint>
      <evaluationMode>automatic</evaluationMode>
      <creationInfo>
        <agencyID>TEST</agencyID>
        <author>scdetect-cc@lscarabellows</author>
        <creationTime>2023-04-20T15:01:16.187768Z</creationTime>
      </creationInfo>
      <comment>
        <text>2019-11-05T04:23:49.58Z|2019-11-05T04:23:52.085Z|2019-11-05T04:23:50.083441Z</text>
        <id>scdetectTemplateWaveformTimeInfo</id>
      </comment>
    </pick>
    <origin publicID="Origin/20230420150116.187772.34417">
      <time>
        <value>2019-11-05T05:23:47.640489Z</value>
      </time>
      <latitude>
        <value>46.32480762</value>
      </latitude>
      <longitude>
        <value>7.36023502</value>
      </longitude>
      <depth>
        <value>4.813476562</value>
      </depth>
      <epicenterFixed>true</epicenterFixed>
      <methodID>DETECT</methodID>
      <quality>
        <associatedPhaseCount>2</associatedPhaseCount>
        <usedPhaseCount>2</usedPhaseCount>
        <associatedStationCount>1</associatedStationCount>
        <usedStationCount>1</usedStationCount>
        <standardError>1.1102230246251565e-15</standardError>
        <maximumDistance>0.03223286148198979</maximumDistance>
        <minimumDistance>0.03223286148198979</minimumDistance>
        <medianDistance>0.03223286148198979</medianDistance>
      </quality>
      <evaluationMode>automatic</evaluationMode>
      <creationInfo>
        <agencyID>TEST</agencyID>
        <author>scdetect-cc@lscarabellows</author>
        <creationTime>2023-04-20T15:01:16.187768Z</creationTime>
      </creationInfo>
      <comment>
        <text>detector-01</text>
        <id>scdetectDetectorId</id>
      </comment>
      <comment>
        <text>1.000000</text>
        <id>scdetectResultCCC</id>
      </comment>
      <arrival>
        <pickID>Pick/20230420150116.187783.34418</pickID>
        <phase>Sg</phase>
        <azimuth>251.92795642647147</azimuth>
        <distance>0.03223286148198979</distance>
        <weight>1.007777254</weight>
        <creationInfo>
          <agencyID>TEST</agencyID>
          <author>scdetect-cc@lscarabellows</author>
          <creationTime>2023-04-20T15:01:16.187768Z</creationTime>
        </creationInfo>
      </arrival>
    </origin>
  </EventParameters>
</seiscomp>
