<?xml version="1.0" encoding="UTF-8"?>
<seiscomp xmlns="http://geofon.gfz-potsdam.de/ns/seiscomp3-schema/0.12" version="0.12">
  <EventParameters>
    <pick publicID="Pick/20230420150122.829201.66588">
      <time>
        <value>2019-11-05T05:23:56.524045Z</value>
      </time>
      <waveformID networkCode="CH" stationCode="LAVEY" locationCode="BT" channelCode="EH"/>
      <phaseHint>Sg</phaseHint>
      <evaluationMode>automatic</evaluationMode>
      <creationInfo>
        <agencyID>TEST</agencyID>
        <author>scdetect-cc@lscarabellows</author>
        <creationTime>2023-04-20T15:01:22.829188Z</creationTime>
      </creationInfo>
      <comment>
        <text>2019-11-05T04:23:56.02Z|2019-11-05T04:23:58.525Z|2019-11-05T04:23:56.524044Z</text>
        <id>scdetectTemplateWaveformTimeInfo</id>
      </comment>
    </pick>
    <pick publicID="Pick/20230420150122.829216.66590">
      <time>
        <value>2019-11-05T05:23:50.083442Z</value>
      </time>
      <waveformID networkCode="8D" stationCode="RAW2" channelCode="HH"/>
      <phaseHint>Sg</phaseHint>
      <evaluationMode>automatic</evaluationMode>
      <creationInfo>
        <agencyID>TEST</agencyID>
        <author>scdetect-cc@lscarabellows</author>
        <creationTime>2023-04-20T15:01:22.829188Z</creationTime>
      </creationInfo>
      <comment>
        <text>2019-11-05T04:23:49.58Z|2019-11-05T04:23:52.085Z|2019-11-05T04:23:50.083441Z</text>
        <id>scdetectTemplateWaveformTimeInfo</id>
      </comment>
    </pick>
    <amplitude publicID="Amplitude/20230420150122.829514.66595">
      <type>MLx</type>
      <amplitude>
        <value>2.0582527645989076e-05</value>
      </amplitude>
      <timeWindow>
        <reference>2019-11-05T05:23:50.083441Z</reference>
        <begin>0.5</begin>
        <end>2</end>
      </timeWindow>
      <unit>M/S</unit>
      <waveformID networkCode="8D" stationCode="RAW2" channelCode="HH"/>
      <creationInfo>
        <agencyID>TEST</agencyID>
        <author>scdetect-cc@lscarabellows</author>
        <creationTime>2023-04-20T15:01:22.829513Z</creationTime>
      </creationInfo>
      <comment>
        <text>detector-01</text>
        <id>scdetectDetectorId</id>
      </comment>
      <comment>
        <text>Pick/20230420150122.829216.66590||Pick/20230420150122.829216.66590</text>
        <id>scdetectAmplitudePicks</id>
      </comment>
      <comment>
        <text>8D.RAW2..HHE||8D.RAW2..HHN</text>
        <id>scdetectAmplitudeStreams</id>
      </comment>
    </amplitude>
    <amplitude publicID="Amplitude/20230420150122.829375.66592">
      <type>MLx</type>
      <amplitude>
        <value>3.24080161676806e-07</value>
      </amplitude>
      <timeWindow>
        <reference>2019-11-05T05:23:56.524044Z</reference>
        <begin>0.5</begin>
        <end>2</end>
      </timeWindow>
      <unit>M/S</unit>
      <waveformID networkCode="CH" stationCode="LAVEY" locationCode="BT" channelCode="EH"/>
      <creationInfo>
        <agencyID>TEST</agencyID>
        <author>scdetect-cc@lscarabellows</author>
        <creationTime>2023-04-20T15:01:22.829374Z</creationTime>
      </creationInfo>
      <comment>
        <text>detector-01</text>
        <id>scdetectDetectorId</id>
      </comment>
      <comment>
        <text>Pick/20230420150122.829201.66588||Pick/20230420150122.829201.66588</text>
        <id>scdetectAmplitudePicks</id>
      </comment>
      <comment>
        <text>CH.LAVEY.BT.EH3||CH.LAVEY.BT.EH2</text>
        <id>scdetectAmplitudeStreams</id>
      </comment>
    </amplitude>
    <origin publicID="Origin/20230420150122.829192.66587">
      <time>
        <value>2019-11-05T05:23:47.640489Z</value>
      </time>
      <latitude>
        <value>46.32480762</value>
      </latitude>
      <longitude>
        <value>7.36023502</value>
      </longitude>
      <depth>
        <value>4.813476562</value>
      </depth>
      <epicenterFixed>true</epicenterFixed>
      <methodID>DETECT</methodID>
      <quality>
        <associatedPhaseCount>4</associatedPhaseCount>
        <usedPhaseCount>4</usedPhaseCount>
        <associatedStationCount>2</associatedStationCount>
        <usedStationCount>2</usedStationCount>
        <standardError>-4.440892098500626e-16</standardError>
        <azimuthalGap>9.970673257951148</azimuthalGap>
        <maximumDistance>0.26441915201246824</maximumDistance>
        <minimumDistance>0.03223286148198979</minimumDistance>
        <medianDistance>0.26441915201246824</medianDistance>
      </quality>
      <evaluationMode>automatic</evaluationMode>
      <creationInfo>
        <agencyID>TEST</agencyID>
        <author>scdetect-cc@lscarabellows</author>
        <creationTime>2023-04-20T15:01:22.829188Z</creationTime>
      </creationInfo>
      <comment>
        <text>detector-01</text>
        <id>scdetectDetectorId</id>
      </comment>
      <comment>
        <text>1.000000</text>
        <id>scdetectResultCCC</id>
      </comment>
      <arrival>
        <pickID>Pick/20230420150122.829201.66588</pickID>
        <phase>Sg</phase>
        <azimuth>241.9572831685203</azimuth>
        <distance>0.26441915201246824</distance>
        <weight>0.903524435</weight>
        <creationInfo>
          <agencyID>TEST</agencyID>
          <author>scdetect-cc@lscarabellows</author>
          <creationTime>2023-04-20T15:01:22.829188Z</creationTime>
        </creationInfo>
      </arrival>
      <arrival>
        <pickID>Pick/20230420150122.829216.66590</pickID>
        <phase>Sg</phase>
        <azimuth>251.92795642647147</azimuth>
        <distance>0.03223286148198979</distance>
        <weight>1.007777254</weight>
        <creationInfo>
          <agencyID>TEST</agencyID>
          <author>scdetect-cc@lscarabellows</author>
          <creationTime>2023-04-20T15:01:22.829188Z</creationTime>
        </creationInfo>
      </arrival>
      <stationMagnitude publicID="StationMagnitude/20230420150122.829389.66593">
        <magnitude>
          <value>1.22595280600002</value>
        </magnitude>
        <type>MLx</type>
        <amplitudeID>Amplitude/20230420150122.829375.66592</amplitudeID>
        <waveformID networkCode="CH" stationCode="LAVEY" locationCode="BT" channelCode="EH"/>
      </stationMagnitude>
      <stationMagnitude publicID="StationMagnitude/20230420150122.829524.66596">
        <magnitude>
          <value>2.757863364</value>
        </magnitude>
        <type>MLx</type>
        <amplitudeID>Amplitude/20230420150122.829514.66595</amplitudeID>
        <waveformID networkCode="8D" stationCode="RAW2" channelCode="HH"/>
      </stationMagnitude>
      <magnitude publicID="Magnitude/20230420150122.829529.66597">
        <magnitude>
          <value>1.22595280600002</value>
        </magnitude>
        <type>MLx</type>
        <stationCount>2</stationCount>
        <stationMagnitudeContribution>
          <stationMagnitudeID>StationMagnitude/20230420150122.829389.66593</stationMagnitudeID>
          <weight>0.5</weight>
        </stationMagnitudeContribution>
        <stationMagnitudeContribution>
          <stationMagnitudeID>StationMagnitude/20230420150122.829524.66596</stationMagnitudeID>
          <weight>0.5</weight>
        </stationMagnitudeContribution>
      </magnitude>
    </origin>
  </EventParameters>
</seiscomp>
