<?xml version="1.0" encoding="UTF-8"?>
<seiscomp xmlns="http://geofon.gfz-potsdam.de/ns/seiscomp3-schema/0.12" version="0.12">
  <EventParameters>
    <pick publicID="Pick/20220715181711.827753.421">
      <creationInfo>
        <agencyID>TEST</agencyID>
        <author>scdetect@seiscomp-fedora32</author>
        <creationTime>2021-01-12T16:30:56.225889Z</creationTime>
      </creationInfo>
      <time>
        <value>2019-11-05T05:23:56.524045Z</value>
      </time>
      <waveformID networkCode="CH" stationCode="LAVEY" locationCode="BT" channelCode="EH"/>
      <phaseHint>Sg</phaseHint>
      <evaluationMode>automatic</evaluationMode>
      <comment>
        <text>2019-11-05T04:23:56.02Z|2019-11-05T04:23:58.525Z|2019-11-05T04:23:56.524044Z</text>
        <id>scdetectTemplateWaveformTimeInfo</id>
      </comment>
    </pick>
    <pick publicID="Pick/20220715181711.827927.423">
      <creationInfo>
        <agencyID>TEST</agencyID>
        <author>scdetect@seiscomp-fedora32</author>
        <creationTime>2021-01-12T16:30:56.225889Z</creationTime>
      </creationInfo>
      <time>
        <value>2019-11-05T05:23:50.083442Z</value>
      </time>
      <waveformID networkCode="8D" stationCode="RAW2" channelCode="HH"/>
      <phaseHint>Sg</phaseHint>
      <evaluationMode>automatic</evaluationMode>
      <comment>
        <text>2019-11-05T04:23:49.58Z|2019-11-05T04:23:52.085Z|2019-11-05T04:23:50.083441Z</text>
        <id>scdetectTemplateWaveformTimeInfo</id>
      </comment>
    </pick>
    <amplitude publicID="Amplitude/20220715181711.834486.428">
      <type>MLx</type>
      <amplitude>
        <value>2.058252765e-05</value>
      </amplitude>
      <timeWindow>
        <reference>2019-11-05T05:23:50.083442Z</reference>
        <begin>0.499999</begin>
        <end>2</end>
      </timeWindow>
      <unit>M/S</unit>
      <waveformID networkCode="8D" stationCode="RAW2" channelCode="HH"/>
      <creationInfo>
        <agencyID>TEST</agencyID>
        <author>scdetect-cc@seiscomp-fedora34</author>
        <creationTime>2022-07-15T18:17:11.834477Z</creationTime>
      </creationInfo>
      <comment>
        <text>detector-01</text>
        <id>scdetectDetectorId</id>
      </comment>
      <comment>
        <text>Pick/20220715181711.827927.423||Pick/20220715181711.827927.423</text>
        <id>scdetectAmplitudePicks</id>
      </comment>
      <comment>
        <text>8D.RAW2..HHE||8D.RAW2..HHN</text>
        <id>scdetectAmplitudeStreams</id>
      </comment>
    </amplitude>
    <amplitude publicID="Amplitude/20220715181711.832116.425">
      <type>MLx</type>
      <amplitude>
        <value>3.240801617e-07</value>
      </amplitude>
      <timeWindow>
        <reference>2019-11-05T05:23:56.524045Z</reference>
        <begin>0.499999</begin>
        <end>2</end>
      </timeWindow>
      <unit>M/S</unit>
      <waveformID networkCode="CH" stationCode="LAVEY" locationCode="BT" channelCode="EH"/>
      <creationInfo>
        <agencyID>TEST</agencyID>
        <author>scdetect-cc@seiscomp-fedora34</author>
        <creationTime>2022-07-15T18:17:11.832098Z</creationTime>
      </creationInfo>
      <comment>
        <text>detector-01</text>
        <id>scdetectDetectorId</id>
      </comment>
      <comment>
        <text>Pick/20220715181711.827753.421||Pick/20220715181711.827753.421</text>
        <id>scdetectAmplitudePicks</id>
      </comment>
      <comment>
        <text>CH.LAVEY.BT.EH3||CH.LAVEY.BT.EH2</text>
        <id>scdetectAmplitudeStreams</id>
      </comment>
    </amplitude>
    <origin publicID="Origin/20220715181711.827492.420">
      <time>
        <value>2019-11-05T05:23:47.640489Z</value>
      </time>
      <latitude>
        <value>46.32480762</value>
      </latitude>
      <longitude>
        <value>7.36023502</value>
      </longitude>
      <depth>
        <value>4.813476562</value>
      </depth>
      <epicenterFixed>true</epicenterFixed>
      <methodID>DETECT</methodID>
      <quality>
        <associatedPhaseCount>4</associatedPhaseCount>
        <usedPhaseCount>4</usedPhaseCount>
        <associatedStationCount>2</associatedStationCount>
        <usedStationCount>2</usedStationCount>
        <standardError>0</standardError>
        <azimuthalGap>9.970673258</azimuthalGap>
        <maximumDistance>0.264419152</maximumDistance>
        <minimumDistance>0.03223286148</minimumDistance>
        <medianDistance>0.264419152</medianDistance>
      </quality>
      <evaluationMode>automatic</evaluationMode>
      <creationInfo>
        <agencyID>TEST</agencyID>
        <author>scdetect-cc@seiscomp-fedora34</author>
        <creationTime>2022-07-15T18:17:11.827465Z</creationTime>
      </creationInfo>
      <comment>
        <text>detector-01</text>
        <id>scdetectDetectorId</id>
      </comment>
      <comment>
        <text>1.000000</text>
        <id>scdetectResultCCC</id>
      </comment>
      <arrival>
        <pickID>Pick/20220715181711.827753.421</pickID>
        <phase>Sg</phase>
        <weight>0.903524435</weight>
        <creationInfo>
          <agencyID>TEST</agencyID>
          <author>scdetect-cc@seiscomp-fedora34</author>
          <creationTime>2022-07-15T18:17:11.827465Z</creationTime>
        </creationInfo>
      </arrival>
      <arrival>
        <pickID>Pick/20220715181711.827927.423</pickID>
        <phase>Sg</phase>
        <weight>1.007777254</weight>
        <creationInfo>
          <agencyID>TEST</agencyID>
          <author>scdetect-cc@seiscomp-fedora34</author>
          <creationTime>2022-07-15T18:17:11.827465Z</creationTime>
        </creationInfo>
      </arrival>
      <stationMagnitude publicID="StationMagnitude/20220715181711.832513.426">
        <magnitude>
          <value>1.225952806</value>
        </magnitude>
        <type>MLx</type>
        <amplitudeID>Amplitude/20220715181711.832116.425</amplitudeID>
        <waveformID networkCode="CH" stationCode="LAVEY" locationCode="BT" channelCode="EH"/>
      </stationMagnitude>
      <stationMagnitude publicID="StationMagnitude/20220715181711.834759.429">
        <magnitude>
          <value>2.757863364</value>
        </magnitude>
        <type>MLx</type>
        <amplitudeID>Amplitude/20220715181711.834486.428</amplitudeID>
        <waveformID networkCode="8D" stationCode="RAW2" channelCode="HH"/>
      </stationMagnitude>
      <magnitude publicID="Magnitude/20220715181711.834857.430">
        <magnitude>
          <value>1.225952806</value>
        </magnitude>
        <type>MLx</type>
        <stationCount>2</stationCount>
        <stationMagnitudeContribution>
          <stationMagnitudeID>StationMagnitude/20220715181711.832513.426</stationMagnitudeID>
          <weight>0.5</weight>
        </stationMagnitudeContribution>
        <stationMagnitudeContribution>
          <stationMagnitudeID>StationMagnitude/20220715181711.834759.429</stationMagnitudeID>
          <weight>0.5</weight>
        </stationMagnitudeContribution>
      </magnitude>
    </origin>
  </EventParameters>
</seiscomp>
