<?xml version="1.0" encoding="UTF-8"?>
<seiscomp xmlns="http://geofon.gfz-potsdam.de/ns/seiscomp3-schema/0.11" version="0.11">
  <EventParameters>
    <pick publicID="Pick/20210210124808.184396.1988">
      <time>
        <value>2020-10-25T19:35:56.458294Z</value>
      </time>
      <waveformID networkCode="CH" stationCode="HASLI" channelCode="HHZ"/>
      <phaseHint>Pg</phaseHint>
      <evaluationMode>automatic</evaluationMode>
    </pick>
    <pick publicID="Pick/20210210124808.184427.1989">
      <time>
        <value>2020-10-25T19:35:55.825641Z</value>
      </time>
      <waveformID networkCode="CH" stationCode="GRIMS" channelCode="HHZ"/>
      <phaseHint>Pg</phaseHint>
      <evaluationMode>automatic</evaluationMode>
    </pick>
    <origin publicID="Origin/20210210124808.184284.1987">
      <time>
        <value>2020-10-25T19:35:43.383892Z</value>
      </time>
      <latitude>
        <value>46.90474746</value>
      </latitude>
      <longitude>
        <value>9.124707839</value>
      </longitude>
      <depth>
        <value>1.436523438</value>
      </depth>
      <epicenterFixed>true</epicenterFixed>
      <methodID>DETECT</methodID>
      <quality>
        <associatedPhaseCount>2</associatedPhaseCount>
        <usedPhaseCount>2</usedPhaseCount>
        <associatedStationCount>2</associatedStationCount>
        <usedStationCount>2</usedStationCount>
        <standardError>0</standardError>
        <maximumDistance>0.6822777327</maximumDistance>
        <minimumDistance>0.6415833155</minimumDistance>
        <medianDistance>0.6822777327</medianDistance>
      </quality>
      <evaluationMode>automatic</evaluationMode>
      <creationInfo>
        <agencyID>TEST</agencyID>
        <author>scdetect@seiscomp-fedora32</author>
        <creationTime>2021-02-10T12:48:08.184141Z</creationTime>
      </creationInfo>
      <arrival>
        <pickID>Pick/20210210124808.184396.1988</pickID>
        <phase>Pg</phase>
        <creationInfo>
          <agencyID>TEST</agencyID>
          <author>scdetect@seiscomp-fedora32</author>
          <creationTime>2021-02-10T12:48:08.184141Z</creationTime>
        </creationInfo>
      </arrival>
      <arrival>
        <pickID>Pick/20210210124808.184427.1989</pickID>
        <phase>Pg</phase>
        <creationInfo>
          <agencyID>TEST</agencyID>
          <author>scdetect@seiscomp-fedora32</author>
          <creationTime>2021-02-10T12:48:08.184141Z</creationTime>
        </creationInfo>
      </arrival>
      <comment>
        <text>detector-01</text>
        <id>scdetectDetectorId</id>
      </comment>
    </origin>
  </EventParameters>
</seiscomp>
