<?xml version="1.0" encoding="UTF-8"?>
<seiscomp xmlns="http://geofon.gfz-potsdam.de/ns/seiscomp3-schema/0.12" version="0.12">
  <EventParameters>
    <pick publicID="Pick/20220620113051.695368.377">
      <time>
        <value>2019-11-05T05:00:40.068442Z</value>
      </time>
      <waveformID networkCode="8D" stationCode="RAW2" channelCode="HH"/>
      <phaseHint>Sg</phaseHint>
      <evaluationMode>automatic</evaluationMode>
      <comment>
        <text>2019-11-05T04:23:49.58Z|2019-11-05T04:23:52.085Z|2019-11-05T04:23:50.083441Z</text>
        <id>scdetectTemplateWaveformTimeInfo</id>
      </comment>
    </pick>
    <pick publicID="Pick/20220620113051.703552.382">
      <time>
        <value>2019-11-05T05:00:50.973442Z</value>
      </time>
      <waveformID networkCode="8D" stationCode="RAW2" channelCode="HH"/>
      <phaseHint>Sg</phaseHint>
      <evaluationMode>automatic</evaluationMode>
      <comment>
        <text>2019-11-05T04:23:49.58Z|2019-11-05T04:23:52.085Z|2019-11-05T04:23:50.083441Z</text>
        <id>scdetectTemplateWaveformTimeInfo</id>
      </comment>
    </pick>
    <amplitude publicID="Amplitude/20220620113051.69758.378">
      <type>MLx</type>
      <amplitude>
        <value>1.618430813e-07</value>
      </amplitude>
      <timeWindow>
        <reference>2019-11-05T05:00:39.565001Z</reference>
        <begin>0</begin>
        <end>2.505</end>
      </timeWindow>
      <unit>M/S</unit>
      <waveformID networkCode="8D" stationCode="RAW2" channelCode="HH"/>
      <creationInfo>
        <agencyID>TEST</agencyID>
        <author>scdetect-cc@seiscomp-fedora34</author>
        <creationTime>2022-06-20T11:30:51.697552Z</creationTime>
      </creationInfo>
      <comment>
        <text>Pick/20220620113051.695368.377</text>
        <id>scdetectAmplitudePicks</id>
      </comment>
      <comment>
        <text>8D.RAW2..HHE||8D.RAW2..HHN</text>
        <id>scdetectAmplitudeStreams</id>
      </comment>
      <comment>
        <text>detector-01</text>
        <id>scdetectDetectorId</id>
      </comment>
    </amplitude>
    <amplitude publicID="Amplitude/20220620113051.706939.383">
      <type>MLx</type>
      <amplitude>
        <value>1.635786763e-07</value>
      </amplitude>
      <timeWindow>
        <reference>2019-11-05T05:00:50.470001Z</reference>
        <begin>0</begin>
        <end>2.505</end>
      </timeWindow>
      <unit>M/S</unit>
      <waveformID networkCode="8D" stationCode="RAW2" channelCode="HH"/>
      <creationInfo>
        <agencyID>TEST</agencyID>
        <author>scdetect-cc@seiscomp-fedora34</author>
        <creationTime>2022-06-20T11:30:51.706909Z</creationTime>
      </creationInfo>
      <comment>
        <text>Pick/20220620113051.703552.382</text>
        <id>scdetectAmplitudePicks</id>
      </comment>
      <comment>
        <text>8D.RAW2..HHE||8D.RAW2..HHN</text>
        <id>scdetectAmplitudeStreams</id>
      </comment>
      <comment>
        <text>detector-01</text>
        <id>scdetectDetectorId</id>
      </comment>
    </amplitude>
    <origin publicID="Origin/20220620113051.695186.376">
      <time>
        <value>2019-11-05T05:00:37.625489Z</value>
      </time>
      <latitude>
        <value>46.32480762</value>
      </latitude>
      <longitude>
        <value>7.36023502</value>
      </longitude>
      <depth>
        <value>4.813476562</value>
      </depth>
      <epicenterFixed>true</epicenterFixed>
      <methodID>DETECT</methodID>
      <quality>
        <associatedPhaseCount>1</associatedPhaseCount>
        <usedPhaseCount>1</usedPhaseCount>
        <associatedStationCount>1</associatedStationCount>
        <usedStationCount>1</usedStationCount>
        <standardError>0.4257651821</standardError>
        <maximumDistance>0.03223286148</maximumDistance>
        <minimumDistance>0.03223286148</minimumDistance>
        <medianDistance>0.03223286148</medianDistance>
      </quality>
      <evaluationMode>automatic</evaluationMode>
      <creationInfo>
        <agencyID>TEST</agencyID>
        <author>scdetect-cc@seiscomp-fedora34</author>
        <creationTime>2022-06-20T11:30:51.695158Z</creationTime>
      </creationInfo>
      <comment>
        <text>detector-01</text>
        <id>scdetectDetectorId</id>
      </comment>
      <comment>
        <text>0.574235</text>
        <id>scdetectResultCCC</id>
      </comment>
      <arrival>
        <pickID>Pick/20220620113051.695368.377</pickID>
        <phase>Sg</phase>
        <weight>1.007777254</weight>
        <creationInfo>
          <agencyID>TEST</agencyID>
          <author>scdetect-cc@seiscomp-fedora34</author>
          <creationTime>2022-06-20T11:30:51.695158Z</creationTime>
        </creationInfo>
      </arrival>
      <stationMagnitude publicID="StationMagnitude/20220620113051.697863.379">
        <magnitude>
          <value>0.633811267</value>
        </magnitude>
        <type>MLx</type>
        <amplitudeID>Amplitude/20220620113051.69758.378</amplitudeID>
        <waveformID networkCode="8D" stationCode="RAW2" channelCode="HH"/>
      </stationMagnitude>
      <magnitude publicID="Magnitude/20220620113051.697958.380">
        <magnitude>
          <value>0.633811267</value>
        </magnitude>
        <type>MLx</type>
        <stationCount>1</stationCount>
        <stationMagnitudeContribution>
          <stationMagnitudeID>StationMagnitude/20220620113051.697863.379</stationMagnitudeID>
          <weight>1</weight>
        </stationMagnitudeContribution>
      </magnitude>
    </origin>
    <origin publicID="Origin/20220620113051.703457.381">
      <time>
        <value>2019-11-05T05:00:48.530489Z</value>
      </time>
      <latitude>
        <value>46.32480762</value>
      </latitude>
      <longitude>
        <value>7.36023502</value>
      </longitude>
      <depth>
        <value>4.813476562</value>
      </depth>
      <epicenterFixed>true</epicenterFixed>
      <methodID>DETECT</methodID>
      <quality>
        <associatedPhaseCount>1</associatedPhaseCount>
        <usedPhaseCount>1</usedPhaseCount>
        <associatedStationCount>1</associatedStationCount>
        <usedStationCount>1</usedStationCount>
        <standardError>0.4226009978</standardError>
        <maximumDistance>0.03223286148</maximumDistance>
        <minimumDistance>0.03223286148</minimumDistance>
        <medianDistance>0.03223286148</medianDistance>
      </quality>
      <evaluationMode>automatic</evaluationMode>
      <creationInfo>
        <agencyID>TEST</agencyID>
        <author>scdetect-cc@seiscomp-fedora34</author>
        <creationTime>2022-06-20T11:30:51.703447Z</creationTime>
      </creationInfo>
      <comment>
        <text>detector-01</text>
        <id>scdetectDetectorId</id>
      </comment>
      <comment>
        <text>0.577399</text>
        <id>scdetectResultCCC</id>
      </comment>
      <arrival>
        <pickID>Pick/20220620113051.703552.382</pickID>
        <phase>Sg</phase>
        <weight>1.007777254</weight>
        <creationInfo>
          <agencyID>TEST</agencyID>
          <author>scdetect-cc@seiscomp-fedora34</author>
          <creationTime>2022-06-20T11:30:51.703447Z</creationTime>
        </creationInfo>
      </arrival>
      <stationMagnitude publicID="StationMagnitude/20220620113051.707415.384">
        <magnitude>
          <value>0.6384438182</value>
        </magnitude>
        <type>MLx</type>
        <amplitudeID>Amplitude/20220620113051.706939.383</amplitudeID>
        <waveformID networkCode="8D" stationCode="RAW2" channelCode="HH"/>
      </stationMagnitude>
      <magnitude publicID="Magnitude/20220620113051.707501.385">
        <magnitude>
          <value>0.6384438182</value>
        </magnitude>
        <type>MLx</type>
        <stationCount>1</stationCount>
        <stationMagnitudeContribution>
          <stationMagnitudeID>StationMagnitude/20220620113051.707415.384</stationMagnitudeID>
          <weight>1</weight>
        </stationMagnitudeContribution>
      </magnitude>
    </origin>
  </EventParameters>
</seiscomp>
