<?xml version="1.0" encoding="UTF-8"?>
<seiscomp xmlns="http://geofon.gfz-potsdam.de/ns/seiscomp3-schema/0.12" version="0.12">
  <EventParameters>
    <pick publicID="Pick/20230420150122.613837.64561">
      <time>
        <value>2019-11-05T05:00:40.068442Z</value>
      </time>
      <waveformID networkCode="8D" stationCode="RAW2" channelCode="HH"/>
      <phaseHint>Sg</phaseHint>
      <evaluationMode>automatic</evaluationMode>
      <creationInfo>
        <agencyID>TEST</agencyID>
        <author>scdetect-cc@lscarabellows</author>
        <creationTime>2023-04-20T15:01:22.613824Z</creationTime>
      </creationInfo>
      <comment>
        <text>2019-11-05T04:23:49.58Z|2019-11-05T04:23:52.085Z|2019-11-05T04:23:50.083441Z</text>
        <id>scdetectTemplateWaveformTimeInfo</id>
      </comment>
    </pick>
    <pick publicID="Pick/20230420150122.614333.64566">
      <time>
        <value>2019-11-05T05:00:50.973442Z</value>
      </time>
      <waveformID networkCode="8D" stationCode="RAW2" channelCode="HH"/>
      <phaseHint>Sg</phaseHint>
      <evaluationMode>automatic</evaluationMode>
      <creationInfo>
        <agencyID>TEST</agencyID>
        <author>scdetect-cc@lscarabellows</author>
        <creationTime>2023-04-20T15:01:22.614327Z</creationTime>
      </creationInfo>
      <comment>
        <text>2019-11-05T04:23:49.58Z|2019-11-05T04:23:52.085Z|2019-11-05T04:23:50.083441Z</text>
        <id>scdetectTemplateWaveformTimeInfo</id>
      </comment>
    </pick>
    <amplitude publicID="Amplitude/20230420150122.613983.64562">
      <type>MLx</type>
      <amplitude>
        <value>1.2671705870281996e-07</value>
      </amplitude>
      <timeWindow>
        <reference>2019-11-05T05:00:40.068441Z</reference>
        <begin>0.5</begin>
        <end>2</end>
      </timeWindow>
      <unit>M/S</unit>
      <waveformID networkCode="8D" stationCode="RAW2" channelCode="HH"/>
      <creationInfo>
        <agencyID>TEST</agencyID>
        <author>scdetect-cc@lscarabellows</author>
        <creationTime>2023-04-20T15:01:22.613982Z</creationTime>
      </creationInfo>
      <comment>
        <text>detector-01</text>
        <id>scdetectDetectorId</id>
      </comment>
      <comment>
        <text>Pick/20230420150122.613837.64561||Pick/20230420150122.613837.64561</text>
        <id>scdetectAmplitudePicks</id>
      </comment>
      <comment>
        <text>8D.RAW2..HHE||8D.RAW2..HHN</text>
        <id>scdetectAmplitudeStreams</id>
      </comment>
    </amplitude>
    <amplitude publicID="Amplitude/20230420150122.614456.64567">
      <type>MLx</type>
      <amplitude>
        <value>1.3578173187885862e-07</value>
      </amplitude>
      <timeWindow>
        <reference>2019-11-05T05:00:50.973441Z</reference>
        <begin>0.5</begin>
        <end>2</end>
      </timeWindow>
      <unit>M/S</unit>
      <waveformID networkCode="8D" stationCode="RAW2" channelCode="HH"/>
      <creationInfo>
        <agencyID>TEST</agencyID>
        <author>scdetect-cc@lscarabellows</author>
        <creationTime>2023-04-20T15:01:22.614455Z</creationTime>
      </creationInfo>
      <comment>
        <text>detector-01</text>
        <id>scdetectDetectorId</id>
      </comment>
      <comment>
        <text>Pick/20230420150122.614333.64566||Pick/20230420150122.614333.64566</text>
        <id>scdetectAmplitudePicks</id>
      </comment>
      <comment>
        <text>8D.RAW2..HHE||8D.RAW2..HHN</text>
        <id>scdetectAmplitudeStreams</id>
      </comment>
    </amplitude>
    <origin publicID="Origin/20230420150122.613827.64560">
      <time>
        <value>2019-11-05T05:00:37.625489Z</value>
      </time>
      <latitude>
        <value>46.32480762</value>
      </latitude>
      <longitude>
        <value>7.36023502</value>
      </longitude>
      <depth>
        <value>4.813476562</value>
      </depth>
      <epicenterFixed>true</epicenterFixed>
      <methodID>DETECT</methodID>
      <quality>
        <associatedPhaseCount>1</associatedPhaseCount>
        <usedPhaseCount>1</usedPhaseCount>
        <associatedStationCount>1</associatedStationCount>
        <usedStationCount>1</usedStationCount>
        <standardError>0.42576518212305137</standardError>
        <maximumDistance>0.03223286148198979</maximumDistance>
        <minimumDistance>0.03223286148198979</minimumDistance>
        <medianDistance>0.03223286148198979</medianDistance>
      </quality>
      <evaluationMode>automatic</evaluationMode>
      <creationInfo>
        <agencyID>TEST</agencyID>
        <author>scdetect-cc@lscarabellows</author>
        <creationTime>2023-04-20T15:01:22.613824Z</creationTime>
      </creationInfo>
      <comment>
        <text>detector-01</text>
        <id>scdetectDetectorId</id>
      </comment>
      <comment>
        <text>0.574235</text>
        <id>scdetectResultCCC</id>
      </comment>
      <arrival>
        <pickID>Pick/20230420150122.613837.64561</pickID>
        <phase>Sg</phase>
        <azimuth>251.92795642647147</azimuth>
        <distance>0.03223286148198979</distance>
        <weight>1.007777254</weight>
        <creationInfo>
          <agencyID>TEST</agencyID>
          <author>scdetect-cc@lscarabellows</author>
          <creationTime>2023-04-20T15:01:22.613824Z</creationTime>
        </creationInfo>
      </arrival>
      <stationMagnitude publicID="StationMagnitude/20230420150122.613997.64563">
        <magnitude>
          <value>0.5471997403031956</value>
        </magnitude>
        <type>MLx</type>
        <amplitudeID>Amplitude/20230420150122.613983.64562</amplitudeID>
        <waveformID networkCode="8D" stationCode="RAW2" channelCode="HH"/>
      </stationMagnitude>
      <magnitude publicID="Magnitude/20230420150122.614003.64564">
        <magnitude>
          <value>0.5471997403031956</value>
        </magnitude>
        <type>MLx</type>
        <stationCount>1</stationCount>
        <stationMagnitudeContribution>
          <stationMagnitudeID>StationMagnitude/20230420150122.613997.64563</stationMagnitudeID>
          <weight>1</weight>
        </stationMagnitudeContribution>
      </magnitude>
    </origin>
    <origin publicID="Origin/20230420150122.614328.64565">
      <time>
        <value>2019-11-05T05:00:48.530489Z</value>
      </time>
      <latitude>
        <value>46.32480762</value>
      </latitude>
      <longitude>
        <value>7.36023502</value>
      </longitude>
      <depth>
        <value>4.813476562</value>
      </depth>
      <epicenterFixed>true</epicenterFixed>
      <methodID>DETECT</methodID>
      <quality>
        <associatedPhaseCount>1</associatedPhaseCount>
        <usedPhaseCount>1</usedPhaseCount>
        <associatedStationCount>1</associatedStationCount>
        <usedStationCount>1</usedStationCount>
        <standardError>0.4226009977725984</standardError>
        <maximumDistance>0.03223286148198979</maximumDistance>
        <minimumDistance>0.03223286148198979</minimumDistance>
        <medianDistance>0.03223286148198979</medianDistance>
      </quality>
      <evaluationMode>automatic</evaluationMode>
      <creationInfo>
        <agencyID>TEST</agencyID>
        <author>scdetect-cc@lscarabellows</author>
        <creationTime>2023-04-20T15:01:22.614327Z</creationTime>
      </creationInfo>
      <comment>
        <text>detector-01</text>
        <id>scdetectDetectorId</id>
      </comment>
      <comment>
        <text>0.577399</text>
        <id>scdetectResultCCC</id>
      </comment>
      <arrival>
        <pickID>Pick/20230420150122.614333.64566</pickID>
        <phase>Sg</phase>
        <azimuth>251.92795642647147</azimuth>
        <distance>0.03223286148198979</distance>
        <weight>1.007777254</weight>
        <creationInfo>
          <agencyID>TEST</agencyID>
          <author>scdetect-cc@lscarabellows</author>
          <creationTime>2023-04-20T15:01:22.614327Z</creationTime>
        </creationInfo>
      </arrival>
      <stationMagnitude publicID="StationMagnitude/20230420150122.614466.64568">
        <magnitude>
          <value>0.5772060003264725</value>
        </magnitude>
        <type>MLx</type>
        <amplitudeID>Amplitude/20230420150122.614456.64567</amplitudeID>
        <waveformID networkCode="8D" stationCode="RAW2" channelCode="HH"/>
      </stationMagnitude>
      <magnitude publicID="Magnitude/20230420150122.614471.64569">
        <magnitude>
          <value>0.5772060003264725</value>
        </magnitude>
        <type>MLx</type>
        <stationCount>1</stationCount>
        <stationMagnitudeContribution>
          <stationMagnitudeID>StationMagnitude/20230420150122.614466.64568</stationMagnitudeID>
          <weight>1</weight>
        </stationMagnitudeContribution>
      </magnitude>
    </origin>
  </EventParameters>
</seiscomp>
