<?xml version="1.0" encoding="UTF-8"?>
<seiscomp xmlns="http://geofon.gfz-potsdam.de/ns/seiscomp3-schema/0.12" version="0.12">
  <EventParameters>
    <pick publicID="Pick/20230420150115.042453.23472">
      <time>
        <value>2020-10-25T19:35:55.825642Z</value>
      </time>
      <waveformID networkCode="CH" stationCode="GRIMS" channelCode="HH"/>
      <phaseHint>Pg</phaseHint>
      <evaluationMode>automatic</evaluationMode>
      <creationInfo>
        <agencyID>TEST</agencyID>
        <author>scdetect-cc@lscarabellows</author>
        <creationTime>2023-04-20T15:01:15.042438Z</creationTime>
      </creationInfo>
      <comment>
        <text>2020-10-25T19:35:53.818393Z|2020-10-25T19:35:57.828393Z|2020-10-25T19:35:55.825641Z</text>
        <id>scdetectTemplateWaveformTimeInfo</id>
      </comment>
    </pick>
    <pick publicID="Pick/20230420150115.04254.23474">
      <time>
        <value>2020-10-25T19:35:56.458296Z</value>
      </time>
      <waveformID networkCode="CH" stationCode="HASLI" channelCode="HH"/>
      <phaseHint>Pg</phaseHint>
      <evaluationMode>automatic</evaluationMode>
      <creationInfo>
        <agencyID>TEST</agencyID>
        <author>scdetect-cc@lscarabellows</author>
        <creationTime>2023-04-20T15:01:15.042534Z</creationTime>
      </creationInfo>
      <comment>
        <text>2020-10-25T19:35:54.455Z|2020-10-25T19:35:58.463333Z|2020-10-25T19:35:56.458294Z</text>
        <id>scdetectTemplateWaveformTimeInfo</id>
      </comment>
    </pick>
    <origin publicID="Origin/20230420150115.042441.23471">
      <time>
        <value>2020-10-25T19:35:43.383894Z</value>
      </time>
      <latitude>
        <value>46.90474746</value>
      </latitude>
      <longitude>
        <value>9.124707839</value>
      </longitude>
      <depth>
        <value>1.436523438</value>
      </depth>
      <epicenterFixed>true</epicenterFixed>
      <methodID>DETECT</methodID>
      <quality>
        <associatedPhaseCount>1</associatedPhaseCount>
        <usedPhaseCount>1</usedPhaseCount>
        <associatedStationCount>1</associatedStationCount>
        <usedStationCount>1</usedStationCount>
        <standardError>-2.220446049250313e-16</standardError>
        <maximumDistance>0.6415833155438919</maximumDistance>
        <minimumDistance>0.6415833155438919</minimumDistance>
        <medianDistance>0.6415833155438919</medianDistance>
      </quality>
      <evaluationMode>automatic</evaluationMode>
      <creationInfo>
        <agencyID>TEST</agencyID>
        <author>scdetect-cc@lscarabellows</author>
        <creationTime>2023-04-20T15:01:15.042438Z</creationTime>
      </creationInfo>
      <comment>
        <text>detector-01</text>
        <id>scdetectDetectorId</id>
      </comment>
      <comment>
        <text>1.000000</text>
        <id>scdetectResultCCC</id>
      </comment>
      <arrival>
        <pickID>Pick/20230420150115.042453.23472</pickID>
        <phase>Pg</phase>
        <azimuth>239.69321382470943</azimuth>
        <distance>0.6415833155438919</distance>
        <creationInfo>
          <agencyID>TEST</agencyID>
          <author>scdetect-cc@lscarabellows</author>
          <creationTime>2023-04-20T15:01:15.042438Z</creationTime>
        </creationInfo>
      </arrival>
    </origin>
    <origin publicID="Origin/20230420150115.042535.23473">
      <time>
        <value>2020-10-25T19:35:43.383895Z</value>
      </time>
      <latitude>
        <value>46.90474746</value>
      </latitude>
      <longitude>
        <value>9.124707839</value>
      </longitude>
      <depth>
        <value>1.436523438</value>
      </depth>
      <epicenterFixed>true</epicenterFixed>
      <methodID>DETECT</methodID>
      <quality>
        <associatedPhaseCount>1</associatedPhaseCount>
        <usedPhaseCount>1</usedPhaseCount>
        <associatedStationCount>1</associatedStationCount>
        <usedStationCount>1</usedStationCount>
        <standardError>2.220446049250313e-16</standardError>
        <maximumDistance>0.682277732724239</maximumDistance>
        <minimumDistance>0.682277732724239</minimumDistance>
        <medianDistance>0.682277732724239</medianDistance>
      </quality>
      <evaluationMode>automatic</evaluationMode>
      <creationInfo>
        <agencyID>TEST</agencyID>
        <author>scdetect-cc@lscarabellows</author>
        <creationTime>2023-04-20T15:01:15.042534Z</creationTime>
      </creationInfo>
      <comment>
        <text>detector-02</text>
        <id>scdetectDetectorId</id>
      </comment>
      <comment>
        <text>1.000000</text>
        <id>scdetectResultCCC</id>
      </comment>
      <arrival>
        <pickID>Pick/20230420150115.04254.23474</pickID>
        <phase>Pg</phase>
        <azimuth>257.8325691727559</azimuth>
        <distance>0.682277732724239</distance>
        <creationInfo>
          <agencyID>TEST</agencyID>
          <author>scdetect-cc@lscarabellows</author>
          <creationTime>2023-04-20T15:01:15.042534Z</creationTime>
        </creationInfo>
      </arrival>
    </origin>
  </EventParameters>
</seiscomp>
