<?xml version="1.0" encoding="UTF-8"?>
<seiscomp xmlns="http://geofon.gfz-potsdam.de/ns/seiscomp3-schema/0.12" version="0.12">
  <EventParameters>
    <pick publicID="Pick/20220827132724.507088.1708">
      <creationInfo>
        <agencyID>TEST</agencyID>
        <author>scdetect@seiscomp-fedora32</author>
        <creationTime>2021-01-12T16:30:56.225889Z</creationTime>
      </creationInfo>
      <time>
        <value>2019-11-05T04:23:31.935426Z</value>
      </time>
      <waveformID networkCode="CH" stationCode="SENIN" channelCode="HH"/>
      <phaseHint>Sg</phaseHint>
      <evaluationMode>automatic</evaluationMode>
      <comment>
        <text>2019-11-05T00:54:23.885Z|2019-11-05T00:54:26.14Z|2019-11-05T00:54:24.135425Z</text>
        <id>scdetectTemplateWaveformTimeInfo</id>
      </comment>
    </pick>
    <pick publicID="Pick/20220827132724.507315.1709">
      <creationInfo>
        <agencyID>TEST</agencyID>
        <author>scdetect@seiscomp-fedora32</author>
        <creationTime>2021-01-12T16:30:56.225889Z</creationTime>
      </creationInfo>
      <time>
        <value>2019-11-05T04:23:30.681724Z</value>
      </time>
      <waveformID networkCode="CH" stationCode="SENIN" channelCode="HH"/>
      <phaseHint>Pg</phaseHint>
      <evaluationMode>automatic</evaluationMode>
      <comment>
        <text>2019-11-05T00:54:22.68Z|2019-11-05T00:54:23.935Z|2019-11-05T00:54:22.931723Z</text>
        <id>scdetectTemplateWaveformTimeInfo</id>
      </comment>
    </pick>
    <pick publicID="Pick/20220827132724.507467.1710">
      <creationInfo>
        <agencyID>TEST</agencyID>
        <author>scdetect@seiscomp-fedora32</author>
        <creationTime>2021-01-12T16:30:56.225889Z</creationTime>
      </creationInfo>
      <time>
        <value>2019-11-05T04:23:31.84762Z</value>
      </time>
      <waveformID networkCode="CH" stationCode="STSW2" channelCode="HG"/>
      <phaseHint>Sg</phaseHint>
      <evaluationMode>automatic</evaluationMode>
      <comment>
        <text>2019-11-05T00:54:23.756Z|2019-11-05T00:54:26.008Z|2019-11-05T00:54:24.007619Z</text>
        <id>scdetectTemplateWaveformTimeInfo</id>
      </comment>
    </pick>
    <pick publicID="Pick/20220827132724.507898.1713">
      <creationInfo>
        <agencyID>TEST</agencyID>
        <author>scdetect@seiscomp-fedora32</author>
        <creationTime>2021-01-12T16:30:56.225889Z</creationTime>
      </creationInfo>
      <time>
        <value>2019-11-05T04:23:31.671729Z</value>
      </time>
      <waveformID networkCode="CH" stationCode="SAYF2" channelCode="HG"/>
      <phaseHint>Sg</phaseHint>
      <evaluationMode>automatic</evaluationMode>
      <comment>
        <text>2019-11-05T00:54:23.636Z|2019-11-05T00:54:25.888Z|2019-11-05T00:54:23.887728Z</text>
        <id>scdetectTemplateWaveformTimeInfo</id>
      </comment>
    </pick>
    <pick publicID="Pick/20220827132726.091291.1715">
      <creationInfo>
        <agencyID>TEST</agencyID>
        <author>scdetect@seiscomp-fedora32</author>
        <creationTime>2021-01-12T16:30:56.225889Z</creationTime>
      </creationInfo>
      <time>
        <value>2019-11-05T04:23:31.935426Z</value>
      </time>
      <waveformID networkCode="CH" stationCode="SENIN" channelCode="HH"/>
      <phaseHint>Sg</phaseHint>
      <evaluationMode>automatic</evaluationMode>
      <comment>
        <text>2019-11-05T00:54:23.885Z|2019-11-05T00:54:26.14Z|2019-11-05T00:54:24.135425Z</text>
        <id>scdetectTemplateWaveformTimeInfo</id>
      </comment>
    </pick>
    <pick publicID="Pick/20220827132726.091414.1716">
      <creationInfo>
        <agencyID>TEST</agencyID>
        <author>scdetect@seiscomp-fedora32</author>
        <creationTime>2021-01-12T16:30:56.225889Z</creationTime>
      </creationInfo>
      <time>
        <value>2019-11-05T04:23:31.84762Z</value>
      </time>
      <waveformID networkCode="CH" stationCode="STSW2" channelCode="HG"/>
      <phaseHint>Sg</phaseHint>
      <evaluationMode>automatic</evaluationMode>
      <comment>
        <text>2019-11-05T00:54:23.756Z|2019-11-05T00:54:26.008Z|2019-11-05T00:54:24.007619Z</text>
        <id>scdetectTemplateWaveformTimeInfo</id>
      </comment>
    </pick>
    <pick publicID="Pick/20220827132726.091738.1719">
      <creationInfo>
        <agencyID>TEST</agencyID>
        <author>scdetect@seiscomp-fedora32</author>
        <creationTime>2021-01-12T16:30:56.225889Z</creationTime>
      </creationInfo>
      <time>
        <value>2019-11-05T04:23:31.671729Z</value>
      </time>
      <waveformID networkCode="CH" stationCode="SAYF2" channelCode="HG"/>
      <phaseHint>Sg</phaseHint>
      <evaluationMode>automatic</evaluationMode>
      <comment>
        <text>2019-11-05T00:54:23.636Z|2019-11-05T00:54:25.888Z|2019-11-05T00:54:23.887728Z</text>
        <id>scdetectTemplateWaveformTimeInfo</id>
      </comment>
    </pick>
    <pick publicID="Pick/20220827132726.092081.1721">
      <creationInfo>
        <agencyID>TEST</agencyID>
        <author>scdetect@seiscomp-fedora32</author>
        <creationTime>2021-01-12T16:30:56.225889Z</creationTime>
      </creationInfo>
      <time>
        <value>2019-11-05T04:23:50.535426Z</value>
      </time>
      <waveformID networkCode="CH" stationCode="SENIN" channelCode="HH"/>
      <phaseHint>Sg</phaseHint>
      <evaluationMode>automatic</evaluationMode>
      <comment>
        <text>2019-11-05T00:54:23.885Z|2019-11-05T00:54:26.14Z|2019-11-05T00:54:24.135425Z</text>
        <id>scdetectTemplateWaveformTimeInfo</id>
      </comment>
    </pick>
    <pick publicID="Pick/20220827132726.092191.1722">
      <creationInfo>
        <agencyID>TEST</agencyID>
        <author>scdetect@seiscomp-fedora32</author>
        <creationTime>2021-01-12T16:30:56.225889Z</creationTime>
      </creationInfo>
      <time>
        <value>2019-11-05T04:23:49.286724Z</value>
      </time>
      <waveformID networkCode="CH" stationCode="SENIN" channelCode="HH"/>
      <phaseHint>Pg</phaseHint>
      <evaluationMode>automatic</evaluationMode>
      <comment>
        <text>2019-11-05T00:54:22.68Z|2019-11-05T00:54:23.935Z|2019-11-05T00:54:22.931723Z</text>
        <id>scdetectTemplateWaveformTimeInfo</id>
      </comment>
    </pick>
    <pick publicID="Pick/20220827132726.092286.1723">
      <creationInfo>
        <agencyID>TEST</agencyID>
        <author>scdetect@seiscomp-fedora32</author>
        <creationTime>2021-01-12T16:30:56.225889Z</creationTime>
      </creationInfo>
      <time>
        <value>2019-11-05T04:23:50.44762Z</value>
      </time>
      <waveformID networkCode="CH" stationCode="STSW2" channelCode="HG"/>
      <phaseHint>Sg</phaseHint>
      <evaluationMode>automatic</evaluationMode>
      <comment>
        <text>2019-11-05T00:54:23.756Z|2019-11-05T00:54:26.008Z|2019-11-05T00:54:24.007619Z</text>
        <id>scdetectTemplateWaveformTimeInfo</id>
      </comment>
    </pick>
    <pick publicID="Pick/20220827132726.092569.1726">
      <creationInfo>
        <agencyID>TEST</agencyID>
        <author>scdetect@seiscomp-fedora32</author>
        <creationTime>2021-01-12T16:30:56.225889Z</creationTime>
      </creationInfo>
      <time>
        <value>2019-11-05T04:23:50.279729Z</value>
      </time>
      <waveformID networkCode="CH" stationCode="SAYF2" channelCode="HG"/>
      <phaseHint>Sg</phaseHint>
      <evaluationMode>automatic</evaluationMode>
      <comment>
        <text>2019-11-05T00:54:23.636Z|2019-11-05T00:54:25.888Z|2019-11-05T00:54:23.887728Z</text>
        <id>scdetectTemplateWaveformTimeInfo</id>
      </comment>
    </pick>
    <pick publicID="Pick/20220827132726.092881.1728">
      <creationInfo>
        <agencyID>TEST</agencyID>
        <author>scdetect@seiscomp-fedora32</author>
        <creationTime>2021-01-12T16:30:56.225889Z</creationTime>
      </creationInfo>
      <time>
        <value>2019-11-05T04:23:50.535426Z</value>
      </time>
      <waveformID networkCode="CH" stationCode="SENIN" channelCode="HH"/>
      <phaseHint>Sg</phaseHint>
      <evaluationMode>automatic</evaluationMode>
      <comment>
        <text>2019-11-05T00:54:23.885Z|2019-11-05T00:54:26.14Z|2019-11-05T00:54:24.135425Z</text>
        <id>scdetectTemplateWaveformTimeInfo</id>
      </comment>
    </pick>
    <pick publicID="Pick/20220827132726.092983.1729">
      <creationInfo>
        <agencyID>TEST</agencyID>
        <author>scdetect@seiscomp-fedora32</author>
        <creationTime>2021-01-12T16:30:56.225889Z</creationTime>
      </creationInfo>
      <time>
        <value>2019-11-05T04:23:50.44762Z</value>
      </time>
      <waveformID networkCode="CH" stationCode="STSW2" channelCode="HG"/>
      <phaseHint>Sg</phaseHint>
      <evaluationMode>automatic</evaluationMode>
      <comment>
        <text>2019-11-05T00:54:23.756Z|2019-11-05T00:54:26.008Z|2019-11-05T00:54:24.007619Z</text>
        <id>scdetectTemplateWaveformTimeInfo</id>
      </comment>
    </pick>
    <pick publicID="Pick/20220827132726.093269.1732">
      <creationInfo>
        <agencyID>TEST</agencyID>
        <author>scdetect@seiscomp-fedora32</author>
        <creationTime>2021-01-12T16:30:56.225889Z</creationTime>
      </creationInfo>
      <time>
        <value>2019-11-05T04:23:50.279729Z</value>
      </time>
      <waveformID networkCode="CH" stationCode="SAYF2" channelCode="HG"/>
      <phaseHint>Sg</phaseHint>
      <evaluationMode>automatic</evaluationMode>
      <comment>
        <text>2019-11-05T00:54:23.636Z|2019-11-05T00:54:25.888Z|2019-11-05T00:54:23.887728Z</text>
        <id>scdetectTemplateWaveformTimeInfo</id>
      </comment>
    </pick>
    <pick publicID="Pick/20220827132728.750237.1734">
      <creationInfo>
        <agencyID>TEST</agencyID>
        <author>scdetect@seiscomp-fedora32</author>
        <creationTime>2021-01-12T16:30:56.225889Z</creationTime>
      </creationInfo>
      <time>
        <value>2019-11-05T04:24:32.860426Z</value>
      </time>
      <waveformID networkCode="CH" stationCode="SENIN" channelCode="HH"/>
      <phaseHint>Sg</phaseHint>
      <evaluationMode>automatic</evaluationMode>
      <comment>
        <text>2019-11-05T00:54:23.885Z|2019-11-05T00:54:26.14Z|2019-11-05T00:54:24.135425Z</text>
        <id>scdetectTemplateWaveformTimeInfo</id>
      </comment>
    </pick>
    <pick publicID="Pick/20220827132728.750356.1735">
      <creationInfo>
        <agencyID>TEST</agencyID>
        <author>scdetect@seiscomp-fedora32</author>
        <creationTime>2021-01-12T16:30:56.225889Z</creationTime>
      </creationInfo>
      <time>
        <value>2019-11-05T04:24:31.631724Z</value>
      </time>
      <waveformID networkCode="CH" stationCode="SENIN" channelCode="HH"/>
      <phaseHint>Pg</phaseHint>
      <evaluationMode>automatic</evaluationMode>
      <comment>
        <text>2019-11-05T00:54:22.68Z|2019-11-05T00:54:23.935Z|2019-11-05T00:54:22.931723Z</text>
        <id>scdetectTemplateWaveformTimeInfo</id>
      </comment>
    </pick>
    <pick publicID="Pick/20220827132728.750447.1736">
      <creationInfo>
        <agencyID>TEST</agencyID>
        <author>scdetect@seiscomp-fedora32</author>
        <creationTime>2021-01-12T16:30:56.225889Z</creationTime>
      </creationInfo>
      <time>
        <value>2019-11-05T04:24:32.76362Z</value>
      </time>
      <waveformID networkCode="CH" stationCode="STSW2" channelCode="HG"/>
      <phaseHint>Sg</phaseHint>
      <evaluationMode>automatic</evaluationMode>
      <comment>
        <text>2019-11-05T00:54:23.756Z|2019-11-05T00:54:26.008Z|2019-11-05T00:54:24.007619Z</text>
        <id>scdetectTemplateWaveformTimeInfo</id>
      </comment>
    </pick>
    <pick publicID="Pick/20220827132728.750536.1737">
      <creationInfo>
        <agencyID>TEST</agencyID>
        <author>scdetect@seiscomp-fedora32</author>
        <creationTime>2021-01-12T16:30:56.225889Z</creationTime>
      </creationInfo>
      <time>
        <value>2019-11-05T04:24:32.619729Z</value>
      </time>
      <waveformID networkCode="CH" stationCode="SAYF2" channelCode="HG"/>
      <phaseHint>Sg</phaseHint>
      <evaluationMode>automatic</evaluationMode>
      <comment>
        <text>2019-11-05T00:54:23.636Z|2019-11-05T00:54:25.888Z|2019-11-05T00:54:23.887728Z</text>
        <id>scdetectTemplateWaveformTimeInfo</id>
      </comment>
    </pick>
    <pick publicID="Pick/20220827132728.750626.1738">
      <creationInfo>
        <agencyID>TEST</agencyID>
        <author>scdetect@seiscomp-fedora32</author>
        <creationTime>2021-01-12T16:30:56.225889Z</creationTime>
      </creationInfo>
      <time>
        <value>2019-11-05T04:24:31.616101Z</value>
      </time>
      <waveformID networkCode="CH" stationCode="SAYF2" channelCode="HG"/>
      <phaseHint>Pg</phaseHint>
      <evaluationMode>automatic</evaluationMode>
      <comment>
        <text>2019-11-05T00:54:22.516Z|2019-11-05T00:54:23.772Z|2019-11-05T00:54:22.7681Z</text>
        <id>scdetectTemplateWaveformTimeInfo</id>
      </comment>
    </pick>
    <pick publicID="Pick/20220827132728.750949.1740">
      <creationInfo>
        <agencyID>TEST</agencyID>
        <author>scdetect@seiscomp-fedora32</author>
        <creationTime>2021-01-12T16:30:56.225889Z</creationTime>
      </creationInfo>
      <time>
        <value>2019-11-05T04:36:54.290426Z</value>
      </time>
      <waveformID networkCode="CH" stationCode="SENIN" channelCode="HH"/>
      <phaseHint>Sg</phaseHint>
      <evaluationMode>automatic</evaluationMode>
      <comment>
        <text>2019-11-05T00:54:23.885Z|2019-11-05T00:54:26.14Z|2019-11-05T00:54:24.135425Z</text>
        <id>scdetectTemplateWaveformTimeInfo</id>
      </comment>
    </pick>
    <pick publicID="Pick/20220827132728.751044.1741">
      <creationInfo>
        <agencyID>TEST</agencyID>
        <author>scdetect@seiscomp-fedora32</author>
        <creationTime>2021-01-12T16:30:56.225889Z</creationTime>
      </creationInfo>
      <time>
        <value>2019-11-05T04:36:53.031724Z</value>
      </time>
      <waveformID networkCode="CH" stationCode="SENIN" channelCode="HH"/>
      <phaseHint>Pg</phaseHint>
      <evaluationMode>automatic</evaluationMode>
      <comment>
        <text>2019-11-05T00:54:22.68Z|2019-11-05T00:54:23.935Z|2019-11-05T00:54:22.931723Z</text>
        <id>scdetectTemplateWaveformTimeInfo</id>
      </comment>
    </pick>
    <pick publicID="Pick/20220827132728.751131.1742">
      <creationInfo>
        <agencyID>TEST</agencyID>
        <author>scdetect@seiscomp-fedora32</author>
        <creationTime>2021-01-12T16:30:56.225889Z</creationTime>
      </creationInfo>
      <time>
        <value>2019-11-05T04:36:54.08362Z</value>
      </time>
      <waveformID networkCode="CH" stationCode="STSW2" channelCode="HG"/>
      <phaseHint>Sg</phaseHint>
      <evaluationMode>automatic</evaluationMode>
      <comment>
        <text>2019-11-05T00:54:23.756Z|2019-11-05T00:54:26.008Z|2019-11-05T00:54:24.007619Z</text>
        <id>scdetectTemplateWaveformTimeInfo</id>
      </comment>
    </pick>
    <pick publicID="Pick/20220827132728.751216.1743">
      <creationInfo>
        <agencyID>TEST</agencyID>
        <author>scdetect@seiscomp-fedora32</author>
        <creationTime>2021-01-12T16:30:56.225889Z</creationTime>
      </creationInfo>
      <time>
        <value>2019-11-05T04:36:53.975729Z</value>
      </time>
      <waveformID networkCode="CH" stationCode="SAYF2" channelCode="HG"/>
      <phaseHint>Sg</phaseHint>
      <evaluationMode>automatic</evaluationMode>
      <comment>
        <text>2019-11-05T00:54:23.636Z|2019-11-05T00:54:25.888Z|2019-11-05T00:54:23.887728Z</text>
        <id>scdetectTemplateWaveformTimeInfo</id>
      </comment>
    </pick>
    <pick publicID="Pick/20220827132728.7513.1744">
      <creationInfo>
        <agencyID>TEST</agencyID>
        <author>scdetect@seiscomp-fedora32</author>
        <creationTime>2021-01-12T16:30:56.225889Z</creationTime>
      </creationInfo>
      <time>
        <value>2019-11-05T04:36:52.972101Z</value>
      </time>
      <waveformID networkCode="CH" stationCode="SAYF2" channelCode="HG"/>
      <phaseHint>Pg</phaseHint>
      <evaluationMode>automatic</evaluationMode>
      <comment>
        <text>2019-11-05T00:54:22.516Z|2019-11-05T00:54:23.772Z|2019-11-05T00:54:22.7681Z</text>
        <id>scdetectTemplateWaveformTimeInfo</id>
      </comment>
    </pick>
    <origin publicID="Origin/20220827132724.506717.1707">
      <time>
        <value>2019-11-05T04:23:29.006707Z</value>
      </time>
      <latitude>
        <value>46.31826387</value>
      </latitude>
      <longitude>
        <value>7.365508705</value>
      </longitude>
      <depth>
        <value>4.788085938</value>
      </depth>
      <epicenterFixed>true</epicenterFixed>
      <methodID>DETECT</methodID>
      <quality>
        <associatedPhaseCount>9</associatedPhaseCount>
        <usedPhaseCount>6</usedPhaseCount>
        <associatedStationCount>3</associatedStationCount>
        <usedStationCount>3</usedStationCount>
        <standardError>0.4216450626</standardError>
        <azimuthalGap>184.3073681</azimuthalGap>
        <maximumDistance>0.06416357092</maximumDistance>
        <minimumDistance>0.04667815472</minimumDistance>
        <medianDistance>0.06416357092</medianDistance>
      </quality>
      <evaluationMode>automatic</evaluationMode>
      <creationInfo>
        <agencyID>TEST</agencyID>
        <author>scdetect-cc@seiscomp-fedora34</author>
        <creationTime>2022-08-27T13:27:24.506651Z</creationTime>
      </creationInfo>
      <comment>
        <text>detector-01</text>
        <id>scdetectDetectorId</id>
      </comment>
      <comment>
        <text>0.578355</text>
        <id>scdetectResultCCC</id>
      </comment>
      <arrival>
        <pickID>Pick/20220827132724.507088.1708</pickID>
        <phase>Sg</phase>
        <weight>1.08157557</weight>
        <creationInfo>
          <agencyID>TEST</agencyID>
          <author>scdetect-cc@seiscomp-fedora34</author>
          <creationTime>2022-08-27T13:27:24.506651Z</creationTime>
        </creationInfo>
      </arrival>
      <arrival>
        <pickID>Pick/20220827132724.507315.1709</pickID>
        <phase>Pg</phase>
        <weight>1.113701578</weight>
        <creationInfo>
          <agencyID>TEST</agencyID>
          <author>scdetect-cc@seiscomp-fedora34</author>
          <creationTime>2022-08-27T13:27:24.506651Z</creationTime>
        </creationInfo>
      </arrival>
      <arrival>
        <pickID>Pick/20220827132724.507467.1710</pickID>
        <phase>Sg</phase>
        <weight>1.08157557</weight>
        <creationInfo>
          <agencyID>TEST</agencyID>
          <author>scdetect-cc@seiscomp-fedora34</author>
          <creationTime>2022-08-27T13:27:24.506651Z</creationTime>
        </creationInfo>
      </arrival>
      <arrival>
        <pickID>Pick/20220827132724.507898.1713</pickID>
        <phase>Sg</phase>
        <weight>0.9696884425</weight>
        <creationInfo>
          <agencyID>TEST</agencyID>
          <author>scdetect-cc@seiscomp-fedora34</author>
          <creationTime>2022-08-27T13:27:24.506651Z</creationTime>
        </creationInfo>
      </arrival>
    </origin>
    <origin publicID="Origin/20220827132726.091119.1714">
      <time>
        <value>2019-11-05T04:23:29.040707Z</value>
      </time>
      <latitude>
        <value>46.31826387</value>
      </latitude>
      <longitude>
        <value>7.365508705</value>
      </longitude>
      <depth>
        <value>4.788085938</value>
      </depth>
      <epicenterFixed>true</epicenterFixed>
      <methodID>DETECT</methodID>
      <quality>
        <associatedPhaseCount>9</associatedPhaseCount>
        <usedPhaseCount>5</usedPhaseCount>
        <associatedStationCount>3</associatedStationCount>
        <usedStationCount>3</usedStationCount>
        <standardError>0.406223366</standardError>
        <azimuthalGap>184.3073681</azimuthalGap>
        <maximumDistance>0.06416357092</maximumDistance>
