<?xml version="1.0" encoding="UTF-8"?>
<seiscomp xmlns="http://geofon.gfz-potsdam.de/ns/seiscomp3-schema/0.12" version="0.12">
  <EventParameters>
    <pick publicID="Pick/20230420150118.173925.38326">
      <time>
        <value>2019-11-05T04:23:31.935426Z</value>
      </time>
      <waveformID networkCode="CH" stationCode="SENIN" channelCode="HH"/>
      <phaseHint>Sg</phaseHint>
      <evaluationMode>automatic</evaluationMode>
      <creationInfo>
        <agencyID>TEST</agencyID>
        <author>scdetect-cc@lscarabellows</author>
        <creationTime>2023-04-20T15:01:18.173899Z</creationTime>
      </creationInfo>
      <comment>
        <text>2019-11-05T00:54:23.885Z|2019-11-05T00:54:26.14Z|2019-11-05T00:54:24.135425Z</text>
        <id>scdetectTemplateWaveformTimeInfo</id>
      </comment>
    </pick>
    <pick publicID="Pick/20230420150118.173947.38327">
      <time>
        <value>2019-11-05T04:23:30.681724Z</value>
      </time>
      <waveformID networkCode="CH" stationCode="SENIN" channelCode="HH"/>
      <phaseHint>Pg</phaseHint>
      <evaluationMode>automatic</evaluationMode>
      <creationInfo>
        <agencyID>TEST</agencyID>
        <author>scdetect-cc@lscarabellows</author>
        <creationTime>2023-04-20T15:01:18.173899Z</creationTime>
      </creationInfo>
      <comment>
        <text>2019-11-05T00:54:22.68Z|2019-11-05T00:54:23.935Z|2019-11-05T00:54:22.931723Z</text>
        <id>scdetectTemplateWaveformTimeInfo</id>
      </comment>
    </pick>
    <pick publicID="Pick/20230420150118.173953.38328">
      <time>
        <value>2019-11-05T04:23:31.84762Z</value>
      </time>
      <waveformID networkCode="CH" stationCode="STSW2" channelCode="HG"/>
      <phaseHint>Sg</phaseHint>
      <evaluationMode>automatic</evaluationMode>
      <creationInfo>
        <agencyID>TEST</agencyID>
        <author>scdetect-cc@lscarabellows</author>
        <creationTime>2023-04-20T15:01:18.173899Z</creationTime>
      </creationInfo>
      <comment>
        <text>2019-11-05T00:54:23.756Z|2019-11-05T00:54:26.008Z|2019-11-05T00:54:24.007619Z</text>
        <id>scdetectTemplateWaveformTimeInfo</id>
      </comment>
    </pick>
    <pick publicID="Pick/20230420150118.173968.38331">
      <time>
        <value>2019-11-05T04:23:31.671729Z</value>
      </time>
      <waveformID networkCode="CH" stationCode="SAYF2" channelCode="HG"/>
      <phaseHint>Sg</phaseHint>
      <evaluationMode>automatic</evaluationMode>
      <creationInfo>
        <agencyID>TEST</agencyID>
        <author>scdetect-cc@lscarabellows</author>
        <creationTime>2023-04-20T15:01:18.173899Z</creationTime>
      </creationInfo>
      <comment>
        <text>2019-11-05T00:54:23.636Z|2019-11-05T00:54:25.888Z|2019-11-05T00:54:23.887728Z</text>
        <id>scdetectTemplateWaveformTimeInfo</id>
      </comment>
    </pick>
    <pick publicID="Pick/20230420150118.173987.38333">
      <time>
        <value>2019-11-05T04:23:31.935426Z</value>
      </time>
      <waveformID networkCode="CH" stationCode="SENIN" channelCode="HH"/>
      <phaseHint>Sg</phaseHint>
      <evaluationMode>automatic</evaluationMode>
      <creationInfo>
        <agencyID>TEST</agencyID>
        <author>scdetect-cc@lscarabellows</author>
        <creationTime>2023-04-20T15:01:18.173981Z</creationTime>
      </creationInfo>
      <comment>
        <text>2019-11-05T00:54:23.885Z|2019-11-05T00:54:26.14Z|2019-11-05T00:54:24.135425Z</text>
        <id>scdetectTemplateWaveformTimeInfo</id>
      </comment>
    </pick>
    <pick publicID="Pick/20230420150118.173993.38334">
      <time>
        <value>2019-11-05T04:23:31.84762Z</value>
      </time>
      <waveformID networkCode="CH" stationCode="STSW2" channelCode="HG"/>
      <phaseHint>Sg</phaseHint>
      <evaluationMode>automatic</evaluationMode>
      <creationInfo>
        <agencyID>TEST</agencyID>
        <author>scdetect-cc@lscarabellows</author>
        <creationTime>2023-04-20T15:01:18.173981Z</creationTime>
      </creationInfo>
      <comment>
        <text>2019-11-05T00:54:23.756Z|2019-11-05T00:54:26.008Z|2019-11-05T00:54:24.007619Z</text>
        <id>scdetectTemplateWaveformTimeInfo</id>
      </comment>
    </pick>
    <pick publicID="Pick/20230420150118.174005.38337">
      <time>
        <value>2019-11-05T04:23:31.671729Z</value>
      </time>
      <waveformID networkCode="CH" stationCode="SAYF2" channelCode="HG"/>
      <phaseHint>Sg</phaseHint>
      <evaluationMode>automatic</evaluationMode>
      <creationInfo>
        <agencyID>TEST</agencyID>
        <author>scdetect-cc@lscarabellows</author>
        <creationTime>2023-04-20T15:01:18.173981Z</creationTime>
      </creationInfo>
      <comment>
        <text>2019-11-05T00:54:23.636Z|2019-11-05T00:54:25.888Z|2019-11-05T00:54:23.887728Z</text>
        <id>scdetectTemplateWaveformTimeInfo</id>
      </comment>
    </pick>
    <pick publicID="Pick/20230420150118.17402.38339">
      <time>
        <value>2019-11-05T04:23:50.535426Z</value>
      </time>
      <waveformID networkCode="CH" stationCode="SENIN" channelCode="HH"/>
      <phaseHint>Sg</phaseHint>
      <evaluationMode>automatic</evaluationMode>
      <creationInfo>
        <agencyID>TEST</agencyID>
        <author>scdetect-cc@lscarabellows</author>
        <creationTime>2023-04-20T15:01:18.174014Z</creationTime>
      </creationInfo>
      <comment>
        <text>2019-11-05T00:54:23.885Z|2019-11-05T00:54:26.14Z|2019-11-05T00:54:24.135425Z</text>
        <id>scdetectTemplateWaveformTimeInfo</id>
      </comment>
    </pick>
    <pick publicID="Pick/20230420150118.174025.38340">
      <time>
        <value>2019-11-05T04:23:49.286724Z</value>
      </time>
      <waveformID networkCode="CH" stationCode="SENIN" channelCode="HH"/>
      <phaseHint>Pg</phaseHint>
      <evaluationMode>automatic</evaluationMode>
      <creationInfo>
        <agencyID>TEST</agencyID>
        <author>scdetect-cc@lscarabellows</author>
        <creationTime>2023-04-20T15:01:18.174014Z</creationTime>
      </creationInfo>
      <comment>
        <text>2019-11-05T00:54:22.68Z|2019-11-05T00:54:23.935Z|2019-11-05T00:54:22.931723Z</text>
        <id>scdetectTemplateWaveformTimeInfo</id>
      </comment>
    </pick>
    <pick publicID="Pick/20230420150118.174031.38341">
      <time>
        <value>2019-11-05T04:23:50.44762Z</value>
      </time>
      <waveformID networkCode="CH" stationCode="STSW2" channelCode="HG"/>
      <phaseHint>Sg</phaseHint>
      <evaluationMode>automatic</evaluationMode>
      <creationInfo>
        <agencyID>TEST</agencyID>
        <author>scdetect-cc@lscarabellows</author>
        <creationTime>2023-04-20T15:01:18.174014Z</creationTime>
      </creationInfo>
      <comment>
        <text>2019-11-05T00:54:23.756Z|2019-11-05T00:54:26.008Z|2019-11-05T00:54:24.007619Z</text>
        <id>scdetectTemplateWaveformTimeInfo</id>
      </comment>
    </pick>
    <pick publicID="Pick/20230420150118.174044.38344">
      <time>
        <value>2019-11-05T04:23:50.279729Z</value>
      </time>
      <waveformID networkCode="CH" stationCode="SAYF2" channelCode="HG"/>
      <phaseHint>Sg</phaseHint>
      <evaluationMode>automatic</evaluationMode>
      <creationInfo>
        <agencyID>TEST</agencyID>
        <author>scdetect-cc@lscarabellows</author>
        <creationTime>2023-04-20T15:01:18.174014Z</creationTime>
      </creationInfo>
      <comment>
        <text>2019-11-05T00:54:23.636Z|2019-11-05T00:54:25.888Z|2019-11-05T00:54:23.887728Z</text>
        <id>scdetectTemplateWaveformTimeInfo</id>
      </comment>
    </pick>
    <pick publicID="Pick/20230420150118.174059.38346">
      <time>
        <value>2019-11-05T04:23:50.535426Z</value>
      </time>
      <waveformID networkCode="CH" stationCode="SENIN" channelCode="HH"/>
      <phaseHint>Sg</phaseHint>
      <evaluationMode>automatic</evaluationMode>
      <creationInfo>
        <agencyID>TEST</agencyID>
        <author>scdetect-cc@lscarabellows</author>
        <creationTime>2023-04-20T15:01:18.174054Z</creationTime>
      </creationInfo>
      <comment>
        <text>2019-11-05T00:54:23.885Z|2019-11-05T00:54:26.14Z|2019-11-05T00:54:24.135425Z</text>
        <id>scdetectTemplateWaveformTimeInfo</id>
      </comment>
    </pick>
    <pick publicID="Pick/20230420150118.174065.38347">
      <time>
        <value>2019-11-05T04:23:50.44762Z</value>
      </time>
      <waveformID networkCode="CH" stationCode="STSW2" channelCode="HG"/>
      <phaseHint>Sg</phaseHint>
      <evaluationMode>automatic</evaluationMode>
      <creationInfo>
        <agencyID>TEST</agencyID>
        <author>scdetect-cc@lscarabellows</author>
        <creationTime>2023-04-20T15:01:18.174054Z</creationTime>
      </creationInfo>
      <comment>
        <text>2019-11-05T00:54:23.756Z|2019-11-05T00:54:26.008Z|2019-11-05T00:54:24.007619Z</text>
        <id>scdetectTemplateWaveformTimeInfo</id>
      </comment>
    </pick>
    <pick publicID="Pick/20230420150118.174078.38350">
      <time>
        <value>2019-11-05T04:23:50.279729Z</value>
      </time>
      <waveformID networkCode="CH" stationCode="SAYF2" channelCode="HG"/>
      <phaseHint>Sg</phaseHint>
      <evaluationMode>automatic</evaluationMode>
      <creationInfo>
        <agencyID>TEST</agencyID>
        <author>scdetect-cc@lscarabellows</author>
        <creationTime>2023-04-20T15:01:18.174054Z</creationTime>
      </creationInfo>
      <comment>
        <text>2019-11-05T00:54:23.636Z|2019-11-05T00:54:25.888Z|2019-11-05T00:54:23.887728Z</text>
        <id>scdetectTemplateWaveformTimeInfo</id>
      </comment>
    </pick>
    <pick publicID="Pick/20230420150118.174092.38352">
      <time>
        <value>2019-11-05T04:24:32.860426Z</value>
      </time>
      <waveformID networkCode="CH" stationCode="SENIN" channelCode="HH"/>
      <phaseHint>Sg</phaseHint>
      <evaluationMode>automatic</evaluationMode>
      <creationInfo>
        <agencyID>TEST</agencyID>
        <author>scdetect-cc@lscarabellows</author>
        <creationTime>2023-04-20T15:01:18.174086Z</creationTime>
      </creationInfo>
      <comment>
        <text>2019-11-05T00:54:23.885Z|2019-11-05T00:54:26.14Z|2019-11-05T00:54:24.135425Z</text>
        <id>scdetectTemplateWaveformTimeInfo</id>
      </comment>
    </pick>
    <pick publicID="Pick/20230420150118.174097.38353">
      <time>
        <value>2019-11-05T04:24:31.631724Z</value>
      </time>
      <waveformID networkCode="CH" stationCode="SENIN" channelCode="HH"/>
      <phaseHint>Pg</phaseHint>
      <evaluationMode>automatic</evaluationMode>
      <creationInfo>
        <agencyID>TEST</agencyID>
        <author>scdetect-cc@lscarabellows</author>
        <creationTime>2023-04-20T15:01:18.174086Z</creationTime>
      </creationInfo>
      <comment>
        <text>2019-11-05T00:54:22.68Z|2019-11-05T00:54:23.935Z|2019-11-05T00:54:22.931723Z</text>
        <id>scdetectTemplateWaveformTimeInfo</id>
      </comment>
    </pick>
    <pick publicID="Pick/20230420150118.174102.38354">
      <time>
        <value>2019-11-05T04:24:32.76362Z</value>
      </time>
      <waveformID networkCode="CH" stationCode="STSW2" channelCode="HG"/>
      <phaseHint>Sg</phaseHint>
      <evaluationMode>automatic</evaluationMode>
      <creationInfo>
        <agencyID>TEST</agencyID>
        <author>scdetect-cc@lscarabellows</author>
        <creationTime>2023-04-20T15:01:18.174086Z</creationTime>
      </creationInfo>
      <comment>
        <text>2019-11-05T00:54:23.756Z|2019-11-05T00:54:26.008Z|2019-11-05T00:54:24.007619Z</text>
        <id>scdetectTemplateWaveformTimeInfo</id>
      </comment>
    </pick>
    <pick publicID="Pick/20230420150118.174107.38355">
      <time>
        <value>2019-11-05T04:24:32.619729Z</value>
      </time>
      <waveformID networkCode="CH" stationCode="SAYF2" channelCode="HG"/>
      <phaseHint>Sg</phaseHint>
      <evaluationMode>automatic</evaluationMode>
      <creationInfo>
        <agencyID>TEST</agencyID>
        <author>scdetect-cc@lscarabellows</author>
        <creationTime>2023-04-20T15:01:18.174086Z</creationTime>
      </creationInfo>
      <comment>
        <text>2019-11-05T00:54:23.636Z|2019-11-05T00:54:25.888Z|2019-11-05T00:54:23.887728Z</text>
        <id>scdetectTemplateWaveformTimeInfo</id>
      </comment>
    </pick>
    <pick publicID="Pick/20230420150118.174112.38356">
      <time>
        <value>2019-11-05T04:24:31.616101Z</value>
      </time>
      <waveformID networkCode="CH" stationCode="SAYF2" channelCode="HG"/>
      <phaseHint>Pg</phaseHint>
      <evaluationMode>automatic</evaluationMode>
      <creationInfo>
        <agencyID>TEST</agencyID>
        <author>scdetect-cc@lscarabellows</author>
        <creationTime>2023-04-20T15:01:18.174086Z</creationTime>
      </creationInfo>
      <comment>
        <text>2019-11-05T00:54:22.516Z|2019-11-05T00:54:23.772Z|2019-11-05T00:54:22.7681Z</text>
        <id>scdetectTemplateWaveformTimeInfo</id>
      </comment>
    </pick>
    <pick publicID="Pick/20230420150118.174127.38358">
      <time>
        <value>2019-11-05T04:36:54.290426Z</value>
      </time>
      <waveformID networkCode="CH" stationCode="SENIN" channelCode="HH"/>
      <phaseHint>Sg</phaseHint>
      <evaluationMode>automatic</evaluationMode>
      <creationInfo>
        <agencyID>TEST</agencyID>
        <author>scdetect-cc@lscarabellows</author>
        <creationTime>2023-04-20T15:01:18.174122Z</creationTime>
      </creationInfo>
      <comment>
        <text>2019-11-05T00:54:23.885Z|2019-11-05T00:54:26.14Z|2019-11-05T00:54:24.135425Z</text>
        <id>scdetectTemplateWaveformTimeInfo</id>
      </comment>
    </pick>
    <pick publicID="Pick/20230420150118.174132.38359">
      <time>
        <value>2019-11-05T04:36:53.031724Z</value>
      </time>
      <waveformID networkCode="CH" stationCode="SENIN" channelCode="HH"/>
      <phaseHint>Pg</phaseHint>
      <evaluationMode>automatic</evaluationMode>
      <creationInfo>
        <agencyID>TEST</agencyID>
        <author>scdetect-cc@lscarabellows</author>
        <creationTime>2023-04-20T15:01:18.174122Z</creationTime>
      </creationInfo>
      <comment>
        <text>2019-11-05T00:54:22.68Z|2019-11-05T00:54:23.935Z|2019-11-05T00:54:22.931723Z</text>
        <id>scdetectTemplateWaveformTimeInfo</id>
      </comment>
    </pick>
    <pick publicID="Pick/20230420150118.174136.38360">
      <time>
        <value>2019-11-05T04:36:54.08362Z</value>
      </time>
      <waveformID networkCode="CH" stationCode="STSW2" channelCode="HG"/>
      <phaseHint>Sg</phaseHint>
      <evaluationMode>automatic</evaluationMode>
      <creationInfo>
        <agencyID>TEST</agencyID>
        <author>scdetect-cc@lscarabellows</author>
        <creationTime>2023-04-20T15:01:18.174122Z</creationTime>
      </creationInfo>
      <comment>
        <text>2019-11-05T00:54:23.756Z|2019-11-05T00:54:26.008Z|2019-11-05T00:54:24.007619Z</text>
        <id>scdetectTemplateWaveformTimeInfo</id>
      </comment>
    </pick>
    <pick publicID="Pick/20230420150118.174142.38361">
      <time>
        <value>2019-11-05T04:36:53.975729Z</value>
      </time>
      <waveformID networkCode="CH" stationCode="SAYF2" channelCode="HG"/>
      <phaseHint>Sg</phaseHint>
      <evaluationMode>automatic</evaluationMode>
      <creationInfo>
        <agencyID>TEST</agencyID>
        <author>scdetect-cc@lscarabellows</author>
        <creationTime>2023-04-20T15:01:18.174122Z</creationTime>
      </creationInfo>
      <comment>
        <text>2019-11-05T00:54:23.636Z|2019-11-05T00:54:25.888Z|2019-11-05T00:54:23.887728Z</text>
        <id>scdetectTemplateWaveformTimeInfo</id>
      </comment>
    </pick>
    <pick publicID="Pick/20230420150118.174147.38362">
      <time>
        <value>2019-11-05T04:36:52.972101Z</value>
      </time>
      <waveformID networkCode="CH" stationCode="SAYF2" channelCode="HG"/>
      <phaseHint>Pg</phaseHint>
      <evaluationMode>automatic</evaluationMode>
      <creationInfo>
        <agencyID>TEST</agencyID>
        <author>scdetect-cc@lscarabellows</author>
        <creationTime>2023-04-20T15:01:18.174122Z</creationTime>
      </creationInfo>
      <comment>
        <text>2019-11-05T00:54:22.516Z|2019-11-05T00:54:23.772Z|2019-11-05T00:54:22.7681Z</text>
        <id>scdetectTemplateWaveformTimeInfo</id>
      </comment>
    </pick>
    <origin publicID="Origin/20230420150118.173905.38325">
      <time>
        <value>2019-11-05T04:23:29.006707Z</value>
      </time>
      <latitude>
        <value>46.31826387</value>
      </latitude>
      <longitude>
        <value>7.365508705</value>
      </longitude>
      <depth>
        <value>4.788085938</value>
      </depth>
      <epicenterFixed>true</epicenterFixed>
      <methodID>DETECT</methodID>
      <quality>
        <associatedPhaseCount>9</associatedPhaseCount>
        <usedPhaseCount>6</usedPhaseCount>
        <associatedStationCount>3</associatedStationCount>
        <usedStationCount>3</usedStationCount>
        <standardError>0.4216450625692063</standardError>
        <azimuthalGap>184.30736812070907</azimuthalGap>
        <maximumDistance>0.064163570917234</maximumDistance>
        <minimumDistance>0.04667815472471531</minimumDistance>
        <medianDistance>0.064163570917234</medianDistance>
      </quality>
      <evaluationMode>automatic</evaluationMode>
      <creationInfo>
        <agencyID>TEST</agencyID>
        <author>scdetect-cc@lscarabellows</author>
        <creationTime>2023-04-20T15:01:18.173899Z</creationTime>
      </creationInfo>
      <comment>
        <text>detector-01</text>
        <id>scdetectDetectorId</id>
      </comment>
      <comment>
        <text>0.578355</text>
        <id>scdetectResultCCC</id>
      </comment>
      <arrival>
        <pickID>Pick/20230420150118.173925.38326</pickID>
        <phase>Sg</phase>
        <azimuth>314.6659193228461</azimuth>
        <distance>0.064163570917234</distance>
        <weight>1.08157557</weight>
        <creationInfo>
          <agencyID>TEST</agencyID>
          <author>scdetect-cc@lscarabellows</author>
          <creationTime>2023-04-20T15:01:18.173899Z</creationTime>
        </creationInfo>
      </arrival>
      <arrival>
        <pickID>Pick/20230420150118.173947.38327</pickID>
        <phase>Pg</phase>
        <azimuth>314.6659193228461</azimuth>
        <distance>0.064163570917234</distance>
        <weight>1.113701578</weight>
        <creationInfo>
          <agencyID>TEST</agencyID>
          <author>scdetect-cc@lscarabellows</author>
          <creationTime>2023-04-20T15:01:18.173899Z</creationTime>
        </creationInfo>
      </arrival>
      <arrival>
        <pickID>Pick/20230420150118.173953.38328</pickID>
        <phase>Sg</phase>
        <azimuth>60.2022383673233</azimuth>
        <distance>0.05428506003065986</distance>
        <weight>1.08157557</weight>
        <creationInfo>
          <agencyID>TEST</agencyID>
          <author>scdetect-cc@lscarabellows</author>
          <creationTime>2023-04-20T15:01:18.173899Z</creationTime>
        </creationInfo>
      </arrival>
      <arrival>
        <pickID>Pick/20230420150118.173968.38331</pickID>
        <phase>Sg</phase>
        <azimuth>130.35855120213702</azimuth>
        <distance>0.04667815472471531</distance>
        <weight>0.9696884425</weight>
        <creationInfo>
          <agencyID>TEST</agencyID>
          <author>scdetect-cc@lscarabellows</author>
          <creationTime>2023-04-20T15:01:18.173899Z</creationTime>
        </creationInfo>
      </arrival>
    </origin>
    <origin publicID="Origin/20230420150118.173982.38332">
      <time>
        <value>2019-11-05T04:23:29.040707Z</value>
      </time>
      <latitude>
        <value>46.31826387</value>
      </latitude>
      <longitude>
        <value>7.365508705</value>
      </longitude>
      <depth>
        <value>4.788085938</value>
      </depth>
      <epicenterFixed>true</epicenterFixed>
      <methodID>DETECT</methodID>
      <quality>
