<?xml version="1.0" encoding="UTF-8"?>
<seiscomp xmlns="http://geofon.gfz-potsdam.de/ns/seiscomp3-schema/0.11" version="0.11"><EventParameters><pick publicID="smi:ch.ethz.sed/sc3a/Pick/20201026140050.842199.191523"><time><value>2020-10-25T19:36:11.291562Z</value><lowerUncertainty>0.1000000015</lowerUncertainty><upperUncertainty>0.1000000015</upperUncertainty></time><waveformID networkCode="GR" stationCode="BFO" channelCode="HHZ"/><filterID>RMHP(4)-&gt;BW_BP(2,1,30)</filterID><phaseHint>Pg</phaseHint><polarity>positive</polarity><evaluationMode>manual</evaluationMode><creationInfo><agencyID>SED</agencyID><author>tdiehl@sc3ag</author><creationTime>2020-10-26T14:00:50.842247Z</creationTime></creationInfo></pick><pick publicID="smi:ch.ethz.sed/sc3a/Pick/20201026140050.842285.191524"><time><value>2020-10-25T19:36:30.046756Z</value><lowerUncertainty>0.400000006</lowerUncertainty><upperUncertainty>0.400000006</upperUncertainty></time><waveformID networkCode="GR" stationCode="BFO" channelCode="HHT"/><filterID>RMHP(4)-&gt;BW_BP(2,1,30)</filterID><phaseHint>Sg</phaseHint><evaluationMode>manual</evaluationMode><creationInfo><agencyID>SED</agencyID><author>tdiehl@sc3ag</author><creationTime>2020-10-26T14:00:50.842334Z</creationTime></creationInfo></pick><pick publicID="smi:ch.ethz.sed/sc3a/Pick/20201026140050.842728.191529"><time><value>2020-10-25T19:36:11.465763Z</value><lowerUncertainty>0.200000003</lowerUncertainty><upperUncertainty>0.200000003</upperUncertainty></time><waveformID networkCode="Z3" stationCode="A100A" locationCode="00" channelCode="HHZ"/><filterID>RMHP(4)-&gt;BW_BP(2,1,30) -&gt; INT(0)</filterID><phaseHint>Pg</phaseHint><polarity>positive</polarity><evaluationMode>manual</evaluationMode><creationInfo><agencyID>SED</agencyID><author>tdiehl@sc3ag</author><creationTime>2020-10-26T14:00:50.842778Z</creationTime></creationInfo></pick><pick publicID="smi:ch.ethz.sed/sc3a/Pick/20201026140050.842815.191530"><time><value>2020-10-25T19:36:31.030071Z</value><lowerUncertainty>0.400000006</lowerUncertainty><upperUncertainty>0.400000006</upperUncertainty></time><waveformID networkCode="Z3" stationCode="A100A" locationCode="00" channelCode="HHT"/><filterID>RMHP(4)-&gt;BW_BP(2,1,30) -&gt; INT(0)</filterID><phaseHint>Sg</phaseHint><evaluationMode>manual</evaluationMode><creationInfo><agencyID>SED</agencyID><author>tdiehl@sc3ag</author><creationTime>2020-10-26T14:00:50.842864Z</creationTime></creationInfo></pick><pick publicID="smi:ch.ethz.sed/sc3a/Pick/20201026140916.537597.192640"><time><value>2020-10-25T19:36:11.470032Z</value><lowerUncertainty>0.05000000075</lowerUncertainty><upperUncertainty>0.05000000075</upperUncertainty></time><waveformID networkCode="Z3" stationCode="A109A" locationCode="00" channelCode="HHZ"/><filterID>RMHP(4)-&gt;BW_BP(2,1,30)</filterID><phaseHint>Pg</phaseHint><polarity>positive</polarity><evaluationMode>manual</evaluationMode><creationInfo><agencyID>SED</agencyID><author>tdiehl@sc3ag</author><creationTime>2020-10-26T14:09:16.537718Z</creationTime></creationInfo></pick><pick publicID="smi:ch.ethz.sed/sc3a/Pick/20201026140916.537763.192641"><time><value>2020-10-25T19:36:12.457985Z</value><lowerUncertainty>0.400000006</lowerUncertainty><upperUncertainty>0.400000006</upperUncertainty></time><waveformID networkCode="SI" stationCode="BOSI" channelCode="HHZ"/><filterID>RMHP(4)-&gt;BW_BP(2,1,30) -&gt; INT(0)</filterID><phaseHint>Pg</phaseHint><polarity>undecidable</polarity><evaluationMode>manual</evaluationMode><creationInfo><agencyID>SED</agencyID><author>tdiehl@sc3ag</author><creationTime>2020-10-26T14:09:16.537816Z</creationTime></creationInfo></pick><pick publicID="smi:ch.ethz.sed/sc3a/Pick/20201026140916.53797.192643"><time><value>2020-10-25T19:36:12.25332Z</value><lowerUncertainty>0.1000000015</lowerUncertainty><upperUncertainty>0.1000000015</upperUncertainty></time><waveformID networkCode="SI" stationCode="ROSI" channelCode="HHZ"/><filterID>RMHP(4)-&gt;BW_BP(2,1,30)</filterID><phaseHint>Pg</phaseHint><polarity>negative</polarity><evaluationMode>manual</evaluationMode><creationInfo><agencyID>SED</agencyID><author>tdiehl@sc3ag</author><creationTime>2020-10-26T14:09:16.538043Z</creationTime></creationInfo></pick><pick publicID="smi:ch.ethz.sed/sc3a/Pick/20201026140916.538093.192644"><time><value>2020-10-25T19:36:15.163596Z</value><lowerUncertainty>0.200000003</lowerUncertainty><upperUncertainty>0.200000003</upperUncertainty></time><waveformID networkCode="SI" stationCode="ROSI" channelCode="HHZ"/><filterID>RMHP(4)-&gt;BW_BP(2,1,30)</filterID><phaseHint>PmP</phaseHint><evaluationMode>manual</evaluationMode><creationInfo><agencyID>SED</agencyID><author>tdiehl@sc3ag</author><creationTime>2020-10-26T14:09:16.538152Z</creationTime></creationInfo></pick><pick publicID="smi:ch.ethz.sed/sc3a/Pick/20201026140916.538291.192646"><time><value>2020-10-25T19:36:12.338853Z</value><lowerUncertainty>0.1000000015</lowerUncertainty><upperUncertainty>0.1000000015</upperUncertainty></time><waveformID networkCode="SI" stationCode="LUSI" channelCode="HHZ"/><filterID>RMHP(4)-&gt;BW_BP(2,1,30)</filterID><phaseHint>Pg</phaseHint><polarity>negative</polarity><evaluationMode>manual</evaluationMode><creationInfo><agencyID>SED</agencyID><author>tdiehl@sc3ag</author><creationTime>2020-10-26T14:09:16.538336Z</creationTime></creationInfo></pick><pick publicID="smi:ch.ethz.sed/sc3a/Pick/20201026140916.538597.192650"><time><value>2020-10-25T19:36:13.219945Z</value><lowerUncertainty>0.200000003</lowerUncertainty><upperUncertainty>0.200000003</upperUncertainty></time><waveformID networkCode="SI" stationCode="KOSI" channelCode="HHZ"/><filterID>RMHP(4)-&gt;BW_BP(2,1,30)</filterID><phaseHint>Pg</phaseHint><polarity>negative</polarity><evaluationMode>manual</evaluationMode><creationInfo><agencyID>SED</agencyID><author>tdiehl@sc3ag</author><creationTime>2020-10-26T14:09:16.538641Z</creationTime></creationInfo></pick><pick publicID="smi:ch.ethz.sed/sc3a/Pick/20201026140916.538673.192651"><time><value>2020-10-25T19:36:16.366053Z</value><lowerUncertainty>0.200000003</lowerUncertainty><upperUncertainty>0.200000003</upperUncertainty></time><waveformID networkCode="SI" stationCode="KOSI" channelCode="HHZ"/><filterID>RMHP(4)-&gt;BW_BP(2,1,30)</filterID><phaseHint>PmP</phaseHint><evaluationMode>manual</evaluationMode><creationInfo><agencyID>SED</agencyID><author>tdiehl@sc3ag</author><creationTime>2020-10-26T14:09:16.538717Z</creationTime></creationInfo></pick><pick publicID="smi:ch.ethz.sed/sc3a/Pick/20201026142027.383147.193116"><time><value>2020-10-25T19:36:16.575368Z</value><lowerUncertainty>0.400000006</lowerUncertainty><upperUncertainty>0.400000006</upperUncertainty></time><waveformID networkCode="OE" stationCode="WTTA" channelCode="HHZ"/><filterID>RMHP(4)-&gt;BW_BP(2,1,30)</filterID><phaseHint>Pg</phaseHint><polarity>undecidable</polarity><evaluationMode>manual</evaluationMode><creationInfo><agencyID>SED</agencyID><author>tdiehl@sc3ag</author><creationTime>2020-10-26T14:20:27.383202Z</creationTime></creationInfo></pick><pick publicID="smi:ch.ethz.sed/sc3a/Pick/20201026142027.383342.193118"><time><value>2020-10-25T19:36:15.077475Z</value><lowerUncertainty>0.200000003</lowerUncertainty><upperUncertainty>0.200000003</upperUncertainty></time><waveformID networkCode="Z3" stationCode="A124A" locationCode="00" channelCode="HHZ"/><filterID>RMHP(4)-&gt;BW_BP(2,1,30) -&gt; INT(0)</filterID><phaseHint>Pg</phaseHint><polarity>positive</polarity><evaluationMode>manual</evaluationMode><creationInfo><agencyID>SED</agencyID><author>tdiehl@sc3ag</author><creationTime>2020-10-26T14:20:27.383387Z</creationTime></creationInfo></pick><pick publicID="smi:ch.ethz.sed/sc3a/Pick/20201026142559.080216.193606"><time><value>2020-10-25T19:36:18.484975Z</value><lowerUncertainty>0.200000003</lowerUncertainty><upperUncertainty>0.200000003</upperUncertainty></time><waveformID networkCode="Z3" stationCode="A291A" channelCode="HHZ"/><filterID>RMHP(4)-&gt;BW_BP(2,1,30)</filterID><phaseHint>Pg</phaseHint><polarity>negative</polarity><evaluationMode>manual</evaluationMode><creationInfo><agencyID>SED</agencyID><author>tdiehl@sc3ag</author><creationTime>2020-10-26T14:25:59.080462Z</creationTime></creationInfo></pick><pick publicID="smi:ch.ethz.sed/sc3a/Pick/20201026143116.557048.193781"><time><value>2020-10-25T19:36:19.622724Z</value><lowerUncertainty>0.400000006</lowerUncertainty><upperUncertainty>0.400000006</upperUncertainty></time><waveformID networkCode="IV" stationCode="MONC" channelCode="HHZ"/><filterID>RMHP(4)-&gt;BW_BP(2,1,30)</filterID><phaseHint>Pg</phaseHint><polarity>undecidable</polarity><evaluationMode>manual</evaluationMode><creationInfo><agencyID>SED</agencyID><author>tdiehl@sc3ag</author><creationTime>2020-10-26T14:31:16.557095Z</creationTime></creationInfo></pick><pick publicID="smi:ch.ethz.sed/sc3a/Pick/20201026143116.557144.193782"><time><value>2020-10-25T19:36:22.177466Z</value><lowerUncertainty>0.200000003</lowerUncertainty><upperUncertainty>0.200000003</upperUncertainty></time><waveformID networkCode="OX" stationCode="AGOR" channelCode="HHZ"/><filterID>RMHP(4)-&gt;BW_BP(2,1,30)</filterID><phaseHint>Pg</phaseHint><polarity>negative</polarity><evaluationMode>manual</evaluationMode><creationInfo><agencyID>SED</agencyID><author>tdiehl@sc3ag</author><creationTime>2020-10-26T14:31:16.557193Z</creationTime></creationInfo></pick><pick publicID="smi:ch.ethz.sed/sc3a/Pick/20201026143703.970342.193960"><time><value>2020-10-25T19:36:22.290493Z</value><lowerUncertainty>0.200000003</lowerUncertainty><upperUncertainty>0.200000003</upperUncertainty></time><waveformID networkCode="OX" stationCode="CGRP" channelCode="HHZ"/><filterID> WA(1)-&gt;BW_HP(4,.5)</filterID><phaseHint>P1</phaseHint><polarity>negative</polarity><evaluationMode>manual</evaluationMode><creationInfo><agencyID>SED</agencyID><author>tdiehl@sc3ag</author><creationTime>2020-10-26T14:37:03.970455Z</creationTime></creationInfo></pick><pick publicID="smi:ch.ethz.sed/sc3a/Pick/20201026144158.383385.194303"><time><value>2020-10-25T19:36:26.849027Z</value><lowerUncertainty>0.400000006</lowerUncertainty><upperUncertainty>0.400000006</upperUncertainty></time><waveformID networkCode="FR" stationCode="OG35" locationCode="00" channelCode="HHZ"/><filterID>RMHP(4)-&gt;BW_BP(2,1,30)</filterID><phaseHint>Pn</phaseHint><polarity>undecidable</polarity><evaluationMode>manual</evaluationMode><creationInfo><agencyID>SED</agencyID><author>tdiehl@sc3ag</author><creationTime>2020-10-26T14:41:58.383431Z</creationTime></creationInfo></pick><pick publicID="smi:ch.ethz.sed/sc3a/Pick/20201026144158.383473.194304"><time><value>2020-10-25T19:36:27.933107Z</value><lowerUncertainty>0.400000006</lowerUncertainty><upperUncertainty>0.400000006</upperUncertainty></time><waveformID networkCode="GU" stationCode="PZZ" channelCode="HHZ"/><filterID>RMHP(4)-&gt;BW_BP(2,1,30)</filterID><phaseHint>Pn</phaseHint><polarity>undecidable</polarity><evaluationMode>manual</evaluationMode><creationInfo><agencyID>SED</agencyID><author>tdiehl@sc3ag</author><creationTime>2020-10-26T14:41:58.383527Z</creationTime></creationInfo></pick><pick publicID="smi:ch.ethz.sed/sc3a/Pick/20201026111701.00795.179478"><time><value>2020-10-25T19:36:15.77847Z</value><lowerUncertainty>0.400000006</lowerUncertainty><upperUncertainty>0.400000006</upperUncertainty></time><waveformID networkCode="CH" stationCode="SCHS" channelCode="HGT"/><filterID>RMHP(4)-&gt;BW_BP(2,1,30) -&gt; INT(0) -&gt; INT(0)</filterID><phaseHint>SmS</phaseHint><evaluationMode>manual</evaluationMode><creationInfo><agencyID>SED</agencyID><author>tdiehl@sc3ag</author><creationTime>2020-10-26T11:17:01.007996Z</creationTime></creationInfo></pick><pick publicID="smi:ch.ethz.sed/sc3a/Pick/20201026111701.008043.179479"><time><value>2020-10-25T19:36:03.25719Z</value><lowerUncertainty>0.400000006</lowerUncertainty><upperUncertainty>0.400000006</upperUncertainty></time><waveformID networkCode="CH" stationCode="SCHS" channelCode="HGZ"/><filterID>RMHP(4)-&gt;BW_BP(2,1,30) -&gt; INT(0) -&gt; INT(0)</filterID><phaseHint>PmP</phaseHint><evaluationMode>manual</evaluationMode><creationInfo><agencyID>SED</agencyID><author>tdiehl@sc3ag</author><creationTime>2020-10-26T11:17:01.008088Z</creationTime></creationInfo></pick><pick publicID="smi:ch.ethz.sed/sc3a/Pick/20201026111701.008443.179484"><time><value>2020-10-25T19:36:16.114462Z</value><lowerUncertainty>0.400000006</lowerUncertainty><upperUncertainty>0.400000006</upperUncertainty></time><waveformID networkCode="CH" stationCode="SFEL" channelCode="HGT"/><filterID>RMHP(4)-&gt;BW_BP(2,1,30) -&gt; INT(0) -&gt; INT(0)</filterID><phaseHint>SmS</phaseHint><evaluationMode>manual</evaluationMode><creationInfo><agencyID>SED</agencyID><author>tdiehl@sc3ag</author><creationTime>2020-10-26T11:17:01.008486Z</creationTime></creationInfo></pick><pick publicID="smi:ch.ethz.sed/sc3a/Pick/20201026111701.008586.179486"><time><value>2020-10-25T19:36:16.452278Z</value><lowerUncertainty>0.400000006</lowerUncertainty><upperUncertainty>0.400000006</upperUncertainty></time><waveformID networkCode="CH" stationCode="SAARA" channelCode="HGT"/><filterID>RMHP(4)-&gt;BW_BP(2,1,30) -&gt; INT(0) -&gt; INT(0)</filterID><phaseHint>SmS</phaseHint><evaluationMode>manual</evaluationMode><creationInfo><agencyID>SED</agencyID><author>tdiehl@sc3ag</author><creationTime>2020-10-26T11:17:01.008651Z</creationTime></creationInfo></pick><pick publicID="smi:ch.ethz.sed/sc3a/Pick/20201026111701.00875.179488"><time><value>2020-10-25T19:36:16.468884Z</value><lowerUncertainty>0.400000006</lowerUncertainty><upperUncertainty>0.400000006</upperUncertainty></time><waveformID networkCode="8D" stationCode="NDBB1" channelCode="HHT"/><filterID>RMHP(4)-&gt;BW_BP(2,1,30)</filterID><phaseHint>SmS</phaseHint><evaluationMode>manual</evaluationMode><creationInfo><agencyID>SED</agencyID><author>tdiehl@sc3ag</author><creationTime>2020-10-26T11:17:01.008791Z</creationTime></creationInfo></pick><pick publicID="smi:ch.ethz.sed/sc3a/Pick/20201026111701.008895.179490"><time><value>2020-10-25T19:36:04.366156Z</value><lowerUncertainty>0.400000006</lowerUncertainty><upperUncertainty>0.400000006</upperUncertainty></time><waveformID networkCode="CH" stationCode="SINS" channelCode="HGZ"/><filterID>RMHP(4)-&gt;BW_BP(2,1,30) -&gt; INT(0)</filterID><phaseHint>PmP</phaseHint><evaluationMode>manual</evaluationMode><creationInfo><agencyID>SED</agencyID><author>tdiehl@sc3ag</author><creationTime>2020-10-26T11:17:01.008938Z</creationTime></creationInfo></pick><pick publicID="smi:ch.ethz.sed/sc3a/Pick/20201026111701.00942.179497"><time><value>2020-10-25T19:36:17.498824Z</value><lowerUncertainty>0.400000006</lowerUncertainty><upperUncertainty>0.400000006</upperUncertainty></time><waveformID networkCode="CH" stationCode="EMMET" channelCode="HHT"/><filterID>RMHP(4)-&gt;BW_BP(2,1,30)</filterID><phaseHint>SmS</phaseHint><evaluationMode>manual</evaluationMode><creationInfo><agencyID>SED</agencyID><author>tdiehl@sc3ag</author><creationTime>2020-10-26T11:17:01.009462Z</creationTime></creationInfo></pick><pick publicID="smi:ch.ethz.sed/sc3a/Pick/20201026111701.009277.179495"><time><value>2020-10-25T19:36:17.010034Z</value><lowerUncertainty>0.400000006</lowerUncertainty><upperUncertainty>0.400000006</upperUncertainty></time><waveformID networkCode="8D" stationCode="NNFT" channelCode="HHT"/><filterID> WA(1)-&gt;BW_HP(4,.5)</filterID><phaseHint>SmS</phaseHint><evaluationMode>manual</evaluationMode><creationInfo><agencyID>SED</agencyID><author>tdiehl@sc3ag</author><creationTime>2020-10-26T11:17:01.00932Z</creationTime></creationInfo></pick><pick publicID="smi:ch.ethz.sed/sc3a/Pick/20201026111701.009571.179499"><time><value>2020-10-25T19:36:17.473396Z</value><lowerUncertainty>0.400000006</lowerUncertainty><upperUncertainty>0.400000006</upperUncertainty></time><waveformID networkCode="CH" stationCode="SULZ" channelCode="HHT"/><filterID>RMHP(4)-&gt;BW_BP(2,1,30)</filterID><phaseHint>SmS</phaseHint><evaluationMode>manual</evaluationMode><creationInfo><agencyID>SED</agencyID><author>tdiehl@sc3ag</author><creationTime>2020-10-26T11:17:01.009613Z</creationTime></creationInfo></pick><pick publicID="smi:ch.ethz.sed/sc3a/Pick/20201026111701.00974.179501"><time><value>2020-10-25T19:36:04.731195Z</value><lowerUncertainty>0.200000003</lowerUncertainty><upperUncertainty>0.200000003</upperUncertainty></time><waveformID networkCode="Z3" stationCode="A105A" locationCode="00" channelCode="HHZ"/><filterID>RMHP(4)-&gt;BW_BP(2,1,30)</filterID><phaseHint>PmP</phaseHint><evaluationMode>manual</evaluationMode><creationInfo><agencyID>SED</agencyID><author>tdiehl@sc3ag</author><creationTime>2020-10-26T11:17:01.009785Z</creationTime></creationInfo></pick><pick publicID="smi:ch.ethz.sed/sc3a/Pick/20201026111701.010021.179504"><time><value>2020-10-25T19:36:03.988129Z</value><lowerUncertainty>0.400000006</lowerUncertainty><upperUncertainty>0.400000006</upperUncertainty></time><waveformID networkCode="Z3" stationCode="A103D" locationCode="00" channelCode="HHZ"/><filterID>RMHP(4)-&gt;BW_BP(2,1,30)</filterID><phaseHint>PmP</phaseHint><evaluationMode>manual</evaluationMode><creationInfo><agencyID>SED</agencyID><author>tdiehl@sc3ag</author><creationTime>2020-10-26T11:17:01.010066Z</creationTime></creationInfo></pick><pick publicID="smi:ch.ethz.sed/sc3a/Pick/20201026111701.010107.179505"><time><value>2020-10-25T19:36:18.595809Z</value><lowerUncertainty>0.400000006</lowerUncertainty><upperUncertainty>0.400000006</upperUncertainty></time><waveformID networkCode="Z3" stationCode="A103D" locationCode="00" channelCode="HHT"/><filterID>RMHP(4)-&gt;BW_BP(2,1,30)</filterID><phaseHint>SmS</phaseHint><evaluationMode>manual</evaluationMode><creationInfo><agencyID>SED</agencyID><author>tdiehl@sc3ag</author><creationTime>2020-10-26T11:17:01.010152Z</creationTime></creationInfo></pick><pick publicID="smi:ch.ethz.sed/sc3a/Pick/20201026113304.083312.180734"><time><value>2020-10-25T19:36:04.083932Z</value><lowerUncertainty>0.200000003</lowerUncertainty><upperUncertainty>0.200000003</upperUncertainty></time><waveformID networkCode="CH" stationCode="SLE" channelCode="HHZ"/><filterID>RMHP(4)-&gt;BW_BP(2,1,30) -&gt; INT(0)</filterID><phaseHint>PmP</phaseHint><evaluationMode>manual</evaluationMode><creationInfo><agencyID>SED</agencyID><author>tdiehl@sc3ag</author><creationTime>2020-10-26T11:33:04.083369Z</creationTime></creationInfo></pick><pick publicID="smi:ch.ethz.sed/sc3a/Pick/20201026113304.083503.180736"><time><value>2020-10-25T19:36:17.802639Z</value><lowerUncertainty>0.400000006</lowerUncertainty><upperUncertainty>0.400000006</upperUncertainty></time><waveformID networkCode="CH" stationCode="SLE" channelCode="HHT"/><filterID>RMHP(4)-&gt;BW_BP(2,1,30) -&gt; INT(0)</filterID><phaseHint>SmS</phaseHint><evaluationMode>manual</evaluationMode><creationInfo><agencyID>SED</agencyID><author>tdiehl@sc3ag</author><creationTime>2020-10-26T11:33:04.083555Z</creationTime></creationInfo></pick><pick publicID="smi:ch.ethz.sed/sc3a/Pick/20201026113304.08389.180740"><time><value>2020-10-25T19:36:04.771327Z</value><lowerUncertainty>0.400000006</lowerUncertainty><upperUncertainty>0.400000006</upperUncertainty></time><waveformID networkCode="CH" stationCode="ROTHE" channelCode="HHZ"/><filterID>RMHP(4)-&gt;BW_BP(2,1,30)</filterID><phaseHint>PmP</phaseHint><evaluationMode>manual</evaluationMode><creationInfo><agencyID>SED</agencyID><author>tdiehl@sc3ag</author><creationTime>2020-10-26T11:33:04.083938Z</creationTime></creationInfo></pick><pick publicID="smi:ch.ethz.sed/sc3a/Pick/20201026113304.084245.180743"><time><value>2020-10-25T19:36:18.824976Z</value><lowerUncertainty>0.400000006</lowerUncertainty><upperUncertainty>0.400000006</upperUncertainty></time><waveformID networkCode="CH" stationCode="METMA" channelCode="HHT"/><filterID>RMHP(4)-&gt;BW_BP(2,1,30)</filterID><phaseHint>SmS</phaseHint><evaluationMode>manual</evaluationMode><creationInfo><agencyID>SED</agencyID><author>tdiehl@sc3ag</author><creationTime>2020-10-26T11:33:04.084328Z</creation