<?xml version="1.0" encoding="UTF-8"?>
<seiscomp xmlns="http://geofon.gfz-potsdam.de/ns/seiscomp3-schema/0.10" version="0.10"><EventParameters><pick publicID="smi:ch.ethz.sed/sc3a/Pick/20201025135929.424396.95729"><time><value>2020-10-25T13:37:29.446037Z</value><lowerUncertainty>0.02500000037</lowerUncertainty><upperUncertainty>0.02500000037</upperUncertainty></time><waveformID networkCode="4D" stationCode="MH48" locationCode="A" channelCode="EHZ"/><phaseHint>Pg</phaseHint><polarity>negative</polarity><evaluationMode>manual</evaluationMode><creationInfo><agencyID>SED</agencyID><author>jclinton@sc3ag</author><creationTime>2020-10-25T13:59:29.424586Z</creationTime></creationInfo></pick><pick publicID="smi:ch.ethz.sed/sc3a/Pick/20201025135929.424697.95730"><time><value>2020-10-25T13:37:29.444844Z</value><lowerUncertainty>0.02500000037</lowerUncertainty><upperUncertainty>0.02500000037</upperUncertainty></time><waveformID networkCode="4D" stationCode="MH36" locationCode="A" channelCode="EHZ"/><phaseHint>Pg</phaseHint><polarity>negative</polarity><evaluationMode>manual</evaluationMode><creationInfo><agencyID>SED</agencyID><author>jclinton@sc3ag</author><creationTime>2020-10-25T13:59:29.424762Z</creationTime></creationInfo></pick><pick publicID="smi:ch.ethz.sed/sc3a/Pick/20201025135929.424818.95731"><time><value>2020-10-25T13:37:29.459156Z</value><lowerUncertainty>0.02500000037</lowerUncertainty><upperUncertainty>0.02500000037</upperUncertainty></time><waveformID networkCode="4D" stationCode="MH44" locationCode="A" channelCode="EHZ"/><phaseHint>Pg</phaseHint><polarity>negative</polarity><evaluationMode>manual</evaluationMode><creationInfo><agencyID>SED</agencyID><author>jclinton@sc3ag</author><creationTime>2020-10-25T13:59:29.42488Z</creationTime></creationInfo></pick><pick publicID="smi:ch.ethz.sed/sc3a/Pick/20201025135929.42494.95732"><time><value>2020-10-25T13:37:29.047Z</value><lowerUncertainty>0.02500000037</lowerUncertainty><upperUncertainty>0.02500000037</upperUncertainty></time><waveformID networkCode="CH" stationCode="DIX" channelCode="HHZ"/><phaseHint>Pg</phaseHint><polarity>positive</polarity><evaluationMode>manual</evaluationMode><creationInfo><agencyID>SED</agencyID><author>jclinton@sc3ag</author><creationTime>2020-10-25T13:59:29.424997Z</creationTime></creationInfo></pick><pick publicID="smi:ch.ethz.sed/sc3a/Pick/20201025135929.425072.95733"><time><value>2020-10-25T13:37:30.282065Z</value><lowerUncertainty>0.02500000037</lowerUncertainty><upperUncertainty>0.02500000037</upperUncertainty></time><waveformID networkCode="CH" stationCode="SZEK" channelCode="HGZ"/><filterID>RMHP(4)-&gt;BW_BP(2,1,30)</filterID><phaseHint>Pg</phaseHint><polarity>negative</polarity><evaluationMode>manual</evaluationMode><creationInfo><agencyID>SED</agencyID><author>jclinton@sc3ag</author><creationTime>2020-10-25T13:59:29.425134Z</creationTime></creationInfo></pick><pick publicID="smi:ch.ethz.sed/sc3a/Pick/20201025135929.425194.95734"><time><value>2020-10-25T13:37:33.036048Z</value><lowerUncertainty>0.05000000075</lowerUncertainty><upperUncertainty>0.05000000075</upperUncertainty></time><waveformID networkCode="CH" stationCode="SZIM" channelCode="HGT"/><phaseHint>Sg</phaseHint><evaluationMode>manual</evaluationMode><creationInfo><agencyID>SED</agencyID><author>jclinton@sc3ag</author><creationTime>2020-10-25T13:59:29.425252Z</creationTime></creationInfo></pick><pick publicID="smi:ch.ethz.sed/sc3a/Pick/20201025135929.42529.95735"><time><value>2020-10-25T13:37:30.513427Z</value><lowerUncertainty>0.02500000037</lowerUncertainty><upperUncertainty>0.02500000037</upperUncertainty></time><waveformID networkCode="CH" stationCode="SZIM" channelCode="HGZ"/><filterID>RMHP(4)-&gt;BW_BP(2,1,30)</filterID><phaseHint>Pg</phaseHint><polarity>negative</polarity><evaluationMode>manual</evaluationMode><creationInfo><agencyID>SED</agencyID><author>jclinton@sc3ag</author><creationTime>2020-10-25T13:59:29.425351Z</creationTime></creationInfo></pick><pick publicID="smi:ch.ethz.sed/sc3a/Pick/20201025135929.425384.95736"><time><value>2020-10-25T13:37:31.087764Z</value><lowerUncertainty>0.02500000037</lowerUncertainty><upperUncertainty>0.02500000037</upperUncertainty></time><waveformID networkCode="CH" stationCode="SHER" channelCode="HGZ"/><filterID>RMHP(4)-&gt;BW_BP(2,1,30) -&gt; INT(0)</filterID><phaseHint>Pg</phaseHint><polarity>positive</polarity><evaluationMode>manual</evaluationMode><creationInfo><agencyID>SED</agencyID><author>jclinton@sc3ag</author><creationTime>2020-10-25T13:59:29.425449Z</creationTime></creationInfo></pick><pick publicID="smi:ch.ethz.sed/sc3a/Pick/20201025135929.425481.95737"><time><value>2020-10-25T13:37:31.152003Z</value><lowerUncertainty>0.02500000037</lowerUncertainty><upperUncertainty>0.02500000037</upperUncertainty></time><waveformID networkCode="CH" stationCode="SVBE" channelCode="HGZ"/><filterID>RMHP(4)-&gt;BW_BP(2,1,30) -&gt; INT(0)</filterID><phaseHint>Pg</phaseHint><polarity>negative</polarity><evaluationMode>manual</evaluationMode><creationInfo><agencyID>SED</agencyID><author>jclinton@sc3ag</author><creationTime>2020-10-25T13:59:29.425546Z</creationTime></creationInfo></pick><pick publicID="smi:ch.ethz.sed/sc3a/Pick/20201025135929.425607.95738"><time><value>2020-10-25T13:37:34.624118Z</value><lowerUncertainty>0.1000000015</lowerUncertainty><upperUncertainty>0.1000000015</upperUncertainty></time><waveformID networkCode="CH" stationCode="VANNI" channelCode="HHT"/><phaseHint>Sg</phaseHint><evaluationMode>manual</evaluationMode><creationInfo><agencyID>SED</agencyID><author>jclinton@sc3ag</author><creationTime>2020-10-25T13:59:29.425667Z</creationTime></creationInfo></pick><pick publicID="smi:ch.ethz.sed/sc3a/Pick/20201025135929.425709.95739"><time><value>2020-10-25T13:37:31.557412Z</value><lowerUncertainty>0.02500000037</lowerUncertainty><upperUncertainty>0.02500000037</upperUncertainty></time><waveformID networkCode="CH" stationCode="VANNI" channelCode="HHZ"/><phaseHint>Pg</phaseHint><polarity>negative</polarity><evaluationMode>manual</evaluationMode><creationInfo><agencyID>SED</agencyID><author>jclinton@sc3ag</author><creationTime>2020-10-25T13:59:29.42579Z</creationTime></creationInfo></pick><pick publicID="smi:ch.ethz.sed/sc3a/Pick/20201025135929.425851.95740"><time><value>2020-10-25T13:37:32.219631Z</value><lowerUncertainty>0.02500000037</lowerUncertainty><upperUncertainty>0.02500000037</upperUncertainty></time><waveformID networkCode="GU" stationCode="SATI" channelCode="HHZ"/><phaseHint>Pg</phaseHint><polarity>negative</polarity><evaluationMode>manual</evaluationMode><creationInfo><agencyID>SED</agencyID><author>jclinton@sc3ag</author><creationTime>2020-10-25T13:59:29.42591Z</creationTime></creationInfo></pick><pick publicID="smi:ch.ethz.sed/sc3a/Pick/20201025135929.425979.95741"><time><value>2020-10-25T13:37:36.136845Z</value><lowerUncertainty>0.05000000075</lowerUncertainty><upperUncertainty>0.05000000075</upperUncertainty></time><waveformID networkCode="GU" stationCode="SATI" channelCode="HHT"/><phaseHint>Sg</phaseHint><evaluationMode>manual</evaluationMode><creationInfo><agencyID>SED</agencyID><author>jclinton@sc3ag</author><creationTime>2020-10-25T13:59:29.426042Z</creationTime></creationInfo></pick><pick publicID="smi:ch.ethz.sed/sc3a/Pick/20201025135929.426111.95742"><time><value>2020-10-25T13:37:35.696453Z</value><lowerUncertainty>0.1000000015</lowerUncertainty><upperUncertainty>0.1000000015</upperUncertainty></time><waveformID networkCode="8D" stationCode="MFERR" channelCode="EHT"/><phaseHint>Sg</phaseHint><evaluationMode>manual</evaluationMode><creationInfo><agencyID>SED</agencyID><author>jclinton@sc3ag</author><creationTime>2020-10-25T13:59:29.426168Z</creationTime></creationInfo></pick><pick publicID="smi:ch.ethz.sed/sc3a/Pick/20201025135929.42621.95743"><time><value>2020-10-25T13:37:32.076571Z</value><lowerUncertainty>0.02500000037</lowerUncertainty><upperUncertainty>0.02500000037</upperUncertainty></time><waveformID networkCode="8D" stationCode="MFERR" channelCode="EHZ"/><phaseHint>Pg</phaseHint><polarity>positive</polarity><evaluationMode>manual</evaluationMode><creationInfo><agencyID>SED</agencyID><author>jclinton@sc3ag</author><creationTime>2020-10-25T13:59:29.426279Z</creationTime></creationInfo></pick><pick publicID="smi:ch.ethz.sed/sc3a/Pick/20201025135929.426338.95744"><time><value>2020-10-25T13:37:32.087352Z</value><lowerUncertainty>0.02500000037</lowerUncertainty><upperUncertainty>0.02500000037</upperUncertainty></time><waveformID networkCode="GU" stationCode="REMY" channelCode="HHZ"/><phaseHint>Pg</phaseHint><polarity>positive</polarity><evaluationMode>manual</evaluationMode><creationInfo><agencyID>SED</agencyID><author>jclinton@sc3ag</author><creationTime>2020-10-25T13:59:29.426398Z</creationTime></creationInfo></pick><pick publicID="smi:ch.ethz.sed/sc3a/Pick/20201025135929.426455.95745"><time><value>2020-10-25T13:37:32.423263Z</value><lowerUncertainty>0.02500000037</lowerUncertainty><upperUncertainty>0.02500000037</upperUncertainty></time><waveformID networkCode="CH" stationCode="SNIB" channelCode="HGZ"/><filterID>RMHP(4)-&gt;BW_BP(2,1,30) -&gt; INT(0)</filterID><phaseHint>Pg</phaseHint><polarity>negative</polarity><evaluationMode>manual</evaluationMode><creationInfo><agencyID>SED</agencyID><author>jclinton@sc3ag</author><creationTime>2020-10-25T13:59:29.426516Z</creationTime></creationInfo></pick><pick publicID="smi:ch.ethz.sed/sc3a/Pick/20201025135929.426559.95746"><time><value>2020-10-25T13:37:32.298907Z</value><lowerUncertainty>0.02500000037</lowerUncertainty><upperUncertainty>0.02500000037</upperUncertainty></time><waveformID networkCode="XY" stationCode="LEO01" channelCode="HHZ"/><filterID>RMHP(4)-&gt;BW_BP(2,1,30)</filterID><phaseHint>Pg</phaseHint><polarity>positive</polarity><evaluationMode>manual</evaluationMode><creationInfo><agencyID>SED</agencyID><author>jclinton@sc3ag</author><creationTime>2020-10-25T13:59:29.426622Z</creationTime></creationInfo></pick><pick publicID="smi:ch.ethz.sed/sc3a/Pick/20201025135929.426669.95747"><time><value>2020-10-25T13:37:32.499848Z</value><lowerUncertainty>0.05000000075</lowerUncertainty><upperUncertainty>0.05000000075</upperUncertainty></time><waveformID networkCode="XY" stationCode="VET01" channelCode="HHZ"/><filterID>RMHP(4)-&gt;BW_BP(2,1,30)</filterID><phaseHint>Pg</phaseHint><polarity>undecidable</polarity><evaluationMode>manual</evaluationMode><creationInfo><agencyID>SED</agencyID><author>jclinton@sc3ag</author><creationTime>2020-10-25T13:59:29.42673Z</creationTime></creationInfo></pick><pick publicID="smi:ch.ethz.sed/sc3a/Pick/20201025135929.426812.95748"><time><value>2020-10-25T13:37:32.920794Z</value><lowerUncertainty>0.02500000037</lowerUncertainty><upperUncertainty>0.02500000037</upperUncertainty></time><waveformID networkCode="CH" stationCode="MMK" channelCode="HHZ"/><phaseHint>Pg</phaseHint><polarity>negative</polarity><evaluationMode>manual</evaluationMode><creationInfo><agencyID>SED</agencyID><author>jclinton@sc3ag</author><creationTime>2020-10-25T13:59:29.42687Z</creationTime></creationInfo></pick><pick publicID="smi:ch.ethz.sed/sc3a/Pick/20201025135929.426925.95749"><time><value>2020-10-25T13:37:32.765689Z</value><lowerUncertainty>0.1000000015</lowerUncertainty><upperUncertainty>0.1000000015</upperUncertainty></time><waveformID networkCode="CH" stationCode="FULLY" channelCode="HHZ"/><filterID>RMHP(4)-&gt;BW_BP(2,1,30)</filterID><phaseHint>Pg</phaseHint><polarity>undecidable</polarity><evaluationMode>manual</evaluationMode><creationInfo><agencyID>SED</agencyID><author>jclinton@sc3ag</author><creationTime>2020-10-25T13:59:29.426993Z</creationTime></creationInfo></pick><pick publicID="smi:ch.ethz.sed/sc3a/Pick/20201025135929.427028.95750"><time><value>2020-10-25T13:37:32.970444Z</value><lowerUncertainty>0.02500000037</lowerUncertainty><upperUncertainty>0.02500000037</upperUncertainty></time><waveformID networkCode="CH" stationCode="SAYF2" channelCode="HGZ"/><filterID>RMHP(4)-&gt;BW_BP(2,1,30) -&gt; INT(0)</filterID><phaseHint>Pg</phaseHint><polarity>positive</polarity><evaluationMode>manual</evaluationMode><creationInfo><agencyID>SED</agencyID><author>jclinton@sc3ag</author><creationTime>2020-10-25T13:59:29.427171Z</creationTime></creationInfo></pick><pick publicID="smi:ch.ethz.sed/sc3a/Pick/20201025135929.427257.95751"><time><value>2020-10-25T13:37:33.123642Z</value><lowerUncertainty>0.02500000037</lowerUncertainty><upperUncertainty>0.02500000037</upperUncertainty></time><waveformID networkCode="CH" stationCode="EMBD" channelCode="HHZ"/><filterID>RMHP(4)-&gt;BW_BP(2,1,30)</filterID><phaseHint>Pg</phaseHint><polarity>negative</polarity><evaluationMode>manual</evaluationMode><creationInfo><agencyID>SED</agencyID><author>jclinton@sc3ag</author><creationTime>2020-10-25T13:59:29.427347Z</creationTime></creationInfo></pick><pick publicID="smi:ch.ethz.sed/sc3a/Pick/20201025135929.427412.95752"><time><value>2020-10-25T13:37:37.309283Z</value><lowerUncertainty>0.1000000015</lowerUncertainty><upperUncertainty>0.1000000015</upperUncertainty></time><waveformID networkCode="CH" stationCode="EMBD" channelCode="HHT"/><filterID>RMHP(4)-&gt;BW_BP(2,1,30)</filterID><phaseHint>Sg</phaseHint><evaluationMode>manual</evaluationMode><creationInfo><agencyID>SED</agencyID><author>jclinton@sc3ag</author><creationTime>2020-10-25T13:59:29.427502Z</creationTime></creationInfo></pick><pick publicID="smi:ch.ethz.sed/sc3a/Pick/20201025135929.427659.95753"><time><value>2020-10-25T13:37:33.15889Z</value><lowerUncertainty>0.1000000015</lowerUncertainty><upperUncertainty>0.1000000015</upperUncertainty></time><waveformID networkCode="8D" stationCode="RAW4" channelCode="EHZ"/><filterID>RMHP(4)-&gt;BW_BP(2,1,30)</filterID><phaseHint>Pg</phaseHint><polarity>undecidable</polarity><evaluationMode>manual</evaluationMode><creationInfo><agencyID>SED</agencyID><author>jclinton@sc3ag</author><creationTime>2020-10-25T13:59:29.427757Z</creationTime></creationInfo></pick><pick publicID="smi:ch.ethz.sed/sc3a/Pick/20201025135929.427809.95754"><time><value>2020-10-25T13:37:38.148965Z</value><lowerUncertainty>0.1000000015</lowerUncertainty><upperUncertainty>0.1000000015</upperUncertainty></time><waveformID networkCode="XY" stationCode="AGA01" channelCode="HHT"/><filterID>RMHP(4)-&gt;BW_BP(2,1,30)</filterID><phaseHint>Sg</phaseHint><evaluationMode>manual</evaluationMode><creationInfo><agencyID>SED</agencyID><author>jclinton@sc3ag</author><creationTime>2020-10-25T13:59:29.427894Z</creationTime></creationInfo></pick><pick publicID="smi:ch.ethz.sed/sc3a/Pick/20201025135929.427965.95755"><time><value>2020-10-25T13:37:33.959454Z</value><lowerUncertainty>0.05000000075</lowerUncertainty><upperUncertainty>0.05000000075</upperUncertainty></time><waveformID networkCode="GU" stationCode="CIRO" channelCode="HHZ"/><filterID>RMHP(4)-&gt;BW_BP(2,1,30)</filterID><phaseHint>Pg</phaseHint><polarity>positive</polarity><evaluationMode>manual</evaluationMode><creationInfo><agencyID>SED</agencyID><author>jclinton@sc3ag</author><creationTime>2020-10-25T13:59:29.42804Z</creationTime></creationInfo></pick><pick publicID="smi:ch.ethz.sed/sc3a/Pick/20201025135929.42808.95756"><time><value>2020-10-25T13:37:39.150531Z</value><lowerUncertainty>0.1000000015</lowerUncertainty><upperUncertainty>0.1000000015</upperUncertainty></time><waveformID networkCode="GU" stationCode="CIRO" channelCode="HHR"/><filterID>RMHP(4)-&gt;BW_BP(2,1,30)</filterID><phaseHint>Sg</phaseHint><evaluationMode>manual</evaluationMode><creationInfo><agencyID>SED</agencyID><author>jclinton@sc3ag</author><creationTime>2020-10-25T13:59:29.428162Z</creationTime></creationInfo></pick><pick publicID="smi:ch.ethz.sed/sc3a/Pick/20201025135929.428247.95757"><time><value>2020-10-25T13:37:33.846026Z</value><lowerUncertainty>0.02500000037</lowerUncertainty><upperUncertainty>0.02500000037</upperUncertainty></time><waveformID networkCode="8D" stationCode="RAW2" channelCode="HHZ"/><filterID>RMHP(4)-&gt;BW_BP(2,1,30)</filterID><phaseHint>Pg</phaseHint><polarity>negative</polarity><evaluationMode>manual</evaluationMode><creationInfo><agencyID>SED</agencyID><author>jclinton@sc3ag</author><creationTime>2020-10-25T13:59:29.428299Z</creationTime></creationInfo></pick><pick publicID="smi:ch.ethz.sed/sc3a/Pick/20201025135929.428362.95758"><time><value>2020-10-25T13:37:33.711796Z</value><lowerUncertainty>0.02500000037</lowerUncertainty><upperUncertainty>0.02500000037</upperUncertainty></time><waveformID networkCode="IV" stationCode="MRGE" channelCode="HHZ"/><filterID>RMHP(4)-&gt;BW_BP(2,1,30)</filterID><phaseHint>Pg</phaseHint><polarity>positive</polarity><evaluationMode>manual</evaluationMode><creationInfo><agencyID>SED</agencyID><author>jclinton@sc3ag</author><creationTime>2020-10-25T13:59:29.428414Z</creationTime></creationInfo></pick><pick publicID="smi:ch.ethz.sed/sc3a/Pick/20201025135929.428445.95759"><time><value>2020-10-25T13:37:38.878309Z</value><lowerUncertainty>0.1000000015</lowerUncertainty><upperUncertainty>0.1000000015</upperUncertainty></time><waveformID networkCode="CH" stationCode="SGAK" channelCode="HGT"/><filterID>RMHP(4)-&gt;BW_BP(2,1,30) -&gt; INT(0)</filterID><phaseHint>Sg</phaseHint><evaluationMode>manual</evaluationMode><creationInfo><agencyID>SED</agencyID><author>jclinton@sc3ag</author><creationTime>2020-10-25T13:59:29.428493Z</creationTime></creationInfo></pick><pick publicID="smi:ch.ethz.sed/sc3a/Pick/20201025135929.428569.95760"><time><value>2020-10-25T13:37:39.507541Z</value><lowerUncertainty>0.200000003</lowerUncertainty><upperUncertainty>0.200000003</upperUncertainty></time><waveformID networkCode="XY" stationCode="RAR01" channelCode="HHT"/><phaseHint>Sg</phaseHint><evaluationMode>manual</evaluationMode><creationInfo><agencyID>SED</agencyID><author>jclinton@sc3ag</author><creationTime>2020-10-25T13:59:29.428629Z</creationTime></creationInfo></pick><pick publicID="smi:ch.ethz.sed/sc3a/Pick/20201025135929.428665.95761"><time><value>2020-10-25T13:37:39.584844Z</value><lowerUncertainty>0.200000003</lowerUncertainty><upperUncertainty>0.200000003</upperUncertainty></time><waveformID networkCode="XY" stationCode="RAR02" channelCode="HHT"/><phaseHint>Sg</phaseHint><evaluationMode>manual</evaluationMode><creationInfo><agencyID>SED</agencyID><author>jclinton@sc3ag</author><creationTime>2020-10-25T13:59:29.428717Z</creationTime></creationInfo></pick><pick publicID="smi:ch.ethz.sed/sc3a/Pick/20201025135929.428798.95762"><time><value>2020-10-25T13:37:34.392743Z</value><lowerUncertainty>0.05000000075</lowerUncertainty><upperUncertainty>0.05000000075</upperUncertainty></time><waveformID networkCode="XY" stationCode="RAR02" channelCode="HHZ"/><filterID>RMHP(4)-&gt;BW_BP(2,1,30)</filterID><phaseHint>Pg</phaseHint><polarity>undecidable</polarity><evaluationMode>manual</evaluationMode><creationInfo><agencyID>SED</agencyID><author>jclinton@sc3ag</author><creationTime>2020-10-25T13:59:29.428851Z</creationTime></creationInfo></pick><pick publicID="smi:ch.ethz.sed/sc3a/Pick/20201025135929.428912.95763"><time><value>2020-10-25T13:37:34.163917Z</value><lowerUncertainty>0.02500000037</lowerUncertainty><upperUncertainty>0.02500000037</upperUncertainty></time><waveformID networkCode="CH" stationCode="GRYON" channelCode="HHZ"/><filterID>RMHP(4)-&gt;BW_BP(2,1,30)</filterID><phaseHint>Pg</phaseHint><polarity>negative</polarity><evaluationMode>manual</evaluationMode><creationInfo><agencyID>SED</agencyID><author>jclinton@sc3ag</author><creationTime>2020-10-25T13:59:29.429008Z</creationTime></creationInfo></pick><pick publicID="smi:ch.ethz.sed/sc3a/Pick/20201025135929.429051.95764"><time><value>2020-10-25T13:37:39.193674Z</value><lowerUncertainty>0.200000003</lowerUncertainty><upperUncertainty>0.200000003</upperUncertainty></time><waveformID networkCode="CH" stationCode="GRYON" channelCode="HHT"/><filterID>RMHP(4)-&gt;BW_BP(2,1,30)</filterID><phaseHint>Sg</phaseHint><evaluationMode>manual</evaluationMode><creationInfo><agencyID>SED</agencyID><author>jclinton@sc3ag</author><c