<?xml version="1.0" encoding="UTF-8"?>
<seiscomp xmlns="http://geofon.gfz-potsdam.de/ns/seiscomp3-schema/0.10" version="0.10">
  <EventParameters publicID="smi:org.gfz-potsdam.de/geofon/EventParameters">
    <pick publicID="smi:ch.ethz.sed/sc3a/Pick/20191105132826.578445.1900930">
      <time>
        <value>2019-11-05T04:49:51.622422Z</value>
        <lowerUncertainty>0.02500000037</lowerUncertainty>
        <upperUncertainty>0.02500000037</upperUncertainty>
      </time>
      <waveformID networkCode="8D" stationCode="RAW2" channelCode="HHZ"/>
      <filterID>RMHP(4)-&gt;BW_BP(4,1.5,30)</filterID>
      <phaseHint>Pg</phaseHint>
      <polarity>positive</polarity>
      <evaluationMode>manual</evaluationMode>
      <creationInfo>
        <agencyID>SED</agencyID>
        <author>toni@sc3ag</author>
        <creationTime>2019-11-05T13:28:26.578659Z</creationTime>
      </creationInfo>
    </pick>
    <pick publicID="smi:ch.ethz.sed/sc3a/Pick/20191105133156.442677.1901176">
      <time>
        <value>2019-11-05T04:49:52.554638Z</value>
        <lowerUncertainty>0.05000000075</lowerUncertainty>
        <upperUncertainty>0.05000000075</upperUncertainty>
      </time>
      <waveformID networkCode="8D" stationCode="RAW2" channelCode="HHT"/>
      <filterID>smi:org.gfz-potsdam.de/geofon/RMHP(4)-&gt;BW_BP(4,1.5,30)</filterID>
      <phaseHint>Sg</phaseHint>
      <evaluationMode>manual</evaluationMode>
      <creationInfo>
        <agencyID>SED</agencyID>
        <author>toni@sc3ag</author>
        <creationTime>2019-11-05T13:31:56.442865Z</creationTime>
      </creationInfo>
    </pick>
    <pick publicID="smi:ch.ethz.sed/sc3a/Pick/20191105132826.578744.1900931">
      <time>
        <value>2019-11-05T04:49:51.857705Z</value>
        <lowerUncertainty>0.1000000015</lowerUncertainty>
        <upperUncertainty>0.1000000015</upperUncertainty>
      </time>
      <waveformID networkCode="CH" stationCode="SAYF2" channelCode="HGR"/>
      <filterID>RMHP(4)-&gt;BW_BP(4,1.5,30)</filterID>
      <phaseHint>Pg</phaseHint>
      <polarity>undecidable</polarity>
      <evaluationMode>manual</evaluationMode>
      <creationInfo>
        <agencyID>SED</agencyID>
        <author>toni@sc3ag</author>
        <creationTime>2019-11-05T13:28:26.578798Z</creationTime>
      </creationInfo>
    </pick>
    <pick publicID="smi:ch.ethz.sed/sc3a/Pick/20191105133156.443135.1901178">
      <time>
        <value>2019-11-05T04:49:52.846753Z</value>
        <lowerUncertainty>0.1000000015</lowerUncertainty>
        <upperUncertainty>0.1000000015</upperUncertainty>
      </time>
      <waveformID networkCode="CH" stationCode="SAYF2" channelCode="HGT"/>
      <filterID>RMHP(4)-&gt;BW_BP(4,1.5,30)</filterID>
      <phaseHint>Sg</phaseHint>
      <evaluationMode>manual</evaluationMode>
      <creationInfo>
        <agencyID>SED</agencyID>
        <author>toni@sc3ag</author>
        <creationTime>2019-11-05T13:31:56.443182Z</creationTime>
      </creationInfo>
    </pick>
    <pick publicID="smi:ch.ethz.sed/sc3a/Pick/20191105132826.578858.1900932">
      <time>
        <value>2019-11-05T04:49:51.892611Z</value>
        <lowerUncertainty>0.02500000037</lowerUncertainty>
        <upperUncertainty>0.02500000037</upperUncertainty>
      </time>
      <waveformID networkCode="CH" stationCode="STSW2" channelCode="HGZ"/>
      <filterID>smi:org.gfz-potsdam.de/geofon/RMHP(4)-&gt;BW_BP(4,1.5,30)</filterID>
      <phaseHint>Pg</phaseHint>
      <polarity>positive</polarity>
      <evaluationMode>manual</evaluationMode>
      <creationInfo>
        <agencyID>SED</agencyID>
        <author>toni@sc3ag</author>
        <creationTime>2019-11-05T13:28:26.578911Z</creationTime>
      </creationInfo>
    </pick>
    <pick publicID="smi:ch.ethz.sed/sc3a/Pick/20191105133156.443252.1901179">
      <time>
        <value>2019-11-05T04:49:53.008405Z</value>
        <lowerUncertainty>0.05000000075</lowerUncertainty>
        <upperUncertainty>0.05000000075</upperUncertainty>
      </time>
      <waveformID networkCode="CH" stationCode="STSW2" channelCode="HGT"/>
      <filterID>smi:org.gfz-potsdam.de/geofon/RMHP(4)-&gt;BW_BP(4,1.5,30)</filterID>
      <phaseHint>Sg</phaseHint>
      <evaluationMode>manual</evaluationMode>
      <creationInfo>
        <agencyID>SED</agencyID>
        <author>toni@sc3ag</author>
        <creationTime>2019-11-05T13:31:56.443297Z</creationTime>
      </creationInfo>
    </pick>
    <pick publicID="smi:ch.ethz.sed/sc3a/Pick/20191105132826.578968.1900933">
      <time>
        <value>2019-11-05T04:49:51.918647Z</value>
        <lowerUncertainty>0.02500000037</lowerUncertainty>
        <upperUncertainty>0.02500000037</upperUncertainty>
      </time>
      <waveformID networkCode="CH" stationCode="SENIN" channelCode="HHZ"/>
      <filterID>smi:org.gfz-potsdam.de/geofon/RMHP(4)-&gt;BW_BP(4,1.5,30)</filterID>
      <phaseHint>Pg</phaseHint>
      <polarity>negative</polarity>
      <evaluationMode>manual</evaluationMode>
      <creationInfo>
        <agencyID>SED</agencyID>
        <author>toni@sc3ag</author>
        <creationTime>2019-11-05T13:28:26.579015Z</creationTime>
      </creationInfo>
    </pick>
    <pick publicID="smi:ch.ethz.sed/sc3a/Pick/20191105133156.443012.1901177">
      <time>
        <value>2019-11-05T04:49:53.119033Z</value>
        <lowerUncertainty>0.02500000037</lowerUncertainty>
        <upperUncertainty>0.02500000037</upperUncertainty>
      </time>
      <waveformID networkCode="CH" stationCode="SENIN" channelCode="HHT"/>
      <filterID>smi:org.gfz-potsdam.de/geofon/RMHP(4)-&gt;BW_BP(4,1.5,30)</filterID>
      <phaseHint>Sg</phaseHint>
      <evaluationMode>manual</evaluationMode>
      <creationInfo>
        <agencyID>SED</agencyID>
        <author>toni@sc3ag</author>
        <creationTime>2019-11-05T13:31:56.443068Z</creationTime>
      </creationInfo>
    </pick>
    <pick publicID="smi:ch.ethz.sed/sc3a/Pick/20191105132826.579071.1900934">
      <time>
        <value>2019-11-05T04:49:52.403432Z</value>
        <lowerUncertainty>0.1000000015</lowerUncertainty>
        <upperUncertainty>0.1000000015</upperUncertainty>
      </time>
      <waveformID networkCode="XY" stationCode="LEO01" channelCode="HHZ"/>
      <filterID>smi:org.gfz-potsdam.de/geofon/RMHP(4)-&gt;BW_BP(4,1.5,30)</filterID>
      <phaseHint>Pg</phaseHint>
      <polarity>undecidable</polarity>
      <evaluationMode>manual</evaluationMode>
      <creationInfo>
        <agencyID>SED</agencyID>
        <author>toni@sc3ag</author>
        <creationTime>2019-11-05T13:28:26.579119Z</creationTime>
      </creationInfo>
    </pick>
    <pick publicID="smi:ch.ethz.sed/sc3a/Pick/20191105133156.443436.1901180">
      <time>
        <value>2019-11-05T04:49:54.115904Z</value>
        <lowerUncertainty>0.05000000075</lowerUncertainty>
        <upperUncertainty>0.05000000075</upperUncertainty>
      </time>
      <waveformID networkCode="XY" stationCode="LEO01" channelCode="HHT"/>
      <filterID>smi:org.gfz-potsdam.de/geofon/RMHP(4)-&gt;BW_BP(4,1.5,30)</filterID>
      <phaseHint>Sg</phaseHint>
      <evaluationMode>manual</evaluationMode>
      <creationInfo>
        <agencyID>SED</agencyID>
        <author>toni@sc3ag</author>
        <creationTime>2019-11-05T13:31:56.443485Z</creationTime>
      </creationInfo>
    </pick>
    <pick publicID="smi:ch.ethz.sed/sc3a/Pick/20191105133156.443544.1901181">
      <time>
        <value>2019-11-05T04:49:53.767622Z</value>
        <lowerUncertainty>0.1000000015</lowerUncertainty>
        <upperUncertainty>0.1000000015</upperUncertainty>
      </time>
      <waveformID networkCode="CH" stationCode="SIOV" channelCode="HGT"/>
      <filterID>smi:org.gfz-potsdam.de/geofon/RMHP(4)-&gt;BW_BP(4,1.5,30)</filterID>
      <phaseHint>Sg</phaseHint>
      <evaluationMode>manual</evaluationMode>
      <creationInfo>
        <agencyID>SED</agencyID>
        <author>toni@sc3ag</author>
        <creationTime>2019-11-05T13:31:56.443610Z</creationTime>
      </creationInfo>
    </pick>
    <pick publicID="smi:ch.ethz.sed/sc3a/Pick/20191105133156.44365.1901182">
      <time>
        <value>2019-11-05T04:49:54.163354Z</value>
        <lowerUncertainty>0.05000000075</lowerUncertainty>
        <upperUncertainty>0.05000000075</upperUncertainty>
      </time>
      <waveformID networkCode="CH" stationCode="SCRM" channelCode="HGT"/>
      <filterID>smi:org.gfz-potsdam.de/geofon/RMHP(4)-&gt;BW_BP(4,1.5,30)</filterID>
      <phaseHint>Sg</phaseHint>
      <evaluationMode>manual</evaluationMode>
      <creationInfo>
        <agencyID>SED</agencyID>
        <author>toni@sc3ag</author>
        <creationTime>2019-11-05T13:31:56.443734Z</creationTime>
      </creationInfo>
    </pick>
    <pick publicID="smi:ch.ethz.sed/sc3a/Pick/20191105132826.57923.1900935">
      <time>
        <value>2019-11-05T04:49:52.725452Z</value>
        <lowerUncertainty>0.05000000075</lowerUncertainty>
        <upperUncertainty>0.05000000075</upperUncertainty>
      </time>
      <waveformID networkCode="8D" stationCode="RAW1" channelCode="HHZ"/>
      <filterID>smi:org.gfz-potsdam.de/geofon/RMHP(4)-&gt;BW_BP(4,1.5,30)</filterID>
      <phaseHint>Pg</phaseHint>
      <polarity>undecidable</polarity>
      <evaluationMode>manual</evaluationMode>
      <creationInfo>
        <agencyID>SED</agencyID>
        <author>toni@sc3ag</author>
        <creationTime>2019-11-05T13:28:26.579283Z</creationTime>
      </creationInfo>
    </pick>
    <pick publicID="smi:ch.ethz.sed/sc3a/Pick/20191105133156.443826.1901183">
      <time>
        <value>2019-11-05T04:49:54.586328Z</value>
        <lowerUncertainty>0.05000000075</lowerUncertainty>
        <upperUncertainty>0.05000000075</upperUncertainty>
      </time>
      <waveformID networkCode="8D" stationCode="RAW1" channelCode="HHT"/>
      <filterID>smi:org.gfz-potsdam.de/geofon/RMHP(4)-&gt;BW_BP(4,1.5,30)</filterID>
      <phaseHint>Sg</phaseHint>
      <evaluationMode>manual</evaluationMode>
      <creationInfo>
        <agencyID>SED</agencyID>
        <author>toni@sc3ag</author>
        <creationTime>2019-11-05T13:31:56.443920Z</creationTime>
      </creationInfo>
    </pick>
    <pick publicID="smi:ch.ethz.sed/sc3a/Pick/20191105132826.579318.1900936">
      <time>
        <value>2019-11-05T04:49:52.654134Z</value>
        <lowerUncertainty>0.1000000015</lowerUncertainty>
        <upperUncertainty>0.1000000015</upperUncertainty>
      </time>
      <waveformID networkCode="XY" stationCode="VET01" channelCode="HHZ"/>
      <filterID>smi:org.gfz-potsdam.de/geofon/RMHP(4)-&gt;BW_BP(4,1.5,30)</filterID>
      <phaseHint>Pg</phaseHint>
      <polarity>undecidable</polarity>
      <evaluationMode>manual</evaluationMode>
      <creationInfo>
        <agencyID>SED</agencyID>
        <author>toni@sc3ag</author>
        <creationTime>2019-11-05T13:28:26.579365Z</creationTime>
      </creationInfo>
    </pick>
    <pick publicID="smi:ch.ethz.sed/sc3a/Pick/20191105133156.443995.1901184">
      <time>
        <value>2019-11-05T04:49:54.720696Z</value>
        <lowerUncertainty>0.1000000015</lowerUncertainty>
        <upperUncertainty>0.1000000015</upperUncertainty>
      </time>
      <waveformID networkCode="XY" stationCode="VET01" channelCode="HHT"/>
      <filterID>smi:org.gfz-potsdam.de/geofon/RMHP(4)-&gt;BW_BP(4,1.5,30)</filterID>
      <phaseHint>Sg</phaseHint>
      <evaluationMode>manual</evaluationMode>
      <creationInfo>
        <agencyID>SED</agencyID>
        <author>toni@sc3ag</author>
        <creationTime>2019-11-05T13:31:56.444042Z</creationTime>
      </creationInfo>
    </pick>
    <pick publicID="smi:ch.ethz.sed/sc3a/Pick/20191105133156.44411.1901185">
      <time>
        <value>2019-11-05T04:49:55.216446Z</value>
        <lowerUncertainty>0.1000000015</lowerUncertainty>
        <upperUncertainty>0.1000000015</upperUncertainty>
      </time>
      <waveformID networkCode="CH" stationCode="SARC" channelCode="HGT"/>
      <filterID>smi:org.gfz-potsdam.de/geofon/RMHP(4)-&gt;BW_BP(4,1.5,30)</filterID>
      <phaseHint>Sg</phaseHint>
      <evaluationMode>manual</evaluationMode>
      <creationInfo>
        <agencyID>SED</agencyID>
        <author>toni@sc3ag</author>
        <creationTime>2019-11-05T13:31:56.444158Z</creationTime>
      </creationInfo>
    </pick>
    <pick publicID="smi:ch.ethz.sed/sc3a/Pick/20191105133156.444229.1901186">
      <time>
        <value>2019-11-05T04:49:55.529407Z</value>
        <lowerUncertainty>0.05000000075</lowerUncertainty>
        <upperUncertainty>0.05000000075</upperUncertainty>
      </time>
      <waveformID networkCode="CH" stationCode="SHER" channelCode="HGT"/>
      <filterID>smi:org.gfz-potsdam.de/geofon/RMHP(4)-&gt;BW_BP(4,1.5,30)</filterID>
      <phaseHint>Sg</phaseHint>
      <evaluationMode>manual</evaluationMode>
      <creationInfo>
        <agencyID>SED</agencyID>
        <author>toni@sc3ag</author>
        <creationTime>2019-11-05T13:31:56.444275Z</creationTime>
      </creationInfo>
    </pick>
    <pick publicID="smi:ch.ethz.sed/sc3a/Pick/20191105132826.579407.1900937">
      <time>
        <value>2019-11-05T04:49:53.751437Z</value>
        <lowerUncertainty>0.02500000037</lowerUncertainty>
        <upperUncertainty>0.02500000037</upperUncertainty>
      </time>
      <waveformID networkCode="8D" stationCode="RAW4" channelCode="EHZ"/>
      <filterID>smi:org.gfz-potsdam.de/geofon/RMHP(4)-&gt;BW_BP(4,1.5,30)</filterID>
      <phaseHint>Pg</phaseHint>
      <polarity>positive</polarity>
      <evaluationMode>manual</evaluationMode>
      <creationInfo>
        <agencyID>SED</agencyID>
        <author>toni@sc3ag</author>
        <creationTime>2019-11-05T13:28:26.579453Z</creationTime>
      </creationInfo>
    </pick>
    <pick publicID="smi:ch.ethz.sed/sc3a/Pick/20191105133156.444339.1901187">
      <time>
        <value>2019-11-05T04:49:56.380588Z</value>
        <lowerUncertainty>0.1000000015</lowerUncertainty>
        <upperUncertainty>0.1000000015</upperUncertainty>
      </time>
      <waveformID networkCode="8D" stationCode="RAW4" channelCode="EHT"/>
      <filterID>smi:org.gfz-potsdam.de/geofon/RMHP(4)-&gt;BW_BP(4,1.5,30)</filterID>
      <phaseHint>Sg</phaseHint>
      <evaluationMode>manual</evaluationMode>
      <creationInfo>
        <agencyID>SED</agencyID>
        <author>toni@sc3ag</author>
        <creationTime>2019-11-05T13:31:56.444383Z</creationTime>
      </creationInfo>
    </pick>
    <pick publicID="smi:ch.ethz.sed/sc3a/Pick/20191105132826.579504.1900938">
      <time>
        <value>2019-11-05T04:49:54.044583Z</value>
        <lowerUncertainty>0.05000000075</lowerUncertainty>
        <upperUncertainty>0.05000000075</upperUncertainty>
      </time>
      <waveformID networkCode="CH" stationCode="GRYON" channelCode="HHZ"/>
      <filterID>smi:org.gfz-potsdam.de/geofon/RMHP(4)-&gt;BW_BP(4,1.5,30)</filterID>
      <phaseHint>Pg</phaseHint>
      <polarity>positive</polarity>
      <evaluationMode>manual</evaluationMode>
      <creationInfo>
        <agencyID>SED</agencyID>
        <author>toni@sc3ag</author>
        <creationTime>2019-11-05T13:28:26.579550Z</creationTime>
      </creationInfo>
    </pick>
    <pick publicID="smi:ch.ethz.sed/sc3a/Pick/20191105133156.44448.1901188">
      <time>
        <value>2019-11-05T04:49:56.878182Z</value>
        <lowerUncertainty>0.05000000075</lowerUncertainty>
        <upperUncertainty>0.05000000075</upperUncertainty>
      </time>
      <waveformID networkCode="CH" stationCode="GRYON" channelCode="HHT"/>
      <filterID>smi:org.gfz-potsdam.de/geofon/RMHP(4)-&gt;BW_BP(4,1.5,30)</filterID>
      <phaseHint>Sg</phaseHint>
      <evaluationMode>manual</evaluationMode>
      <creationInfo>
        <agencyID>SED</agencyID>
        <author>toni@sc3ag</author>
        <creationTime>2019-11-05T13:31:56.444526Z</creationTime>
      </creationInfo>
    </pick>
    <pick publicID="smi:ch.ethz.sed/sc3a/Pick/20191105132826.579629.1900939">
      <time>
        <value>2019-11-05T04:49:54.584337Z</value>
        <lowerUncertainty>0.1000000015</lowerUncertainty>
        <upperUncertainty>0.1000000015</upperUncertainty>
      </time>
      <waveformID networkCode="CH" stationCode="LKBD2" channelCode="HHZ"/>
      <filterID>smi:org.gfz-potsdam.de/geofon/RMHP(4)-&gt;BW_BP(4,1.5,30)</filterID>
      <phaseHint>Pg</phaseHint>
      <polarity>undecidable</polarity>
      <evaluationMode>manual</evaluationMode>
      <creationInfo>
        <agencyID>SED</agencyID>
        <author>toni@sc3ag</author>
        <creationTime>2019-11-05T13:28:26.579676Z</creationTime>
      </creationInfo>
    </pick>
    <pick publicID="smi:ch.ethz.sed/sc3a/Pick/20191105133156.444653.1901189">
      <time>
        <value>2019-11-05T04:49:57.450655Z</value>
        <lowerUncertainty>0.05000000075</lowerUncertainty>
        <upperUncertainty>0.05000000075</upperUncertainty>
      </time>
      <waveformID networkCode="CH" stationCode="LKBD2" channelCode="HHT"/>
      <filterID>smi:org.gfz-potsdam.de/geofon/RMHP(4)-&gt;BW_BP(4,1.5,30)</filterID>
      <phaseHint>Sg</phaseHint>
      <evaluationMode>manual</evaluationMode>
      <creationInfo>
        <agencyID>SED</agencyID>
        <author>toni@sc3ag</author>
        <creationTime>2019-11-05T13:31:56.444698Z</creationTime>
      </creationInfo>
    </pick>
    <pick publicID="smi:ch.ethz.sed/sc3a/Pick/20191105132826.579733.1900940">
      <time>
        <value>2019-11-05T04:49:54.747295Z</value>
        <lowerUncertainty>0.05000000075</lowerUncertainty>
        <upperUncertainty>0.05000000075</upperUncertainty>
      </time>
      <waveformID networkCode="CH" stationCode="FULLY" channelCode="HHZ"/>
      <filterID>smi:org.gfz-potsdam.de/geofon/RMHP(4)-&gt;BW_BP(4,1.5,30)</filterID>
      <phaseHint>Pg</phaseHint>
      <polarity>undecidable</polarity>
      <evaluationMode>manual</evaluationMode>
      <creationInfo>
        <agencyID>SED</agencyID>
        <author>toni@sc3ag</author>
        <creationTime>2019-11-05T13:28:26.579779Z</creationTime>
      </creationInfo>
    </pick>
    <pick publicID="smi:ch.ethz.sed/sc3a/Pick/20191105133156.444818.1901190">
      <time>
        <value>2019-11-05T04:49:57.879496Z</value>
        <lowerUncertainty>0.05000000075</lowerUncertainty>
        <upperUncertainty>0.05000000075</upperUncertainty>
      </time>
      <waveformID networkCode="CH" stationCode="FULLY" channelCode="HHT"/>
      <filterID>smi:org.gfz-potsdam.de/geofon/RMHP(4)-&gt;BW_BP(4,1.5,30)</filterID>
      <phaseHint>Sg</phaseHint>
      <evaluationMode>manual</evaluationMode>
      <creationInfo>
        <agencyID>SED</agencyID>
        <author>toni@sc3ag</author>
        <creationTime>2019-11-05T13:31:56.444864Z</creationTime>
      </creationInfo>
    </pick>
    <pick publicID="smi:ch.ethz.sed/sc3a/Pick/20191105132826.579805.1900941">
      <time>
        <value>2019-11-05T04:49:55.278650Z</value>
        <lowerUncertainty>0.1000000015</lowerUncertainty>
        <upperUncertainty>0.1000000015</upperUncertainty>
      </time>
      <waveformID networkCode="CH" stationCode="DIX" channelCode="HHZ"/>
      <filterID>smi:org.gfz-potsdam.de/geofon/RMHP(4)-&gt;BW_BP(4,1.5,30)</filterID>
      <phaseHint>Pg</phaseHint>
      <polarity>undecidable</polarity>
      <evaluationMode>manual</evaluationMode>
      <creationInfo>
        <agencyID>SED</agencyID>
        <author>toni@sc3ag</author>
        <creationTime>2019-11-05T13:28:26.579851Z</creationTime>
      </creationInfo>
    </pick>
    <pick publicID="smi:ch.ethz.sed/sc3a/Pick/20191105133156.444934.1901191">
      <time>
        <value>2019-11-05T04:49:58.542689Z</value>
        <lowerUncertainty>0.05000000075</lowerUncertainty>
        <upperUncertainty>0.05000000075</upperUncertainty>
      </time>
      <waveformID networkCode="CH" stationCode="DIX" channelCode="HHT"/>
      <filterID>smi:org.gfz-potsdam.de/geofon/RMHP(4)-&gt;BW_BP(4,1.5,30)</filterID>
      <phaseHint>Sg</phaseHint>
      <evaluationMode>manual</evaluationMode>
      <creationInfo>
