<?xml version="1.0" encoding="UTF-8"?>
<seiscomp xmlns="http://geofon.gfz-potsdam.de/ns/seiscomp3-schema/0.12" version="0.12">
  <EventParameters>
    <pick publicID="Pick/20220827123104.025026.440">
      <creationInfo>
        <agencyID>TEST</agencyID>
        <author>scdetect@seiscomp-fedora32</author>
        <creationTime>2021-01-12T16:30:56.225889Z</creationTime>
      </creationInfo>
      <time>
        <value>2019-11-05T04:45:23.54993Z</value>
      </time>
      <waveformID networkCode="8D" stationCode="RAW2" channelCode="HH"/>
      <phaseHint>Pg</phaseHint>
      <evaluationMode>automatic</evaluationMode>
      <comment>
        <text>2019-11-05T04:23:48.595Z|2019-11-05T04:23:51.1Z|2019-11-05T04:23:49.099929Z</text>
        <id>scdetectTemplateWaveformTimeInfo</id>
      </comment>
    </pick>
    <pick publicID="Pick/20220827123104.054591.442">
      <creationInfo>
        <agencyID>TEST</agencyID>
        <author>scdetect@seiscomp-fedora32</author>
        <creationTime>2021-01-12T16:30:56.225889Z</creationTime>
      </creationInfo>
      <time>
        <value>2019-11-05T04:45:30.59493Z</value>
      </time>
      <waveformID networkCode="8D" stationCode="RAW2" channelCode="HH"/>
      <phaseHint>Pg</phaseHint>
      <evaluationMode>automatic</evaluationMode>
      <comment>
        <text>2019-11-05T04:23:48.595Z|2019-11-05T04:23:51.1Z|2019-11-05T04:23:49.099929Z</text>
        <id>scdetectTemplateWaveformTimeInfo</id>
      </comment>
    </pick>
    <origin publicID="Origin/20220827123104.024747.439">
      <time>
        <value>2019-11-05T04:45:22.090489Z</value>
      </time>
      <latitude>
        <value>46.32480762</value>
      </latitude>
      <longitude>
        <value>7.36023502</value>
      </longitude>
      <depth>
        <value>4.813476562</value>
      </depth>
      <epicenterFixed>true</epicenterFixed>
      <methodID>DETECT</methodID>
      <quality>
        <associatedPhaseCount>1</associatedPhaseCount>
        <usedPhaseCount>1</usedPhaseCount>
        <associatedStationCount>1</associatedStationCount>
        <usedStationCount>1</usedStationCount>
        <standardError>0.3242816407</standardError>
        <maximumDistance>0.03223286148</maximumDistance>
        <minimumDistance>0.03223286148</minimumDistance>
        <medianDistance>0.03223286148</medianDistance>
      </quality>
      <evaluationMode>automatic</evaluationMode>
      <creationInfo>
        <agencyID>TEST</agencyID>
        <author>scdetect-cc@seiscomp-fedora34</author>
        <creationTime>2022-08-27T12:31:04.024701Z</creationTime>
      </creationInfo>
      <comment>
        <text>detector-01</text>
        <id>scdetectDetectorId</id>
      </comment>
      <comment>
        <text>0.675718</text>
        <id>scdetectResultCCC</id>
      </comment>
      <arrival>
        <pickID>Pick/20220827123104.025026.440</pickID>
        <phase>Pg</phase>
        <weight>1.037711232</weight>
        <creationInfo>
          <agencyID>TEST</agencyID>
          <author>scdetect-cc@seiscomp-fedora34</author>
          <creationTime>2022-08-27T12:31:04.024701Z</creationTime>
        </creationInfo>
      </arrival>
    </origin>
    <origin publicID="Origin/20220827123104.054435.441">
      <time>
        <value>2019-11-05T04:45:29.135489Z</value>
      </time>
      <latitude>
        <value>46.32480762</value>
      </latitude>
      <longitude>
        <value>7.36023502</value>
      </longitude>
      <depth>
        <value>4.813476562</value>
      </depth>
      <epicenterFixed>true</epicenterFixed>
      <methodID>DETECT</methodID>
      <quality>
        <associatedPhaseCount>1</associatedPhaseCount>
        <usedPhaseCount>1</usedPhaseCount>
        <associatedStationCount>1</associatedStationCount>
        <usedStationCount>1</usedStationCount>
        <standardError>0.3126789672</standardError>
        <maximumDistance>0.03223286148</maximumDistance>
        <minimumDistance>0.03223286148</minimumDistance>
        <medianDistance>0.03223286148</medianDistance>
      </quality>
      <evaluationMode>automatic</evaluationMode>
      <creationInfo>
        <agencyID>TEST</agencyID>
        <author>scdetect-cc@seiscomp-fedora34</author>
        <creationTime>2022-08-27T12:31:04.054396Z</creationTime>
      </creationInfo>
      <comment>
        <text>detector-01</text>
        <id>scdetectDetectorId</id>
      </comment>
      <comment>
        <text>0.687321</text>
        <id>scdetectResultCCC</id>
      </comment>
      <arrival>
        <pickID>Pick/20220827123104.054591.442</pickID>
        <phase>Pg</phase>
        <weight>1.037711232</weight>
        <creationInfo>
          <agencyID>TEST</agencyID>
          <author>scdetect-cc@seiscomp-fedora34</author>
          <creationTime>2022-08-27T12:31:04.054396Z</creationTime>
        </creationInfo>
      </arrival>
    </origin>
  </EventParameters>
</seiscomp>
