<?xml version="1.0" encoding="UTF-8"?>
<seiscomp xmlns="http://geofon.gfz-potsdam.de/ns/seiscomp3-schema/0.12" version="0.12">
  <EventParameters>
    <pick publicID="Pick/20230420150113.028884.4611">
      <time>
        <value>2020-10-25T19:35:55.825642Z</value>
      </time>
      <waveformID networkCode="CH" stationCode="GRIMS" channelCode="HH"/>
      <phaseHint>Pg</phaseHint>
      <evaluationMode>automatic</evaluationMode>
      <creationInfo>
        <agencyID>TEST</agencyID>
        <author>scdetect-cc@lscarabellows</author>
        <creationTime>2023-04-20T15:01:13.028868Z</creationTime>
      </creationInfo>
      <comment>
        <text>2020-10-25T19:35:53.818393Z|2020-10-25T19:35:57.828393Z|2020-10-25T19:35:55.825641Z</text>
        <id>scdetectTemplateWaveformTimeInfo</id>
      </comment>
    </pick>
    <pick publicID="Pick/20230420150113.028898.4612">
      <time>
        <value>2020-10-25T19:36:27.933109Z</value>
        <lowerUncertainty>0.4</lowerUncertainty>
        <upperUncertainty>0.4</upperUncertainty>
      </time>
      <waveformID networkCode="GU" stationCode="PZZ" channelCode="HHZ"/>
      <phaseHint>Pn</phaseHint>
      <evaluationMode>automatic</evaluationMode>
      <creationInfo>
        <agencyID>TEST</agencyID>
        <author>scdetect-cc@lscarabellows</author>
        <creationTime>2023-04-20T15:01:13.028868Z</creationTime>
      </creationInfo>
    </pick>
    <pick publicID="Pick/20230420150113.028906.4613">
      <time>
        <value>2020-10-25T19:36:26.849029Z</value>
        <lowerUncertainty>0.4</lowerUncertainty>
        <upperUncertainty>0.4</upperUncertainty>
      </time>
      <waveformID networkCode="FR" stationCode="OG35" locationCode="00" channelCode="HHZ"/>
      <phaseHint>Pn</phaseHint>
      <evaluationMode>automatic</evaluationMode>
      <creationInfo>
        <agencyID>TEST</agencyID>
        <author>scdetect-cc@lscarabellows</author>
        <creationTime>2023-04-20T15:01:13.028868Z</creationTime>
      </creationInfo>
    </pick>
    <pick publicID="Pick/20230420150113.02891.4614">
      <time>
        <value>2020-10-25T19:36:22.290495Z</value>
        <lowerUncertainty>0.2</lowerUncertainty>
        <upperUncertainty>0.2</upperUncertainty>
      </time>
      <waveformID networkCode="OX" stationCode="CGRP" channelCode="HHZ"/>
      <phaseHint>P1</phaseHint>
      <evaluationMode>automatic</evaluationMode>
      <creationInfo>
        <agencyID>TEST</agencyID>
        <author>scdetect-cc@lscarabellows</author>
        <creationTime>2023-04-20T15:01:13.028868Z</creationTime>
      </creationInfo>
    </pick>
    <pick publicID="Pick/20230420150113.028915.4615">
      <time>
        <value>2020-10-25T19:36:22.177468Z</value>
        <lowerUncertainty>0.2</lowerUncertainty>
        <upperUncertainty>0.2</upperUncertainty>
      </time>
      <waveformID networkCode="OX" stationCode="AGOR" channelCode="HHZ"/>
      <phaseHint>Pg</phaseHint>
      <evaluationMode>automatic</evaluationMode>
      <creationInfo>
        <agencyID>TEST</agencyID>
        <author>scdetect-cc@lscarabellows</author>
        <creationTime>2023-04-20T15:01:13.028868Z</creationTime>
      </creationInfo>
    </pick>
    <pick publicID="Pick/20230420150113.028919.4616">
      <time>
        <value>2020-10-25T19:36:19.622726Z</value>
        <lowerUncertainty>0.4</lowerUncertainty>
        <upperUncertainty>0.4</upperUncertainty>
      </time>
      <waveformID networkCode="IV" stationCode="MONC" channelCode="HHZ"/>
      <phaseHint>Pg</phaseHint>
      <evaluationMode>automatic</evaluationMode>
      <creationInfo>
        <agencyID>TEST</agencyID>
        <author>scdetect-cc@lscarabellows</author>
        <creationTime>2023-04-20T15:01:13.028868Z</creationTime>
      </creationInfo>
    </pick>
    <pick publicID="Pick/20230420150113.028923.4617">
      <time>
        <value>2020-10-25T19:36:18.484977Z</value>
        <lowerUncertainty>0.2</lowerUncertainty>
        <upperUncertainty>0.2</upperUncertainty>
      </time>
      <waveformID networkCode="Z3" stationCode="A291A" channelCode="HHZ"/>
      <phaseHint>Pg</phaseHint>
      <evaluationMode>automatic</evaluationMode>
      <creationInfo>
        <agencyID>TEST</agencyID>
        <author>scdetect-cc@lscarabellows</author>
        <creationTime>2023-04-20T15:01:13.028868Z</creationTime>
      </creationInfo>
    </pick>
    <pick publicID="Pick/20230420150113.028928.4618">
      <time>
        <value>2020-10-25T19:36:15.077477Z</value>
        <lowerUncertainty>0.2</lowerUncertainty>
        <upperUncertainty>0.2</upperUncertainty>
      </time>
      <waveformID networkCode="Z3" stationCode="A124A" locationCode="00" channelCode="HHZ"/>
      <phaseHint>Pg</phaseHint>
      <evaluationMode>automatic</evaluationMode>
      <creationInfo>
        <agencyID>TEST</agencyID>
        <author>scdetect-cc@lscarabellows</author>
        <creationTime>2023-04-20T15:01:13.028868Z</creationTime>
      </creationInfo>
    </pick>
    <pick publicID="Pick/20230420150113.028932.4619">
      <time>
        <value>2020-10-25T19:36:16.57537Z</value>
        <lowerUncertainty>0.4</lowerUncertainty>
        <upperUncertainty>0.4</upperUncertainty>
      </time>
      <waveformID networkCode="OE" stationCode="WTTA" channelCode="HHZ"/>
      <phaseHint>Pg</phaseHint>
      <evaluationMode>automatic</evaluationMode>
      <creationInfo>
        <agencyID>TEST</agencyID>
        <author>scdetect-cc@lscarabellows</author>
        <creationTime>2023-04-20T15:01:13.028868Z</creationTime>
      </creationInfo>
    </pick>
    <pick publicID="Pick/20230420150113.028936.4620">
      <time>
        <value>2020-10-25T19:36:16.366055Z</value>
        <lowerUncertainty>0.2</lowerUncertainty>
        <upperUncertainty>0.2</upperUncertainty>
      </time>
      <waveformID networkCode="SI" stationCode="KOSI" channelCode="HHZ"/>
      <phaseHint>PmP</phaseHint>
      <evaluationMode>automatic</evaluationMode>
      <creationInfo>
        <agencyID>TEST</agencyID>
        <author>scdetect-cc@lscarabellows</author>
        <creationTime>2023-04-20T15:01:13.028868Z</creationTime>
      </creationInfo>
    </pick>
    <pick publicID="Pick/20230420150113.02894.4621">
      <time>
        <value>2020-10-25T19:36:13.219947Z</value>
        <lowerUncertainty>0.2</lowerUncertainty>
        <upperUncertainty>0.2</upperUncertainty>
      </time>
      <waveformID networkCode="SI" stationCode="KOSI" channelCode="HHZ"/>
      <phaseHint>Pg</phaseHint>
      <evaluationMode>automatic</evaluationMode>
      <creationInfo>
        <agencyID>TEST</agencyID>
        <author>scdetect-cc@lscarabellows</author>
        <creationTime>2023-04-20T15:01:13.028868Z</creationTime>
      </creationInfo>
    </pick>
    <pick publicID="Pick/20230420150113.028945.4622">
      <time>
        <value>2020-10-25T19:36:12.338855Z</value>
        <lowerUncertainty>0.1</lowerUncertainty>
        <upperUncertainty>0.1</upperUncertainty>
      </time>
      <waveformID networkCode="SI" stationCode="LUSI" channelCode="HHZ"/>
      <phaseHint>Pg</phaseHint>
      <evaluationMode>automatic</evaluationMode>
      <creationInfo>
        <agencyID>TEST</agencyID>
        <author>scdetect-cc@lscarabellows</author>
        <creationTime>2023-04-20T15:01:13.028868Z</creationTime>
      </creationInfo>
    </pick>
    <pick publicID="Pick/20230420150113.028949.4623">
      <time>
        <value>2020-10-25T19:36:15.163598Z</value>
        <lowerUncertainty>0.2</lowerUncertainty>
        <upperUncertainty>0.2</upperUncertainty>
      </time>
      <waveformID networkCode="SI" stationCode="ROSI" channelCode="HHZ"/>
      <phaseHint>PmP</phaseHint>
      <evaluationMode>automatic</evaluationMode>
      <creationInfo>
        <agencyID>TEST</agencyID>
        <author>scdetect-cc@lscarabellows</author>
        <creationTime>2023-04-20T15:01:13.028868Z</creationTime>
      </creationInfo>
    </pick>
    <pick publicID="Pick/20230420150113.028953.4624">
      <time>
        <value>2020-10-25T19:36:12.253322Z</value>
        <lowerUncertainty>0.1</lowerUncertainty>
        <upperUncertainty>0.1</upperUncertainty>
      </time>
      <waveformID networkCode="SI" stationCode="ROSI" channelCode="HHZ"/>
      <phaseHint>Pg</phaseHint>
      <evaluationMode>automatic</evaluationMode>
      <creationInfo>
        <agencyID>TEST</agencyID>
        <author>scdetect-cc@lscarabellows</author>
        <creationTime>2023-04-20T15:01:13.028868Z</creationTime>
      </creationInfo>
    </pick>
    <pick publicID="Pick/20230420150113.028957.4625">
      <time>
        <value>2020-10-25T19:36:12.457987Z</value>
        <lowerUncertainty>0.4</lowerUncertainty>
        <upperUncertainty>0.4</upperUncertainty>
      </time>
      <waveformID networkCode="SI" stationCode="BOSI" channelCode="HHZ"/>
      <phaseHint>Pg</phaseHint>
      <evaluationMode>automatic</evaluationMode>
      <creationInfo>
        <agencyID>TEST</agencyID>
        <author>scdetect-cc@lscarabellows</author>
        <creationTime>2023-04-20T15:01:13.028868Z</creationTime>
      </creationInfo>
    </pick>
    <pick publicID="Pick/20230420150113.028961.4626">
      <time>
        <value>2020-10-25T19:36:11.470034Z</value>
        <lowerUncertainty>0.05</lowerUncertainty>
        <upperUncertainty>0.05</upperUncertainty>
      </time>
      <waveformID networkCode="Z3" stationCode="A109A" locationCode="00" channelCode="HHZ"/>
      <phaseHint>Pg</phaseHint>
      <evaluationMode>automatic</evaluationMode>
      <creationInfo>
        <agencyID>TEST</agencyID>
        <author>scdetect-cc@lscarabellows</author>
        <creationTime>2023-04-20T15:01:13.028868Z</creationTime>
      </creationInfo>
    </pick>
    <pick publicID="Pick/20230420150113.028966.4627">
      <time>
        <value>2020-10-25T19:36:31.030073Z</value>
        <lowerUncertainty>0.4</lowerUncertainty>
        <upperUncertainty>0.4</upperUncertainty>
      </time>
      <waveformID networkCode="Z3" stationCode="A100A" locationCode="00" channelCode="HHT"/>
      <phaseHint>Sg</phaseHint>
      <evaluationMode>automatic</evaluationMode>
      <creationInfo>
        <agencyID>TEST</agencyID>
        <author>scdetect-cc@lscarabellows</author>
        <creationTime>2023-04-20T15:01:13.028868Z</creationTime>
      </creationInfo>
    </pick>
    <pick publicID="Pick/20230420150113.02897.4628">
      <time>
        <value>2020-10-25T19:36:11.465765Z</value>
        <lowerUncertainty>0.2</lowerUncertainty>
        <upperUncertainty>0.2</upperUncertainty>
      </time>
      <waveformID networkCode="Z3" stationCode="A100A" locationCode="00" channelCode="HHZ"/>
      <phaseHint>Pg</phaseHint>
      <evaluationMode>automatic</evaluationMode>
      <creationInfo>
        <agencyID>TEST</agencyID>
        <author>scdetect-cc@lscarabellows</author>
        <creationTime>2023-04-20T15:01:13.028868Z</creationTime>
      </creationInfo>
    </pick>
    <pick publicID="Pick/20230420150113.028974.4629">
      <time>
        <value>2020-10-25T19:36:30.046758Z</value>
        <lowerUncertainty>0.4</lowerUncertainty>
        <upperUncertainty>0.4</upperUncertainty>
      </time>
      <waveformID networkCode="GR" stationCode="BFO" channelCode="HHT"/>
      <phaseHint>Sg</phaseHint>
      <evaluationMode>automatic</evaluationMode>
      <creationInfo>
        <agencyID>TEST</agencyID>
        <author>scdetect-cc@lscarabellows</author>
        <creationTime>2023-04-20T15:01:13.028868Z</creationTime>
      </creationInfo>
    </pick>
    <pick publicID="Pick/20230420150113.028979.4630">
      <time>
        <value>2020-10-25T19:36:11.291564Z</value>
        <lowerUncertainty>0.1</lowerUncertainty>
        <upperUncertainty>0.1</upperUncertainty>
      </time>
      <waveformID networkCode="GR" stationCode="BFO" channelCode="HHZ"/>
      <phaseHint>Pg</phaseHint>
      <evaluationMode>automatic</evaluationMode>
      <creationInfo>
        <agencyID>TEST</agencyID>
        <author>scdetect-cc@lscarabellows</author>
        <creationTime>2023-04-20T15:01:13.028868Z</creationTime>
      </creationInfo>
    </pick>
    <pick publicID="Pick/20230420150113.028983.4631">
      <time>
        <value>2020-10-25T19:36:32.52991Z</value>
        <lowerUncertainty>0.4</lowerUncertainty>
        <upperUncertainty>0.4</upperUncertainty>
      </time>
      <waveformID networkCode="SI" stationCode="ABSI" channelCode="HHT"/>
      <phaseHint>Sg</phaseHint>
      <evaluationMode>automatic</evaluationMode>
      <creationInfo>
        <agencyID>TEST</agencyID>
        <author>scdetect-cc@lscarabellows</author>
        <creationTime>2023-04-20T15:01:13.028868Z</creationTime>
      </creationInfo>
    </pick>
    <pick publicID="Pick/20230420150113.028987.4632">
      <time>
        <value>2020-10-25T19:36:11.392495Z</value>
        <lowerUncertainty>0.1</lowerUncertainty>
        <upperUncertainty>0.1</upperUncertainty>
      </time>
      <waveformID networkCode="SI" stationCode="ABSI" channelCode="HHZ"/>
      <phaseHint>Pg</phaseHint>
      <evaluationMode>automatic</evaluationMode>
      <creationInfo>
        <agencyID>TEST</agencyID>
        <author>scdetect-cc@lscarabellows</author>
        <creationTime>2023-04-20T15:01:13.028868Z</creationTime>
      </creationInfo>
    </pick>
    <pick publicID="Pick/20230420150113.028991.4633">
      <time>
        <value>2020-10-25T19:36:09.052906Z</value>
        <lowerUncertainty>0.1</lowerUncertainty>
        <upperUncertainty>0.1</upperUncertainty>
      </time>
      <waveformID networkCode="Z3" stationCode="A104C" locationCode="00" channelCode="HHZ"/>
      <phaseHint>PmP</phaseHint>
      <evaluationMode>automatic</evaluationMode>
      <creationInfo>
        <agencyID>TEST</agencyID>
        <author>scdetect-cc@lscarabellows</author>
        <creationTime>2023-04-20T15:01:13.028868Z</creationTime>
      </creationInfo>
    </pick>
    <pick publicID="Pick/20230420150113.028996.4634">
      <time>
        <value>2020-10-25T19:36:10.165013Z</value>
        <lowerUncertainty>0.2</lowerUncertainty>
        <upperUncertainty>0.2</upperUncertainty>
      </time>
      <waveformID networkCode="8D" stationCode="RAW1" channelCode="HHZ"/>
      <phaseHint>PmP</phaseHint>
      <evaluationMode>automatic</evaluationMode>
      <creationInfo>
        <agencyID>TEST</agencyID>
        <author>scdetect-cc@lscarabellows</author>
        <creationTime>2023-04-20T15:01:13.028868Z</creationTime>
      </creationInfo>
    </pick>
    <pick publicID="Pick/20230420150113.029.4635">
      <time>
        <value>2020-10-25T19:36:08.35986Z</value>
        <lowerUncertainty>0.2</lowerUncertainty>
        <upperUncertainty>0.2</upperUncertainty>
      </time>
      <waveformID networkCode="Z3" stationCode="A102A" locationCode="00" channelCode="HHZ"/>
      <phaseHint>PmP</phaseHint>
      <evaluationMode>automatic</evaluationMode>
      <creationInfo>
        <agencyID>TEST</agencyID>
        <author>scdetect-cc@lscarabellows</author>
        <creationTime>2023-04-20T15:01:13.028868Z</creationTime>
      </creationInfo>
    </pick>
    <pick publicID="Pick/20230420150113.029004.4636">
      <time>
        <value>2020-10-25T19:36:08.831901Z</value>
        <lowerUncertainty>0.4</lowerUncertainty>
        <upperUncertainty>0.4</upperUncertainty>
      </time>
      <waveformID networkCode="CH" stationCode="EMBD" channelCode="HHZ"/>
      <phaseHint>PmP</phaseHint>
      <evaluationMode>automatic</evaluationMode>
      <creationInfo>
        <agencyID>TEST</agencyID>
        <author>scdetect-cc@lscarabellows</author>
        <creationTime>2023-04-20T15:01:13.028868Z</creationTime>
      </creationInfo>
    </pick>
    <pick publicID="Pick/20230420150113.029009.4637">
      <time>
        <value>2020-10-25T19:36:08.075265Z</value>
        <lowerUncertainty>0.4</lowerUncertainty>
        <upperUncertainty>0.4</upperUncertainty>
      </time>
      <waveformID networkCode="OE" stationCode="FETA" channelCode="HHZ"/>
      <phaseHint>PmP</phaseHint>
      <evaluationMode>automatic</evaluationMode>
      <creationInfo>
        <agencyID>TEST</agencyID>
        <author>scdetect-cc@lscarabellows</author>
        <creationTime>2023-04-20T15:01:13.028868Z</creationTime>
      </creationInfo>
    </pick>
    <pick publicID="Pick/20230420150113.029013.4638">
      <time>
        <value>2020-10-25T19:36:05.935678Z</value>
        <lowerUncertainty>0.2</lowerUncertainty>
        <upperUncertainty>0.2</upperUncertainty>
      </time>
      <waveformID networkCode="CH" stationCode="BALST" channelCode="HHZ"/>
      <phaseHint>PmP</phaseHint>
      <evaluationMode>automatic</evaluationMode>
      <creationInfo>
        <agencyID>TEST</agencyID>
        <author>scdetect-cc@lscarabellows</author>
        <creationTime>2023-04-20T15:01:13.028868Z</creationTime>
      </creationInfo>
    </pick>
    <pick publicID="Pick/20230420150113.029017.4639">
      <time>
        <value>2020-10-25T19:36:06.645478Z</value>
        <lowerUncertainty>0.2</lowerUncertainty>
        <upperUncertainty>0.2</upperUncertainty>
      </time>
      <waveformID networkCode="CH" stationCode="WIMIS" channelCode="HHZ"/>
      <phaseHint>PmP</phaseHint>
      <evaluationMode>automatic</evaluationMode>
      <creationInfo>
        <agencyID>TEST</agencyID>
        <author>scdetect-cc@lscarabellows</author>
        <creationTime>2023-04-20T15:01:13.028868Z</creationTime>
      </creationInfo>
    </pick>
    <pick publicID="Pick/20230420150113.029022.4640">
      <time>
        <value>2020-10-25T19:36:07.586554Z</value>
        <lowerUncertainty>0.2</lowerUncertainty>
        <upperUncertainty>0.2</upperUncertainty>
      </time>
      <waveformID networkCode="CH" stationCode="SVIO" channelCode="HGZ"/>
      <phaseHint>PmP</phaseHint>
      <evaluationMode>automatic</evaluationMode>
      <creationInfo>
        <agencyID>TEST</agencyID>
        <author>scdetect-cc@lscarabellows</author>
        <creationTime>2023-04-20T15:01:13.028868Z</creationTime>
      </creationInfo>
    </pick>
    <pick publicID="Pick/20230420150113.029026.4641">
      <time>
        <value>2020-10-25T19:36:07.604915Z</value>
        <lowerUncertainty>0.2</lowerUncertainty>
        <upperUncertainty>0.2</upperUncertainty>
      </time>
      <waveformID networkCode="CH" stationCode="SVIT" channelCode="HGZ"/>
      <phaseHint>PmP</phaseHint>
      <evaluationMode>automatic</evaluationMode>
      <creationInfo>
        <agencyID>TEST</agencyID>
        <author>scdetect-cc@lscarabellows</author>
        <creationTime>2023-04-20T15:01:13.028868Z</creationTime>
      </creationInfo>
    </pick>
    <pick publicID="Pick/20230420150113.02903.4642">
      <time>
        <value>2020-10-25T19:36:07.278839Z</value>
        <lowerUncertainty>0.2</lowerUncertainty>
        <upperUncertainty>0.2</upperUncertainty>
      </time>
      <waveformID networkCode="CH" stationCode="LAUCH" channelCode="HHZ"/>
      <phaseHint>PmP</phaseHint>
      <evaluationMode>automatic</evaluationMode>
      <creationInfo>
        <agencyID>TEST</agencyID>
        <author>scdetect-cc@lscarabellows</author>
        <creationTime>2023-04-20T15:01:13.028868Z</creationTime>
      </creationInfo>
    </pick>
    <pick publicID="Pick/20230420150113.029034.4643">
      <time>
        <value>2020-10-25T19:36:06.274396Z</value>
        <lowerUncertainty>0.2</lowerUncertainty>
        <upperUncertainty>0.2</upperUncertainty>
      </time>
      <waveformID networkCode="CH" stationCode="STHK" channelCode="HGZ"/>
      <phaseHint>PmP</phaseHint>
      <evaluationMode>automatic</evaluationMode>
      <creationInfo>
        <agencyID>TEST</agencyID>
        <author>scdetect-cc@lscarabellows</author>
        <creationTime>2023-04-20T15:01:13.028868Z</creationTime>
      </creationInfo>
    </pick>
    <pick publicID="Pick/20230420150113.029039.4644">
      <time>
        <value>2020-10-25T19:36:07.148818Z</value>
