<?xml version="1.0" encoding="UTF-8"?>
<seiscomp xmlns="http://geofon.gfz-potsdam.de/ns/seiscomp3-schema/0.11" version="0.11">
  <EventParameters>
    <pick publicID="Pick/20210225195347.253779.1980">
      <time>
        <value>2020-10-25T19:35:55.825641Z</value>
      </time>
      <waveformID networkCode="CH" stationCode="GRIMS" channelCode="HH"/>
      <phaseHint>Pg</phaseHint>
      <evaluationMode>automatic</evaluationMode>
    </pick>
    <pick publicID="Pick/20210225195347.253845.1981">
      <time>
        <value>2020-10-25T19:36:27.933107Z</value>
        <lowerUncertainty>0.400000006</lowerUncertainty>
        <upperUncertainty>0.400000006</upperUncertainty>
      </time>
      <waveformID networkCode="GU" stationCode="PZZ" channelCode="HHZ"/>
      <phaseHint>Pn</phaseHint>
      <evaluationMode>automatic</evaluationMode>
    </pick>
    <pick publicID="Pick/20210225195347.253868.1982">
      <time>
        <value>2020-10-25T19:36:26.849027Z</value>
        <lowerUncertainty>0.400000006</lowerUncertainty>
        <upperUncertainty>0.400000006</upperUncertainty>
      </time>
      <waveformID networkCode="FR" stationCode="OG35" locationCode="00" channelCode="HHZ"/>
      <phaseHint>Pn</phaseHint>
      <evaluationMode>automatic</evaluationMode>
    </pick>
    <pick publicID="Pick/20210225195347.253889.1983">
      <time>
        <value>2020-10-25T19:36:22.290493Z</value>
        <lowerUncertainty>0.200000003</lowerUncertainty>
        <upperUncertainty>0.200000003</upperUncertainty>
      </time>
      <waveformID networkCode="OX" stationCode="CGRP" channelCode="HHZ"/>
      <phaseHint>P1</phaseHint>
      <evaluationMode>automatic</evaluationMode>
    </pick>
    <pick publicID="Pick/20210225195347.253908.1984">
      <time>
        <value>2020-10-25T19:36:22.177466Z</value>
        <lowerUncertainty>0.200000003</lowerUncertainty>
        <upperUncertainty>0.200000003</upperUncertainty>
      </time>
      <waveformID networkCode="OX" stationCode="AGOR" channelCode="HHZ"/>
      <phaseHint>Pg</phaseHint>
      <evaluationMode>automatic</evaluationMode>
    </pick>
    <pick publicID="Pick/20210225195347.253928.1985">
      <time>
        <value>2020-10-25T19:36:19.622724Z</value>
        <lowerUncertainty>0.400000006</lowerUncertainty>
        <upperUncertainty>0.400000006</upperUncertainty>
      </time>
      <waveformID networkCode="IV" stationCode="MONC" channelCode="HHZ"/>
      <phaseHint>Pg</phaseHint>
      <evaluationMode>automatic</evaluationMode>
    </pick>
    <pick publicID="Pick/20210225195347.253947.1986">
      <time>
        <value>2020-10-25T19:36:18.484975Z</value>
        <lowerUncertainty>0.200000003</lowerUncertainty>
        <upperUncertainty>0.200000003</upperUncertainty>
      </time>
      <waveformID networkCode="Z3" stationCode="A291A" channelCode="HHZ"/>
      <phaseHint>Pg</phaseHint>
      <evaluationMode>automatic</evaluationMode>
    </pick>
    <pick publicID="Pick/20210225195347.25397.1987">
      <time>
        <value>2020-10-25T19:36:15.077475Z</value>
        <lowerUncertainty>0.200000003</lowerUncertainty>
        <upperUncertainty>0.200000003</upperUncertainty>
      </time>
      <waveformID networkCode="Z3" stationCode="A124A" locationCode="00" channelCode="HHZ"/>
      <phaseHint>Pg</phaseHint>
      <evaluationMode>automatic</evaluationMode>
    </pick>
    <pick publicID="Pick/20210225195347.254026.1988">
      <time>
        <value>2020-10-25T19:36:16.575368Z</value>
        <lowerUncertainty>0.400000006</lowerUncertainty>
        <upperUncertainty>0.400000006</upperUncertainty>
      </time>
      <waveformID networkCode="OE" stationCode="WTTA" channelCode="HHZ"/>
      <phaseHint>Pg</phaseHint>
      <evaluationMode>automatic</evaluationMode>
    </pick>
    <pick publicID="Pick/20210225195347.254045.1989">
      <time>
        <value>2020-10-25T19:36:16.366053Z</value>
        <lowerUncertainty>0.200000003</lowerUncertainty>
        <upperUncertainty>0.200000003</upperUncertainty>
      </time>
      <waveformID networkCode="SI" stationCode="KOSI" channelCode="HHZ"/>
      <phaseHint>PmP</phaseHint>
      <evaluationMode>automatic</evaluationMode>
    </pick>
    <pick publicID="Pick/20210225195347.254064.1990">
      <time>
        <value>2020-10-25T19:36:13.219945Z</value>
        <lowerUncertainty>0.200000003</lowerUncertainty>
        <upperUncertainty>0.200000003</upperUncertainty>
      </time>
      <waveformID networkCode="SI" stationCode="KOSI" channelCode="HHZ"/>
      <phaseHint>Pg</phaseHint>
      <evaluationMode>automatic</evaluationMode>
    </pick>
    <pick publicID="Pick/20210225195347.254082.1991">
      <time>
        <value>2020-10-25T19:36:12.338853Z</value>
        <lowerUncertainty>0.1000000015</lowerUncertainty>
        <upperUncertainty>0.1000000015</upperUncertainty>
      </time>
      <waveformID networkCode="SI" stationCode="LUSI" channelCode="HHZ"/>
      <phaseHint>Pg</phaseHint>
      <evaluationMode>automatic</evaluationMode>
    </pick>
    <pick publicID="Pick/20210225195347.254101.1992">
      <time>
        <value>2020-10-25T19:36:15.163596Z</value>
        <lowerUncertainty>0.200000003</lowerUncertainty>
        <upperUncertainty>0.200000003</upperUncertainty>
      </time>
      <waveformID networkCode="SI" stationCode="ROSI" channelCode="HHZ"/>
      <phaseHint>PmP</phaseHint>
      <evaluationMode>automatic</evaluationMode>
    </pick>
    <pick publicID="Pick/20210225195347.254119.1993">
      <time>
        <value>2020-10-25T19:36:12.25332Z</value>
        <lowerUncertainty>0.1000000015</lowerUncertainty>
        <upperUncertainty>0.1000000015</upperUncertainty>
      </time>
      <waveformID networkCode="SI" stationCode="ROSI" channelCode="HHZ"/>
      <phaseHint>Pg</phaseHint>
      <evaluationMode>automatic</evaluationMode>
    </pick>
    <pick publicID="Pick/20210225195347.254138.1994">
      <time>
        <value>2020-10-25T19:36:12.457985Z</value>
        <lowerUncertainty>0.400000006</lowerUncertainty>
        <upperUncertainty>0.400000006</upperUncertainty>
      </time>
      <waveformID networkCode="SI" stationCode="BOSI" channelCode="HHZ"/>
      <phaseHint>Pg</phaseHint>
      <evaluationMode>automatic</evaluationMode>
    </pick>
    <pick publicID="Pick/20210225195347.254156.1995">
      <time>
        <value>2020-10-25T19:36:11.470032Z</value>
        <lowerUncertainty>0.05000000075</lowerUncertainty>
        <upperUncertainty>0.05000000075</upperUncertainty>
      </time>
      <waveformID networkCode="Z3" stationCode="A109A" locationCode="00" channelCode="HHZ"/>
      <phaseHint>Pg</phaseHint>
      <evaluationMode>automatic</evaluationMode>
    </pick>
    <pick publicID="Pick/20210225195347.254175.1996">
      <time>
        <value>2020-10-25T19:36:31.030071Z</value>
        <lowerUncertainty>0.400000006</lowerUncertainty>
        <upperUncertainty>0.400000006</upperUncertainty>
      </time>
      <waveformID networkCode="Z3" stationCode="A100A" locationCode="00" channelCode="HHT"/>
      <phaseHint>Sg</phaseHint>
      <evaluationMode>automatic</evaluationMode>
    </pick>
    <pick publicID="Pick/20210225195347.254194.1997">
      <time>
        <value>2020-10-25T19:36:11.465763Z</value>
        <lowerUncertainty>0.200000003</lowerUncertainty>
        <upperUncertainty>0.200000003</upperUncertainty>
      </time>
      <waveformID networkCode="Z3" stationCode="A100A" locationCode="00" channelCode="HHZ"/>
      <phaseHint>Pg</phaseHint>
      <evaluationMode>automatic</evaluationMode>
    </pick>
    <pick publicID="Pick/20210225195347.254213.1998">
      <time>
        <value>2020-10-25T19:36:30.046756Z</value>
        <lowerUncertainty>0.400000006</lowerUncertainty>
        <upperUncertainty>0.400000006</upperUncertainty>
      </time>
      <waveformID networkCode="GR" stationCode="BFO" channelCode="HHT"/>
      <phaseHint>Sg</phaseHint>
      <evaluationMode>automatic</evaluationMode>
    </pick>
    <pick publicID="Pick/20210225195347.254231.1999">
      <time>
        <value>2020-10-25T19:36:11.291562Z</value>
        <lowerUncertainty>0.1000000015</lowerUncertainty>
        <upperUncertainty>0.1000000015</upperUncertainty>
      </time>
      <waveformID networkCode="GR" stationCode="BFO" channelCode="HHZ"/>
      <phaseHint>Pg</phaseHint>
      <evaluationMode>automatic</evaluationMode>
    </pick>
    <pick publicID="Pick/20210225195347.254249.2000">
      <time>
        <value>2020-10-25T19:36:32.529908Z</value>
        <lowerUncertainty>0.400000006</lowerUncertainty>
        <upperUncertainty>0.400000006</upperUncertainty>
      </time>
      <waveformID networkCode="SI" stationCode="ABSI" channelCode="HHT"/>
      <phaseHint>Sg</phaseHint>
      <evaluationMode>automatic</evaluationMode>
    </pick>
    <pick publicID="Pick/20210225195347.254267.2001">
      <time>
        <value>2020-10-25T19:36:11.392493Z</value>
        <lowerUncertainty>0.1000000015</lowerUncertainty>
        <upperUncertainty>0.1000000015</upperUncertainty>
      </time>
      <waveformID networkCode="SI" stationCode="ABSI" channelCode="HHZ"/>
      <phaseHint>Pg</phaseHint>
      <evaluationMode>automatic</evaluationMode>
    </pick>
    <pick publicID="Pick/20210225195347.254285.2002">
      <time>
        <value>2020-10-25T19:36:09.052904Z</value>
        <lowerUncertainty>0.1000000015</lowerUncertainty>
        <upperUncertainty>0.1000000015</upperUncertainty>
      </time>
      <waveformID networkCode="Z3" stationCode="A104C" locationCode="00" channelCode="HHZ"/>
      <phaseHint>PmP</phaseHint>
      <evaluationMode>automatic</evaluationMode>
    </pick>
    <pick publicID="Pick/20210225195347.254303.2003">
      <time>
        <value>2020-10-25T19:36:10.165011Z</value>
        <lowerUncertainty>0.200000003</lowerUncertainty>
        <upperUncertainty>0.200000003</upperUncertainty>
      </time>
      <waveformID networkCode="8D" stationCode="RAW1" channelCode="HHZ"/>
      <phaseHint>PmP</phaseHint>
      <evaluationMode>automatic</evaluationMode>
    </pick>
    <pick publicID="Pick/20210225195347.254321.2004">
      <time>
        <value>2020-10-25T19:36:08.359858Z</value>
        <lowerUncertainty>0.200000003</lowerUncertainty>
        <upperUncertainty>0.200000003</upperUncertainty>
      </time>
      <waveformID networkCode="Z3" stationCode="A102A" locationCode="00" channelCode="HHZ"/>
      <phaseHint>PmP</phaseHint>
      <evaluationMode>automatic</evaluationMode>
    </pick>
    <pick publicID="Pick/20210225195347.254339.2005">
      <time>
        <value>2020-10-25T19:36:08.831899Z</value>
        <lowerUncertainty>0.400000006</lowerUncertainty>
        <upperUncertainty>0.400000006</upperUncertainty>
      </time>
      <waveformID networkCode="CH" stationCode="EMBD" channelCode="HHZ"/>
      <phaseHint>PmP</phaseHint>
      <evaluationMode>automatic</evaluationMode>
    </pick>
    <pick publicID="Pick/20210225195347.254357.2006">
      <time>
        <value>2020-10-25T19:36:08.075263Z</value>
        <lowerUncertainty>0.400000006</lowerUncertainty>
        <upperUncertainty>0.400000006</upperUncertainty>
      </time>
      <waveformID networkCode="OE" stationCode="FETA" channelCode="HHZ"/>
      <phaseHint>PmP</phaseHint>
      <evaluationMode>automatic</evaluationMode>
    </pick>
    <pick publicID="Pick/20210225195347.254375.2007">
      <time>
        <value>2020-10-25T19:36:05.935676Z</value>
        <lowerUncertainty>0.200000003</lowerUncertainty>
        <upperUncertainty>0.200000003</upperUncertainty>
      </time>
      <waveformID networkCode="CH" stationCode="BALST" channelCode="HHZ"/>
      <phaseHint>PmP</phaseHint>
      <evaluationMode>automatic</evaluationMode>
    </pick>
    <pick publicID="Pick/20210225195347.254393.2008">
      <time>
        <value>2020-10-25T19:36:06.645476Z</value>
        <lowerUncertainty>0.200000003</lowerUncertainty>
        <upperUncertainty>0.200000003</upperUncertainty>
      </time>
      <waveformID networkCode="CH" stationCode="WIMIS" channelCode="HHZ"/>
      <phaseHint>PmP</phaseHint>
      <evaluationMode>automatic</evaluationMode>
    </pick>
    <pick publicID="Pick/20210225195347.254411.2009">
      <time>
        <value>2020-10-25T19:36:07.586552Z</value>
        <lowerUncertainty>0.200000003</lowerUncertainty>
        <upperUncertainty>0.200000003</upperUncertainty>
      </time>
      <waveformID networkCode="CH" stationCode="SVIO" channelCode="HGZ"/>
      <phaseHint>PmP</phaseHint>
      <evaluationMode>automatic</evaluationMode>
    </pick>
    <pick publicID="Pick/20210225195347.254429.2010">
      <time>
        <value>2020-10-25T19:36:07.604913Z</value>
        <lowerUncertainty>0.200000003</lowerUncertainty>
        <upperUncertainty>0.200000003</upperUncertainty>
      </time>
      <waveformID networkCode="CH" stationCode="SVIT" channelCode="HGZ"/>
      <phaseHint>PmP</phaseHint>
      <evaluationMode>automatic</evaluationMode>
    </pick>
    <pick publicID="Pick/20210225195347.254448.2011">
      <time>
        <value>2020-10-25T19:36:07.278837Z</value>
        <lowerUncertainty>0.200000003</lowerUncertainty>
        <upperUncertainty>0.200000003</upperUncertainty>
      </time>
      <waveformID networkCode="CH" stationCode="LAUCH" channelCode="HHZ"/>
      <phaseHint>PmP</phaseHint>
      <evaluationMode>automatic</evaluationMode>
    </pick>
    <pick publicID="Pick/20210225195347.254466.2012">
      <time>
        <value>2020-10-25T19:36:06.274394Z</value>
        <lowerUncertainty>0.200000003</lowerUncertainty>
        <upperUncertainty>0.200000003</upperUncertainty>
      </time>
      <waveformID networkCode="CH" stationCode="STHK" channelCode="HGZ"/>
      <phaseHint>PmP</phaseHint>
      <evaluationMode>automatic</evaluationMode>
    </pick>
    <pick publicID="Pick/20210225195347.254486.2013">
      <time>
        <value>2020-10-25T19:36:07.148816Z</value>
        <lowerUncertainty>0.400000006</lowerUncertainty>
        <upperUncertainty>0.400000006</upperUncertainty>
      </time>
      <waveformID networkCode="CH" stationCode="BIBA" channelCode="HGZ"/>
      <phaseHint>PmP</phaseHint>
      <evaluationMode>automatic</evaluationMode>
    </pick>
    <pick publicID="Pick/20210225195347.254504.2014">
      <time>
        <value>2020-10-25T19:36:04.408744Z</value>
        <lowerUncertainty>0.200000003</lowerUncertainty>
        <upperUncertainty>0.200000003</upperUncertainty>
      </time>
      <waveformID networkCode="CH" stationCode="METMA" channelCode="HHZ"/>
      <phaseHint>PmP</phaseHint>
      <evaluationMode>automatic</evaluationMode>
    </pick>
    <pick publicID="Pick/20210225195347.254522.2015">
      <time>
        <value>2020-10-25T19:36:18.824976Z</value>
        <lowerUncertainty>0.400000006</lowerUncertainty>
        <upperUncertainty>0.400000006</upperUncertainty>
      </time>
      <waveformID networkCode="CH" stationCode="METMA" channelCode="HHT"/>
      <phaseHint>SmS</phaseHint>
      <evaluationMode>automatic</evaluationMode>
    </pick>
    <pick publicID="Pick/20210225195347.25454.2016">
      <time>
        <value>2020-10-25T19:36:04.771327Z</value>
        <lowerUncertainty>0.400000006</lowerUncertainty>
        <upperUncertainty>0.400000006</upperUncertainty>
      </time>
      <waveformID networkCode="CH" stationCode="ROTHE" channelCode="HHZ"/>
      <phaseHint>PmP</phaseHint>
      <evaluationMode>automatic</evaluationMode>
    </pick>
    <pick publicID="Pick/20210225195347.254558.2017">
      <time>
        <value>2020-10-25T19:36:17.802639Z</value>
        <lowerUncertainty>0.400000006</lowerUncertainty>
        <upperUncertainty>0.400000006</upperUncertainty>
      </time>
      <waveformID networkCode="CH" stationCode="SLE" channelCode="HHT"/>
      <phaseHint>SmS</phaseHint>
      <evaluationMode>automatic</evaluationMode>
    </pick>
    <pick publicID="Pick/20210225195347.254577.2018">
      <time>
        <value>2020-10-25T19:36:04.083932Z</value>
        <lowerUncertainty>0.200000003</lowerUncertainty>
        <upperUncertainty>0.200000003</upperUncertainty>
      </time>
      <waveformID networkCode="CH" stationCode="SLE" channelCode="HHZ"/>
      <phaseHint>PmP</phaseHint>
      <evaluationMode>automatic</evaluationMode>
    </pick>
    <pick publicID="Pick/20210225195347.254595.2019">
      <time>
        <value>2020-10-25T19:36:18.595809Z</value>
        <lowerUncertainty>0.400000006</lowerUncertainty>
        <upperUncertainty>0.400000006</upperUncertainty>
      </time>
      <waveformID networkCode="Z3" stationCode="A103D" locationCode="00" channelCode="HHT"/>
      <phaseHint>SmS</phaseHint>
      <evaluationMode>automatic</evaluationMode>
    </pick>
    <pick publicID="Pick/20210225195347.254613.2020">
      <time>
        <value>2020-10-25T19:36:03.988129Z</value>
        <lowerUncertainty>0.400000006</lowerUncertainty>
        <upperUncertainty>0.400000006</upperUncertainty>
      </time>
      <waveformID networkCode="Z3" stationCode="A103D" locationCode="00" channelCode="HHZ"/>
      <phaseHint>PmP</phaseHint>
      <evaluationMode>automatic</evaluationMode>
    </pick>
    <pick publicID="Pick/20210225195347.254631.2021">
      <time>
        <value>2020-10-25T19:36:04.731195Z</value>
        <lowerUncertainty>0.200000003</lowerUncertainty>
        <upperUncertainty>0.200000003</upperUncertainty>
      </time>
      <waveformID networkCode="Z3" stationCode="A105A" locationCode="00" channelCode="HHZ"/>
      <phaseHint>PmP</phaseHint>
      <evaluationMode>automatic</evaluationMode>
    </pick>
    <pick publicID="Pick/20210225195347.254649.2022">
      <time>
        <value>2020-10-25T19:36:17.473396Z</value>
        <lowerUncertainty>0.400000006</lowerUncertainty>
        <upperUncertainty>0.400000006</upperUncertainty>
      </time>
      <waveformID networkCode="CH" stationCode="SULZ" channelCode="HHT"/>
      <phaseHint>SmS</phaseHint>
      <evaluationMode>automatic</evaluationMode>
    </pick>
    <pick publicID="Pick/20210225195347.254667.2023">
      <time>
        <value>2020-10-25T19:36:17.010034Z</value>
        <lowerUncertainty>0.400000006</lowerUncertainty>
        <upperUncertainty>0.400000006</upperUncertainty>
      </time>
      <waveformID networkCode="8D" stationCode="NNFT" channelCode="HHT"/>
      <phaseHint>SmS</phaseHint>
      <evaluationMode>automatic</evaluationMode>
    </pick>
    <pick publicID="Pick/20210225195347.254685.2024">
      <time>
        <value>2020-10-25T19:36:17.498824Z</value>
        <lowerUncertainty>0.400000006</lowerUncertainty>
        <upperUncertainty>0.400000006</upperUncertainty>
      </time>
      <waveformID networkCode="CH" stationCode="EMMET" channelCode="HHT"/>
      <phaseHint>SmS</phaseHint>
      <evaluationMode>automatic</evaluationMode>
    </pick>
    <pick publicID="Pick/20210225195347.254702.2025">
      <time>
        <value>2020-10-25T19:36:04.366156Z</value>
        <lowerUncertainty>0.400000006</lowerUncertainty>
        <upperUncertainty>0.400000006</upperUncertainty>
      </time>
      <waveformID networkCode="CH" stationCode="SINS" channelCode="HGZ"/>
      <phaseHint>PmP</phaseHint>
      <evaluationMode>automatic</evaluationMode>
    </pick>
    <pick publicID="Pick/20210225195347.254721.2026">
      <time>
        <value>2020-10-25T19:36:16.468884Z</value>
        <lowerUncertainty>0.400000006</lowerUncertainty>
        <upperUncertainty>0.400000006</upperUncertainty>
      </time>
      <waveformID networkCode="8D" stationCode="NDBB1" channelCode="HHT"/>
      <phaseHint>SmS</phaseHint>
      <evaluationMode>automatic</evaluationMode>
    </pick>
    <pick publicID="Pick/20210225195347.254739.2027">
      <time>
        <value>2020-10-25T19:36:16.452278Z</value>
        <lowerUncertainty>0.400000006</lowerUncertainty>
        <upperUncertainty>0.400000006</upperUncertainty>
      </time>
      <waveformID networkCode="CH" stationCode="SAARA" channelCode="HGT"/>
