<?xml version="1.0" encoding="UTF-8"?>
<seiscomp xmlns="http://geofon.gfz-potsdam.de/ns/seiscomp3-schema/0.11" version="0.11"><EventParameters><pick publicID="smi:ch.ethz.sed/sc3a/Pick/NLoT_apick/20191105042349.090388.63067"><time><value>2019-11-05T04:23:47.51Z</value></time><waveformID networkCode="CH" stationCode="SENIN" channelCode="HHZ"/><filterID>RMHP(10)&gt;&gt;BW_BP(4,5,20)&gt;&gt;STALTA(1.0,30)</filterID><methodID>Trigger</methodID><phaseHint>P</phaseHint><evaluationMode>automatic</evaluationMode><creationInfo><agencyID>SED</agencyID><author>NLoT_apick@sc3a</author><creationTime>2019-11-05T04:23:49.08937Z</creationTime></creationInfo></pick><pick publicID="smi:ch.ethz.sed/sc3a/Pick/NLoT_apick/20191105042350.223781.63070"><time><value>2019-11-05T04:23:49.48Z</value></time><waveformID networkCode="CH" stationCode="STSW2" channelCode="HGZ"/><filterID>RMHP(10)&gt;&gt;BW_BP(4,5,20)&gt;&gt;STALTA(1.0,30)</filterID><methodID>Trigger</methodID><phaseHint>P</phaseHint><evaluationMode>automatic</evaluationMode><creationInfo><agencyID>SED</agencyID><author>NLoT_apick@sc3a</author><creationTime>2019-11-05T04:23:50.223759Z</creationTime></creationInfo></pick><pick publicID="smi:ch.ethz.sed/sc3a/Pick/NLoT_apick/20191105042350.906948.63073"><time><value>2019-11-05T04:23:50.272Z</value></time><waveformID networkCode="CH" stationCode="SAYF2" channelCode="HGZ"/><filterID>RMHP(10)&gt;&gt;BW_BP(4,5,20)&gt;&gt;STALTA(1.0,30)</filterID><methodID>Trigger</methodID><phaseHint>P</phaseHint><evaluationMode>automatic</evaluationMode><creationInfo><agencyID>SED</agencyID><author>NLoT_apick@sc3a</author><creationTime>2019-11-05T04:23:50.906925Z</creationTime></creationInfo></pick><pick publicID="smi:ch.ethz.sed/sc3a/Pick/NLoT_apick/20191105042350.595831.63072"><time><value>2019-11-05T04:23:49.365Z</value></time><waveformID networkCode="8D" stationCode="RAW1" channelCode="HHZ"/><filterID>RMHP(10)&gt;&gt;BW_BP(4,5,20)&gt;&gt;STALTA(1.0,30)</filterID><methodID>Trigger</methodID><phaseHint>P</phaseHint><evaluationMode>automatic</evaluationMode><creationInfo><agencyID>SED</agencyID><author>NLoT_apick@sc3a</author><creationTime>2019-11-05T04:23:50.59581Z</creationTime></creationInfo></pick><pick publicID="smi:ch.ethz.sed/sc3a/Pick/NLoT_apick/20191105042351.135163.63074"><time><value>2019-11-05T04:23:50.308Z</value></time><waveformID networkCode="CH" stationCode="SCRM" channelCode="HGZ"/><filterID>RMHP(10)&gt;&gt;BW_BP(4,5,20)&gt;&gt;STALTA(1.0,30)</filterID><methodID>Trigger</methodID><phaseHint>P</phaseHint><evaluationMode>automatic</evaluationMode><creationInfo><agencyID>SED</agencyID><author>NLoT_apick@sc3a</author><creationTime>2019-11-05T04:23:51.135106Z</creationTime></creationInfo></pick><pick publicID="smi:ch.ethz.sed/sc3a/Pick/NLoT_apick/20191105042355.991222.63089"><time><value>2019-11-05T04:23:50.828Z</value></time><waveformID networkCode="CH" stationCode="SIOV" channelCode="HGZ"/><filterID>RMHP(10)&gt;&gt;BW_BP(4,5,20)&gt;&gt;STALTA(1.0,30)</filterID><methodID>Trigger</methodID><phaseHint>P</phaseHint><evaluationMode>automatic</evaluationMode><creationInfo><agencyID>SED</agencyID><author>NLoT_apick@sc3a</author><creationTime>2019-11-05T04:23:55.991203Z</creationTime></creationInfo></pick><pick publicID="smi:ch.ethz.sed/sc3a/Pick/NLoT_apick/20191105042352.657307.63076"><time><value>2019-11-05T04:23:51.395Z</value></time><waveformID networkCode="8D" stationCode="RAW4" channelCode="EHZ"/><filterID>RMHP(10)&gt;&gt;BW_BP(4,5,20)&gt;&gt;STALTA(1.0,30)</filterID><methodID>Trigger</methodID><phaseHint>P</phaseHint><evaluationMode>automatic</evaluationMode><creationInfo><agencyID>SED</agencyID><author>NLoT_apick@sc3a</author><creationTime>2019-11-05T04:23:52.657256Z</creationTime></creationInfo></pick><pick publicID="smi:ch.ethz.sed/sc3a/Pick/NLoT_apick/20191105042353.547808.63079"><time><value>2019-11-05T04:23:51.59Z</value></time><waveformID networkCode="CH" stationCode="GRYON" channelCode="HHZ"/><filterID>RMHP(10)&gt;&gt;BW_BP(4,5,20)&gt;&gt;STALTA(1.0,30)</filterID><methodID>Trigger</methodID><phaseHint>P</phaseHint><evaluationMode>automatic</evaluationMode><creationInfo><agencyID>SED</agencyID><author>NLoT_apick@sc3a</author><creationTime>2019-11-05T04:23:53.54777Z</creationTime></creationInfo></pick><pick publicID="smi:ch.ethz.sed/sc3a/Pick/NLoT_apick/20191105042352.75525.63077"><time><value>2019-11-05T04:23:52.17Z</value></time><waveformID networkCode="CH" stationCode="LKBD2" channelCode="HHZ"/><filterID>RMHP(10)&gt;&gt;BW_BP(4,5,20)&gt;&gt;STALTA(1.0,30)</filterID><methodID>Trigger</methodID><phaseHint>P</phaseHint><evaluationMode>automatic</evaluationMode><creationInfo><agencyID>SED</agencyID><author>NLoT_apick@sc3a</author><creationTime>2019-11-05T04:23:52.755229Z</creationTime></creationInfo></pick><pick publicID="smi:ch.ethz.sed/sc3a/Pick/NLoT_apick/20191105042358.6252.63096"><time><value>2019-11-05T04:23:52.61Z</value></time><waveformID networkCode="CH" stationCode="FULLY" channelCode="HHZ"/><filterID>RMHP(10)&gt;&gt;BW_BP(4,5,20)&gt;&gt;STALTA(1.0,30)</filterID><methodID>Trigger</methodID><phaseHint>P</phaseHint><evaluationMode>automatic</evaluationMode><creationInfo><agencyID>SED</agencyID><author>NLoT_apick@sc3a</author><creationTime>2019-11-05T04:23:58.625178Z</creationTime></creationInfo></pick><pick publicID="smi:ch.ethz.sed/sc3a/Pick/NLoT_apick/20191105042355.030415.63086"><time><value>2019-11-05T04:23:53.485Z</value></time><waveformID networkCode="CH" stationCode="LAVEY" locationCode="BT" channelCode="EHZ"/><filterID>RMHP(10)&gt;&gt;BW_BP(4,5,20)&gt;&gt;STALTA(1.0,30)</filterID><methodID>Trigger</methodID><phaseHint>P</phaseHint><evaluationMode>automatic</evaluationMode><creationInfo><agencyID>SED</agencyID><author>NLoT_apick@sc3a</author><creationTime>2019-11-05T04:23:55.030382Z</creationTime></creationInfo></pick><pick publicID="smi:ch.ethz.sed/sc3a/Pick/NLoT_apick/20191105042354.077353.63082"><time><value>2019-11-05T04:23:52.965Z</value></time><waveformID networkCode="CH" stationCode="DIX" channelCode="HHZ"/><filterID>RMHP(10)&gt;&gt;BW_BP(4,5,20)&gt;&gt;STALTA(1.0,30)</filterID><methodID>Trigger</methodID><phaseHint>P</phaseHint><evaluationMode>automatic</evaluationMode><creationInfo><agencyID>SED</agencyID><author>NLoT_apick@sc3a</author><creationTime>2019-11-05T04:23:54.07733Z</creationTime></creationInfo></pick><pick publicID="smi:ch.ethz.sed/sc3a/Pick/NLoT_apick/20191105042356.562004.63092"><time><value>2019-11-05T04:23:54.72Z</value></time><waveformID networkCode="CH" stationCode="JAUN" channelCode="HHZ"/><filterID>RMHP(10)&gt;&gt;BW_BP(4,5,20)&gt;&gt;STALTA(1.0,30)</filterID><methodID>Trigger</methodID><phaseHint>P</phaseHint><evaluationMode>automatic</evaluationMode><creationInfo><agencyID>SED</agencyID><author>NLoT_apick@sc3a</author><creationTime>2019-11-05T04:23:56.561983Z</creationTime></creationInfo></pick><pick publicID="smi:ch.ethz.sed/sc3a/Pick/NLoT_apick/20191105042356.100302.63091"><time><value>2019-11-05T04:23:54.27Z</value></time><waveformID networkCode="CH" stationCode="SALAN" channelCode="HHZ"/><filterID>RMHP(10)&gt;&gt;BW_BP(4,5,20)&gt;&gt;STALTA(1.0,30)</filterID><methodID>Trigger</methodID><phaseHint>P</phaseHint><evaluationMode>automatic</evaluationMode><creationInfo><agencyID>SED</agencyID><author>NLoT_apick@sc3a</author><creationTime>2019-11-05T04:23:56.100264Z</creationTime></creationInfo></pick><pick publicID="smi:ch.ethz.sed/sc3a/Pick/NLoB_apick/20191105042355.660006.62749"><time><value>2019-11-05T04:23:46.096Z</value></time><waveformID networkCode="CH" stationCode="SAYF2" channelCode="HGZ"/><filterID>BW(2,5,20)</filterID><methodID>BK</methodID><phaseHint>P</phaseHint><evaluationMode>automatic</evaluationMode><creationInfo><agencyID>SED</agencyID><author>NLoB_apick@sc3a</author><creationTime>2019-11-05T04:23:55.660261Z</creationTime></creationInfo></pick><pick publicID="smi:ch.ethz.sed/sc3a/Pick/NLoB_apick/20191105042355.920969.62753"><time><value>2019-11-05T04:23:47.324Z</value></time><waveformID networkCode="CH" stationCode="STSW2" channelCode="HGZ"/><filterID>BW(2,5,20)</filterID><methodID>BK</methodID><phaseHint>P</phaseHint><evaluationMode>automatic</evaluationMode><creationInfo><agencyID>SED</agencyID><author>NLoB_apick@sc3a</author><creationTime>2019-11-05T04:23:55.920996Z</creationTime></creationInfo></pick><pick publicID="smi:ch.ethz.sed/sc3a/Pick/NLoB_apick/20191105042358.133488.62756"><time><value>2019-11-05T04:23:47.348Z</value></time><waveformID networkCode="CH" stationCode="SIOV" channelCode="HGZ"/><filterID>BW(2,5,20)</filterID><methodID>BK</methodID><phaseHint>P</phaseHint><evaluationMode>automatic</evaluationMode><creationInfo><agencyID>SED</agencyID><author>NLoB_apick@sc3a</author><creationTime>2019-11-05T04:23:58.133644Z</creationTime></creationInfo></pick><pick publicID="smi:ch.ethz.sed/sc3a/Pick/NLoB_apick/20191105042355.770142.62751"><time><value>2019-11-05T04:23:49.868Z</value></time><waveformID networkCode="CH" stationCode="SCRM" channelCode="HGZ"/><filterID>BW(2,5,20)</filterID><methodID>BK</methodID><phaseHint>P</phaseHint><evaluationMode>automatic</evaluationMode><creationInfo><agencyID>SED</agencyID><author>NLoB_apick@sc3a</author><creationTime>2019-11-05T04:23:55.770172Z</creationTime></creationInfo></pick><pick publicID="smi:ch.ethz.sed/sc3a/Pick/NLoB_apick/20191105042354.081563.62745"><time><value>2019-11-05T04:23:47.48Z</value></time><waveformID networkCode="CH" stationCode="SENIN" channelCode="HHZ"/><filterID>BW(2,5,20)</filterID><methodID>BK</methodID><phaseHint>P</phaseHint><evaluationMode>automatic</evaluationMode><creationInfo><agencyID>SED</agencyID><author>NLoB_apick@sc3a</author><creationTime>2019-11-05T04:23:54.081589Z</creationTime></creationInfo></pick><pick publicID="smi:ch.ethz.sed/sc3a/Pick/NLoB_apick/20191105042354.840301.62747"><time><value>2019-11-05T04:23:50.25Z</value></time><waveformID networkCode="8D" stationCode="RAW1" channelCode="HHZ"/><filterID>BW(2,5,20)</filterID><methodID>BK</methodID><phaseHint>P</phaseHint><evaluationMode>automatic</evaluationMode><creationInfo><agencyID>SED</agencyID><author>NLoB_apick@sc3a</author><creationTime>2019-11-05T04:23:54.840332Z</creationTime></creationInfo></pick><pick publicID="smi:ch.ethz.sed/sc3a/Pick/NLoB_apick/20191105042358.681488.62760"><time><value>2019-11-05T04:23:51.26Z</value></time><waveformID networkCode="8D" stationCode="RAW4" channelCode="EHZ"/><filterID>BW(2,5,20)</filterID><methodID>BK</methodID><phaseHint>P</phaseHint><evaluationMode>automatic</evaluationMode><creationInfo><agencyID>SED</agencyID><author>NLoB_apick@sc3a</author><creationTime>2019-11-05T04:23:58.681517Z</creationTime></creationInfo></pick><pick publicID="smi:ch.ethz.sed/sc3a/Pick/NLoB_apick/20191105042358.877053.62762"><time><value>2019-11-05T04:23:51.825Z</value></time><waveformID networkCode="CH" stationCode="LKBD2" channelCode="HHZ"/><filterID>BW(2,5,20)</filterID><methodID>BK</methodID><phaseHint>P</phaseHint><evaluationMode>automatic</evaluationMode><creationInfo><agencyID>SED</agencyID><author>NLoB_apick@sc3a</author><creationTime>2019-11-05T04:23:58.877097Z</creationTime></creationInfo></pick><pick publicID="smi:ch.ethz.sed/sc3a/Pick/NLoB_apick/20191105042358.639553.62758"><time><value>2019-11-05T04:23:51.29Z</value></time><waveformID networkCode="CH" stationCode="GRYON" channelCode="HHZ"/><filterID>BW(2,5,20)</filterID><methodID>BK</methodID><phaseHint>P</phaseHint><evaluationMode>automatic</evaluationMode><creationInfo><agencyID>SED</agencyID><author>NLoB_apick@sc3a</author><creationTime>2019-11-05T04:23:58.639583Z</creationTime></creationInfo></pick><pick publicID="smi:ch.ethz.sed/sc3a/Pick/NLoB_apick/20191105042359.044377.62764"><time><value>2019-11-05T04:23:52.95Z</value></time><waveformID networkCode="CH" stationCode="LAVEY" locationCode="BT" channelCode="EHZ"/><filterID>BW(2,5,20)</filterID><methodID>BK</methodID><phaseHint>P</phaseHint><evaluationMode>automatic</evaluationMode><creationInfo><agencyID>SED</agencyID><author>NLoB_apick@sc3a</author><creationTime>2019-11-05T04:23:59.044443Z</creationTime></creationInfo></pick><pick publicID="smi:ch.ethz.sed/sc3a/Pick/NLoB_apick/20191105042400.831328.62770"><time><value>2019-11-05T04:23:52.31Z</value></time><waveformID networkCode="CH" stationCode="FULLY" channelCode="HHZ"/><filterID>BW(2,5,20)</filterID><methodID>BK</methodID><phaseHint>P</phaseHint><evaluationMode>automatic</evaluationMode><creationInfo><agencyID>SED</agencyID><author>NLoB_apick@sc3a</author><creationTime>2019-11-05T04:24:00.831365Z</creationTime></creationInfo></pick><pick publicID="smi:ch.ethz.sed/sc3a/Pick/NLoB_apick/20191105042359.061477.62766"><time><value>2019-11-05T04:23:52.765Z</value></time><waveformID networkCode="CH" stationCode="DIX" channelCode="HHZ"/><filterID>BW(2,5,20)</filterID><methodID>BK</methodID><phaseHint>P</phaseHint><evaluationMode>automatic</evaluationMode><creationInfo><agencyID>SED</agencyID><author>NLoB_apick@sc3a</author><creationTime>2019-11-05T04:23:59.061575Z</creationTime></creationInfo></pick><pick publicID="smi:ch.ethz.sed/sc3a/Pick/NLoB_apick/20191105042404.945215.62778"><time><value>2019-11-05T04:23:53.775Z</value></time><waveformID networkCode="CH" stationCode="LAUCH" channelCode="HHZ"/><filterID>BW(2,5,20)</filterID><methodID>BK</methodID><phaseHint>P</phaseHint><evaluationMode>automatic</evaluationMode><creationInfo><agencyID>SED</agencyID><author>NLoB_apick@sc3a</author><creationTime>2019-11-05T04:24:04.945295Z</creationTime></creationInfo></pick><pick publicID="smi:ch.ethz.sed/sc3a/Pick/NLoB_apick/20191105042404.880868.62776"><time><value>2019-11-05T04:23:53.335Z</value></time><waveformID networkCode="CH" stationCode="AIGLE" channelCode="HHZ"/><filterID>BW(2,5,20)</filterID><methodID>BK</methodID><phaseHint>P</phaseHint><evaluationMode>automatic</evaluationMode><creationInfo><agencyID>SED</agencyID><author>NLoB_apick@sc3a</author><creationTime>2019-11-05T04:24:04.880936Z</creationTime></creationInfo></pick><pick publicID="smi:ch.ethz.sed/sc3a/Pick/NLoB_apick/20191105042404.797357.62774"><time><value>2019-11-05T04:23:53.91Z</value></time><waveformID networkCode="CH" stationCode="ILLEZ" channelCode="HHZ"/><filterID>BW(2,5,20)</filterID><methodID>BK</methodID><phaseHint>P</phaseHint><evaluationMode>automatic</evaluationMode><creationInfo><agencyID>SED</agencyID><author>NLoB_apick@sc3a</author><creationTime>2019-11-05T04:24:04.797602Z</creationTime></creationInfo></pick><pick publicID="smi:ch.ethz.sed/sc3a/Pick/NLoB_apick/20191105042402.072673.62772"><time><value>2019-11-05T04:23:54.08Z</value></time><waveformID networkCode="CH" stationCode="SALAN" channelCode="HHZ"/><filterID>BW(2,5,20)</filterID><methodID>BK</methodID><phaseHint>P</phaseHint><evaluationMode>automatic</evaluationMode><creationInfo><agencyID>SED</agencyID><author>NLoB_apick@sc3a</author><creationTime>2019-11-05T04:24:02.072708Z</creationTime></creationInfo></pick><pick publicID="smi:ch.ethz.sed/sc3a/Pick/NLoB_apick/20191105042400.68953.62768"><time><value>2019-11-05T04:23:54.275Z</value></time><waveformID networkCode="CH" stationCode="JAUN" channelCode="HHZ"/><filterID>BW(2,5,20)</filterID><methodID>BK</methodID><phaseHint>P</phaseHint><evaluationMode>automatic</evaluationMode><creationInfo><agencyID>SED</agencyID><author>NLoB_apick@sc3a</author><creationTime>2019-11-05T04:24:00.689572Z</creationTime></creationInfo></pick><pick publicID="smi:ch.ethz.sed/sc3a/Pick/NLoB_apick/20191105042407.947066.62784"><time><value>2019-11-05T04:23:57.37Z</value></time><waveformID networkCode="CH" stationCode="MMK" channelCode="HHZ"/><filterID>BW(2,5,20)</filterID><methodID>BK</methodID><phaseHint>P</phaseHint><evaluationMode>automatic</evaluationMode><creationInfo><agencyID>SED</agencyID><author>NLoB_apick@sc3a</author><creationTime>2019-11-05T04:24:07.947101Z</creationTime></creationInfo></pick><pick publicID="smi:ch.ethz.sed/sc3a/Pick/NLoB_apick/20191105042405.103357.62780"><time><value>2019-11-05T04:23:57.97Z</value></time><waveformID networkCode="CH" stationCode="FIESA" channelCode="HHZ"/><filterID>BW(2,5,20)</filterID><methodID>BK</methodID><phaseHint>P</phaseHint><evaluationMode>automatic</evaluationMode><creationInfo><agencyID>SED</agencyID><author>NLoB_apick@sc3a</author><creationTime>2019-11-05T04:24:05.103429Z</creationTime></creationInfo></pick><pick publicID="smi:ch.ethz.sed/sc3a/Pick/NLoT_apick/20191105042402.902681.63109"><time><value>2019-11-05T04:23:55.6833Z</value></time><waveformID networkCode="CH" stationCode="VANNI" channelCode="HHZ"/><filterID>RMHP(10)&gt;&gt;BW_BP(4,5,20)&gt;&gt;STALTA(1.0,30)</filterID><methodID>Trigger</methodID><phaseHint>P</phaseHint><evaluationMode>automatic</evaluationMode><creationInfo><agencyID>SED</agencyID><author>NLoT_apick@sc3a</author><creationTime>2019-11-05T04:24:02.902644Z</creationTime></creationInfo></pick><pick publicID="smi:ch.ethz.sed/sc3a/Pick/NLoT_apick/20191105042358.862005.63100"><time><value>2019-11-05T04:23:58.02Z</value></time><waveformID networkCode="CH" stationCode="AIGLE" channelCode="HHZ"/><filterID>RMHP(10)&gt;&gt;BW_BP(4,5,20)&gt;&gt;STALTA(1.0,30)</filterID><methodID>Trigger</methodID><phaseHint>P</phaseHint><evaluationMode>automatic</evaluationMode><creationInfo><agencyID>SED</agencyID><author>NLoT_apick@sc3a</author><creationTime>2019-11-05T04:23:58.861977Z</creationTime></creationInfo></pick><pick publicID="smi:ch.ethz.sed/sc3a/Pick/NLoT_apick/20191105042402.48189.63108"><time><value>2019-11-05T04:23:58.555Z</value></time><waveformID networkCode="CH" stationCode="ILLEZ" channelCode="HHZ"/><filterID>RMHP(10)&gt;&gt;BW_BP(4,5,20)&gt;&gt;STALTA(1.0,30)</filterID><methodID>Trigger</methodID><phaseHint>P</phaseHint><evaluationMode>automatic</evaluationMode><creationInfo><agencyID>SED</agencyID><author>NLoT_apick@sc3a</author><creationTime>2019-11-05T04:24:02.481841Z</creationTime></creationInfo></pick><pick publicID="smi:ch.ethz.sed/sc3a/Pick/NLoT_apick/20191105042358.637474.63099"><time><value>2019-11-05T04:23:53.858333Z</value></time><waveformID networkCode="CH" stationCode="LAUCH" channelCode="HHZ"/><filterID>RMHP(10)&gt;&gt;BW_BP(4,5,20)&gt;&gt;STALTA(1.0,30)</filterID><methodID>Trigger</methodID><phaseHint>P</phaseHint><evaluationMode>automatic</evaluationMode><creationInfo><agencyID>SED</agencyID><author>NLoT_apick@sc3a</author><creationTime>2019-11-05T04:23:58.637458Z</creationTime></creationInfo></pick><pick publicID="smi:ch.ethz.sed/sc3a/Pick/NLoT_apick/20191105042401.175406.63106"><time><value>2019-11-05T04:23:58.405Z</value></time><waveformID networkCode="CH" stationCode="MMK" channelCode="HHZ"/><filterID>RMHP(10)&gt;&gt;BW_BP(4,5,20)&gt;&gt;STALTA(1.0,30)</filterID><methodID>Trigger</methodID><phaseHint>P</phaseHint><evaluationMode>automatic</evaluationMode><creationInfo><agencyID>SED</agencyID><author>NLoT_apick@sc3a</author><creationTime>2019-11-05T04:24:01.175271Z</creationTime></creationInfo></pick><pick publicID="smi:ch.ethz.sed/sc3a/Pick/NLoT_apick/20191105042359.077172.63101"><time><value>2019-11-05T04:23:58.115Z</value></time><waveformID networkCode="CH" stationCode="FIESA" channelCode="HHZ"/><filterID>RMHP(10)&gt;&gt;BW_BP(4,5,20)&gt;&gt;STALTA(1.0,30)</filterID><methodID>Trigger</methodID><phaseHint>P</phaseHint><evaluationMode>automatic</evaluationMode><creationInfo><agencyID>SED</agencyID><author>NLoT_apick@sc3a</author><creationTime>2019-11-05T04:23:59.077149Z</creationTime></creationInfo></pick><pick publicID="smi:ch.ethz.sed/sc3a/Pick/NLoT_apick/20191105042407.950462.63113"><time><value>2019-11-05T04:24:05.81Z</value></time><waveformID networkCode="8D" stationCode="AMIDI" channelCode="EHZ"/><filterID>RMHP(10)&gt;&gt;BW_BP(4,5,20)&gt;&gt;STALTA(1.0,30)</filterID><methodID>Trigger</methodID><phaseHint>P</phaseHint><evaluationMode>automatic</evaluationMode><creationInfo><agencyID>SED</agencyID><author>NLoT_apick@sc3a</author><creationTime>2019-11-05T04:24:07.950374Z</creationTime></creationInfo></pick><pick publicID="smi:ch.ethz.sed/sc3a/Pick/NLoB_apick/20191105042411.588121.62787"><time><value>20