<?xml version="1.0" encoding="UTF-8"?>
<seiscomp xmlns="http://geofon.gfz-potsdam.de/ns/seiscomp3-schema/0.12" version="0.12">
  <EventParameters>
    <pick publicID="Pick/20220226151801.435849.163">
      <creationInfo>
        <agencyID>TEST</agencyID>
        <author>scdetect@seiscomp-fedora32</author>
        <creationTime>2021-01-12T16:30:56.225889Z</creationTime>
      </creationInfo>
      <time>
        <value>2019-11-05T05:01:14.323442Z</value>
      </time>
      <waveformID networkCode="8D" stationCode="RAW2" channelCode="HH"/>
      <phaseHint>Sg</phaseHint>
      <evaluationMode>automatic</evaluationMode>
      <comment>
        <text>2019-11-05T04:23:49.58Z|2019-11-05T04:23:52.085Z|2019-11-05T04:23:50.083441Z</text>
        <id>scdetectTemplateWaveformTimeInfo</id>
      </comment>
    </pick>
    <pick publicID="Pick/20220226151801.468877.166">
      <creationInfo>
        <agencyID>TEST</agencyID>
        <author>scdetect@seiscomp-fedora32</author>
        <creationTime>2021-01-12T16:30:56.225889Z</creationTime>
      </creationInfo>
      <time>
        <value>2019-11-05T05:01:31.708442Z</value>
      </time>
      <waveformID networkCode="8D" stationCode="RAW2" channelCode="HH"/>
      <phaseHint>Sg</phaseHint>
      <evaluationMode>automatic</evaluationMode>
      <comment>
        <text>2019-11-05T04:23:49.58Z|2019-11-05T04:23:52.085Z|2019-11-05T04:23:50.083441Z</text>
        <id>scdetectTemplateWaveformTimeInfo</id>
      </comment>
    </pick>
    <pick publicID="Pick/20220226151801.48473.169">
      <creationInfo>
        <agencyID>TEST</agencyID>
        <author>scdetect@seiscomp-fedora32</author>
        <creationTime>2021-01-12T16:30:56.225889Z</creationTime>
      </creationInfo>
      <time>
        <value>2019-11-05T05:01:42.583442Z</value>
      </time>
      <waveformID networkCode="8D" stationCode="RAW2" channelCode="HH"/>
      <phaseHint>Sg</phaseHint>
      <evaluationMode>automatic</evaluationMode>
      <comment>
        <text>2019-11-05T04:23:49.58Z|2019-11-05T04:23:52.085Z|2019-11-05T04:23:50.083441Z</text>
        <id>scdetectTemplateWaveformTimeInfo</id>
      </comment>
    </pick>
    <pick publicID="Pick/20220226151801.513572.172">
      <creationInfo>
        <agencyID>TEST</agencyID>
        <author>scdetect@seiscomp-fedora32</author>
        <creationTime>2021-01-12T16:30:56.225889Z</creationTime>
      </creationInfo>
      <time>
        <value>2019-11-05T05:01:47.353442Z</value>
      </time>
      <waveformID networkCode="8D" stationCode="RAW2" channelCode="HH"/>
      <phaseHint>Sg</phaseHint>
      <evaluationMode>automatic</evaluationMode>
      <comment>
        <text>2019-11-05T04:23:49.58Z|2019-11-05T04:23:52.085Z|2019-11-05T04:23:50.083441Z</text>
        <id>scdetectTemplateWaveformTimeInfo</id>
      </comment>
    </pick>
    <origin publicID="Origin/20220226151801.435663.162">
      <time>
        <value>2019-11-05T05:01:11.880489Z</value>
      </time>
      <latitude>
        <value>46.32480762</value>
      </latitude>
      <longitude>
        <value>7.36023502</value>
      </longitude>
      <depth>
        <value>4.813476562</value>
      </depth>
      <epicenterFixed>true</epicenterFixed>
      <methodID>DETECT</methodID>
      <quality>
        <associatedPhaseCount>2</associatedPhaseCount>
        <usedPhaseCount>2</usedPhaseCount>
        <associatedStationCount>1</associatedStationCount>
        <usedStationCount>1</usedStationCount>
        <standardError>0.151073</standardError>
        <maximumDistance>0.03223286148</maximumDistance>
        <minimumDistance>0.03223286148</minimumDistance>
        <medianDistance>0.03223286148</medianDistance>
      </quality>
      <evaluationMode>automatic</evaluationMode>
      <creationInfo>
        <agencyID>TEST</agencyID>
        <author>scdetect-cc@seiscomp-fedora34</author>
        <creationTime>2022-02-26T15:18:01.435626Z</creationTime>
      </creationInfo>
      <comment>
        <text>detector-01</text>
        <id>scdetectDetectorId</id>
      </comment>
      <comment>
        <text>0.848927</text>
        <id>scdetectResultCCC</id>
      </comment>
      <arrival>
        <pickID>Pick/20220226151801.435849.163</pickID>
        <phase>Sg</phase>
        <weight>1.007777254</weight>
        <creationInfo>
          <agencyID>TEST</agencyID>
          <author>scdetect-cc@seiscomp-fedora34</author>
          <creationTime>2022-02-26T15:18:01.435626Z</creationTime>
        </creationInfo>
      </arrival>
    </origin>
    <origin publicID="Origin/20220226151801.46866.165">
      <time>
        <value>2019-11-05T05:01:29.260489Z</value>
      </time>
      <latitude>
        <value>46.32480762</value>
      </latitude>
      <longitude>
        <value>7.36023502</value>
      </longitude>
      <depth>
        <value>4.813476562</value>
      </depth>
      <epicenterFixed>true</epicenterFixed>
      <methodID>DETECT</methodID>
      <quality>
        <associatedPhaseCount>2</associatedPhaseCount>
        <usedPhaseCount>2</usedPhaseCount>
        <associatedStationCount>1</associatedStationCount>
        <usedStationCount>1</usedStationCount>
        <standardError>0.465018</standardError>
        <maximumDistance>0.03223286148</maximumDistance>
        <minimumDistance>0.03223286148</minimumDistance>
        <medianDistance>0.03223286148</medianDistance>
      </quality>
      <evaluationMode>automatic</evaluationMode>
      <creationInfo>
        <agencyID>TEST</agencyID>
        <author>scdetect-cc@seiscomp-fedora34</author>
        <creationTime>2022-02-26T15:18:01.468469Z</creationTime>
      </creationInfo>
      <comment>
        <text>detector-01</text>
        <id>scdetectDetectorId</id>
      </comment>
      <comment>
        <text>0.534981</text>
        <id>scdetectResultCCC</id>
      </comment>
      <arrival>
        <pickID>Pick/20220226151801.468877.166</pickID>
        <phase>Sg</phase>
        <weight>1.007777254</weight>
        <creationInfo>
          <agencyID>TEST</agencyID>
          <author>scdetect-cc@seiscomp-fedora34</author>
          <creationTime>2022-02-26T15:18:01.468469Z</creationTime>
        </creationInfo>
      </arrival>
    </origin>
    <origin publicID="Origin/20220226151801.484494.168">
      <time>
        <value>2019-11-05T05:01:40.125489Z</value>
      </time>
      <latitude>
        <value>46.32480762</value>
      </latitude>
      <longitude>
        <value>7.36023502</value>
      </longitude>
      <depth>
        <value>4.813476562</value>
      </depth>
      <epicenterFixed>true</epicenterFixed>
      <methodID>DETECT</methodID>
      <quality>
        <associatedPhaseCount>2</associatedPhaseCount>
        <usedPhaseCount>2</usedPhaseCount>
        <associatedStationCount>1</associatedStationCount>
        <usedStationCount>1</usedStationCount>
        <standardError>0.334895</standardError>
        <maximumDistance>0.03223286148</maximumDistance>
        <minimumDistance>0.03223286148</minimumDistance>
        <medianDistance>0.03223286148</medianDistance>
      </quality>
      <evaluationMode>automatic</evaluationMode>
      <creationInfo>
        <agencyID>TEST</agencyID>
        <author>scdetect-cc@seiscomp-fedora34</author>
        <creationTime>2022-02-26T15:18:01.484452Z</creationTime>
      </creationInfo>
      <comment>
        <text>detector-01</text>
        <id>scdetectDetectorId</id>
      </comment>
      <comment>
        <text>0.665105</text>
        <id>scdetectResultCCC</id>
      </comment>
      <arrival>
        <pickID>Pick/20220226151801.48473.169</pickID>
        <phase>Sg</phase>
        <weight>1.007777254</weight>
        <creationInfo>
          <agencyID>TEST</agencyID>
          <author>scdetect-cc@seiscomp-fedora34</author>
          <creationTime>2022-02-26T15:18:01.484452Z</creationTime>
        </creationInfo>
      </arrival>
    </origin>
    <origin publicID="Origin/20220226151801.513429.171">
      <time>
        <value>2019-11-05T05:01:44.905489Z</value>
      </time>
      <latitude>
        <value>46.32480762</value>
      </latitude>
      <longitude>
        <value>7.36023502</value>
      </longitude>
      <depth>
        <value>4.813476562</value>
      </depth>
      <epicenterFixed>true</epicenterFixed>
      <methodID>DETECT</methodID>
      <quality>
        <associatedPhaseCount>2</associatedPhaseCount>
        <usedPhaseCount>2</usedPhaseCount>
        <associatedStationCount>1</associatedStationCount>
        <usedStationCount>1</usedStationCount>
        <standardError>0.437013</standardError>
        <maximumDistance>0.03223286148</maximumDistance>
        <minimumDistance>0.03223286148</minimumDistance>
        <medianDistance>0.03223286148</medianDistance>
      </quality>
      <evaluationMode>automatic</evaluationMode>
      <creationInfo>
        <agencyID>TEST</agencyID>
        <author>scdetect-cc@seiscomp-fedora34</author>
        <creationTime>2022-02-26T15:18:01.513407Z</creationTime>
      </creationInfo>
      <comment>
        <text>detector-01</text>
        <id>scdetectDetectorId</id>
      </comment>
      <comment>
        <text>0.562986</text>
        <id>scdetectResultCCC</id>
      </comment>
      <arrival>
        <pickID>Pick/20220226151801.513572.172</pickID>
        <phase>Sg</phase>
        <weight>1.007777254</weight>
        <creationInfo>
          <agencyID>TEST</agencyID>
          <author>scdetect-cc@seiscomp-fedora34</author>
          <creationTime>2022-02-26T15:18:01.513407Z</creationTime>
        </creationInfo>
      </arrival>
    </origin>
  </EventParameters>
</seiscomp>
