<?xml version="1.0" encoding="UTF-8"?>
<seiscomp xmlns="http://geofon.gfz-potsdam.de/ns/seiscomp3-schema/0.12" version="0.12">
  <EventParameters>
    <pick publicID="Pick/20230420150116.270551.34588">
      <time>
        <value>2019-11-05T05:01:14.323442Z</value>
      </time>
      <waveformID networkCode="8D" stationCode="RAW2" channelCode="HH"/>
      <phaseHint>Sg</phaseHint>
      <evaluationMode>automatic</evaluationMode>
      <creationInfo>
        <agencyID>TEST</agencyID>
        <author>scdetect-cc@lscarabellows</author>
        <creationTime>2023-04-20T15:01:16.270537Z</creationTime>
      </creationInfo>
      <comment>
        <text>2019-11-05T04:23:49.58Z|2019-11-05T04:23:52.085Z|2019-11-05T04:23:50.083441Z</text>
        <id>scdetectTemplateWaveformTimeInfo</id>
      </comment>
    </pick>
    <pick publicID="Pick/20230420150116.272249.34591">
      <time>
        <value>2019-11-05T05:01:31.703442Z</value>
      </time>
      <waveformID networkCode="8D" stationCode="RAW2" channelCode="HH"/>
      <phaseHint>Sg</phaseHint>
      <evaluationMode>automatic</evaluationMode>
      <creationInfo>
        <agencyID>TEST</agencyID>
        <author>scdetect-cc@lscarabellows</author>
        <creationTime>2023-04-20T15:01:16.272243Z</creationTime>
      </creationInfo>
      <comment>
        <text>2019-11-05T04:23:49.58Z|2019-11-05T04:23:52.085Z|2019-11-05T04:23:50.083441Z</text>
        <id>scdetectTemplateWaveformTimeInfo</id>
      </comment>
    </pick>
    <pick publicID="Pick/20230420150116.273354.34594">
      <time>
        <value>2019-11-05T05:01:42.568442Z</value>
      </time>
      <waveformID networkCode="8D" stationCode="RAW2" channelCode="HH"/>
      <phaseHint>Sg</phaseHint>
      <evaluationMode>automatic</evaluationMode>
      <creationInfo>
        <agencyID>TEST</agencyID>
        <author>scdetect-cc@lscarabellows</author>
        <creationTime>2023-04-20T15:01:16.273348Z</creationTime>
      </creationInfo>
      <comment>
        <text>2019-11-05T04:23:49.58Z|2019-11-05T04:23:52.085Z|2019-11-05T04:23:50.083441Z</text>
        <id>scdetectTemplateWaveformTimeInfo</id>
      </comment>
    </pick>
    <pick publicID="Pick/20230420150116.273773.34597">
      <time>
        <value>2019-11-05T05:01:47.348442Z</value>
      </time>
      <waveformID networkCode="8D" stationCode="RAW2" channelCode="HH"/>
      <phaseHint>Sg</phaseHint>
      <evaluationMode>automatic</evaluationMode>
      <creationInfo>
        <agencyID>TEST</agencyID>
        <author>scdetect-cc@lscarabellows</author>
        <creationTime>2023-04-20T15:01:16.273768Z</creationTime>
      </creationInfo>
      <comment>
        <text>2019-11-05T04:23:49.58Z|2019-11-05T04:23:52.085Z|2019-11-05T04:23:50.083441Z</text>
        <id>scdetectTemplateWaveformTimeInfo</id>
      </comment>
    </pick>
    <origin publicID="Origin/20230420150116.27054.34587">
      <time>
        <value>2019-11-05T05:01:11.880489Z</value>
      </time>
      <latitude>
        <value>46.32480762</value>
      </latitude>
      <longitude>
        <value>7.36023502</value>
      </longitude>
      <depth>
        <value>4.813476562</value>
      </depth>
      <epicenterFixed>true</epicenterFixed>
      <methodID>DETECT</methodID>
      <quality>
        <associatedPhaseCount>2</associatedPhaseCount>
        <usedPhaseCount>2</usedPhaseCount>
        <associatedStationCount>1</associatedStationCount>
        <usedStationCount>1</usedStationCount>
        <standardError>0.15107306439126456</standardError>
        <maximumDistance>0.03223286148198979</maximumDistance>
        <minimumDistance>0.03223286148198979</minimumDistance>
        <medianDistance>0.03223286148198979</medianDistance>
      </quality>
      <evaluationMode>automatic</evaluationMode>
      <creationInfo>
        <agencyID>TEST</agencyID>
        <author>scdetect-cc@lscarabellows</author>
        <creationTime>2023-04-20T15:01:16.270537Z</creationTime>
      </creationInfo>
      <comment>
        <text>detector-01</text>
        <id>scdetectDetectorId</id>
      </comment>
      <comment>
        <text>0.848927</text>
        <id>scdetectResultCCC</id>
      </comment>
      <arrival>
        <pickID>Pick/20230420150116.270551.34588</pickID>
        <phase>Sg</phase>
        <azimuth>251.92795642647147</azimuth>
        <distance>0.03223286148198979</distance>
        <weight>1.007777254</weight>
        <creationInfo>
          <agencyID>TEST</agencyID>
          <author>scdetect-cc@lscarabellows</author>
          <creationTime>2023-04-20T15:01:16.270537Z</creationTime>
        </creationInfo>
      </arrival>
    </origin>
    <origin publicID="Origin/20230420150116.272244.34590">
      <time>
        <value>2019-11-05T05:01:29.260489Z</value>
      </time>
      <latitude>
        <value>46.32480762</value>
      </latitude>
      <longitude>
        <value>7.36023502</value>
      </longitude>
      <depth>
        <value>4.813476562</value>
      </depth>
      <epicenterFixed>true</epicenterFixed>
      <methodID>DETECT</methodID>
      <quality>
        <associatedPhaseCount>2</associatedPhaseCount>
        <usedPhaseCount>2</usedPhaseCount>
        <associatedStationCount>1</associatedStationCount>
        <usedStationCount>1</usedStationCount>
        <standardError>0.4650188319996771</standardError>
        <maximumDistance>0.03223286148198979</maximumDistance>
        <minimumDistance>0.03223286148198979</minimumDistance>
        <medianDistance>0.03223286148198979</medianDistance>
      </quality>
      <evaluationMode>automatic</evaluationMode>
      <creationInfo>
        <agencyID>TEST</agencyID>
        <author>scdetect-cc@lscarabellows</author>
        <creationTime>2023-04-20T15:01:16.272243Z</creationTime>
      </creationInfo>
      <comment>
        <text>detector-01</text>
        <id>scdetectDetectorId</id>
      </comment>
      <comment>
        <text>0.534981</text>
        <id>scdetectResultCCC</id>
      </comment>
      <arrival>
        <pickID>Pick/20230420150116.272249.34591</pickID>
        <phase>Sg</phase>
        <azimuth>251.92795642647147</azimuth>
        <distance>0.03223286148198979</distance>
        <weight>1.007777254</weight>
        <creationInfo>
          <agencyID>TEST</agencyID>
          <author>scdetect-cc@lscarabellows</author>
          <creationTime>2023-04-20T15:01:16.272243Z</creationTime>
        </creationInfo>
      </arrival>
    </origin>
    <origin publicID="Origin/20230420150116.273349.34593">
      <time>
        <value>2019-11-05T05:01:40.125489Z</value>
      </time>
      <latitude>
        <value>46.32480762</value>
      </latitude>
      <longitude>
        <value>7.36023502</value>
      </longitude>
      <depth>
        <value>4.813476562</value>
      </depth>
      <epicenterFixed>true</epicenterFixed>
      <methodID>DETECT</methodID>
      <quality>
        <associatedPhaseCount>2</associatedPhaseCount>
        <usedPhaseCount>2</usedPhaseCount>
        <associatedStationCount>1</associatedStationCount>
        <usedStationCount>1</usedStationCount>
        <standardError>0.33489522578305353</standardError>
        <maximumDistance>0.03223286148198979</maximumDistance>
        <minimumDistance>0.03223286148198979</minimumDistance>
        <medianDistance>0.03223286148198979</medianDistance>
      </quality>
      <evaluationMode>automatic</evaluationMode>
      <creationInfo>
        <agencyID>TEST</agencyID>
        <author>scdetect-cc@lscarabellows</author>
        <creationTime>2023-04-20T15:01:16.273348Z</creationTime>
      </creationInfo>
      <comment>
        <text>detector-01</text>
        <id>scdetectDetectorId</id>
      </comment>
      <comment>
        <text>0.665105</text>
        <id>scdetectResultCCC</id>
      </comment>
      <arrival>
        <pickID>Pick/20230420150116.273354.34594</pickID>
        <phase>Sg</phase>
        <azimuth>251.92795642647147</azimuth>
        <distance>0.03223286148198979</distance>
        <weight>1.007777254</weight>
        <creationInfo>
          <agencyID>TEST</agencyID>
          <author>scdetect-cc@lscarabellows</author>
          <creationTime>2023-04-20T15:01:16.273348Z</creationTime>
        </creationInfo>
      </arrival>
    </origin>
    <origin publicID="Origin/20230420150116.273769.34596">
      <time>
        <value>2019-11-05T05:01:44.905489Z</value>
      </time>
      <latitude>
        <value>46.32480762</value>
      </latitude>
      <longitude>
        <value>7.36023502</value>
      </longitude>
      <depth>
        <value>4.813476562</value>
      </depth>
      <epicenterFixed>true</epicenterFixed>
      <methodID>DETECT</methodID>
      <quality>
        <associatedPhaseCount>2</associatedPhaseCount>
        <usedPhaseCount>2</usedPhaseCount>
        <associatedStationCount>1</associatedStationCount>
        <usedStationCount>1</usedStationCount>
        <standardError>0.4370139683920179</standardError>
        <maximumDistance>0.03223286148198979</maximumDistance>
        <minimumDistance>0.03223286148198979</minimumDistance>
        <medianDistance>0.03223286148198979</medianDistance>
      </quality>
      <evaluationMode>automatic</evaluationMode>
      <creationInfo>
        <agencyID>TEST</agencyID>
        <author>scdetect-cc@lscarabellows</author>
        <creationTime>2023-04-20T15:01:16.273768Z</creationTime>
      </creationInfo>
      <comment>
        <text>detector-01</text>
        <id>scdetectDetectorId</id>
      </comment>
      <comment>
        <text>0.562986</text>
        <id>scdetectResultCCC</id>
      </comment>
      <arrival>
        <pickID>Pick/20230420150116.273773.34597</pickID>
        <phase>Sg</phase>
        <azimuth>251.92795642647147</azimuth>
        <distance>0.03223286148198979</distance>
        <weight>1.007777254</weight>
        <creationInfo>
          <agencyID>TEST</agencyID>
          <author>scdetect-cc@lscarabellows</author>
          <creationTime>2023-04-20T15:01:16.273768Z</creationTime>
        </creationInfo>
      </arrival>
    </origin>
  </EventParameters>
</seiscomp>
