<?xml version="1.0" encoding="UTF-8"?>
<seiscomp xmlns="http://geofon.gfz-potsdam.de/ns/seiscomp3-schema/0.12" version="0.12">
  <EventParameters>
    <pick publicID="Pick/20230420150122.580497.64169">
      <time>
        <value>2019-11-05T05:23:49.09993Z</value>
      </time>
      <waveformID networkCode="8D" stationCode="RAW2" channelCode="HH"/>
      <phaseHint>Pg</phaseHint>
      <evaluationMode>automatic</evaluationMode>
      <creationInfo>
        <agencyID>TEST</agencyID>
        <author>scdetect-cc@lscarabellows</author>
        <creationTime>2023-04-20T15:01:22.580486Z</creationTime>
      </creationInfo>
      <comment>
        <text>2019-11-05T04:23:48.595Z|2019-11-05T04:23:50.1Z|2019-11-05T04:23:49.099929Z</text>
        <id>scdetectTemplateWaveformTimeInfo</id>
      </comment>
    </pick>
    <amplitude publicID="Amplitude/20230420150122.580634.64170">
      <type>MLx</type>
      <amplitude>
        <value>1.8005964846234268e-06</value>
      </amplitude>
      <timeWindow>
        <reference>2019-11-05T05:23:49.099929Z</reference>
        <begin>0.5</begin>
        <end>1</end>
      </timeWindow>
      <unit>M/S</unit>
      <waveformID networkCode="8D" stationCode="RAW2" channelCode="HH"/>
      <creationInfo>
        <agencyID>TEST</agencyID>
        <author>scdetect-cc@lscarabellows</author>
        <creationTime>2023-04-20T15:01:22.580633Z</creationTime>
      </creationInfo>
      <comment>
        <text>detector-01</text>
        <id>scdetectDetectorId</id>
      </comment>
      <comment>
        <text>Pick/20230420150122.580497.64169||Pick/20230420150122.580497.64169</text>
        <id>scdetectAmplitudePicks</id>
      </comment>
      <comment>
        <text>8D.RAW2..HHE||8D.RAW2..HHN</text>
        <id>scdetectAmplitudeStreams</id>
      </comment>
    </amplitude>
    <origin publicID="Origin/20230420150122.580489.64168">
      <time>
        <value>2019-11-05T05:23:47.640489Z</value>
      </time>
      <latitude>
        <value>46.32480762</value>
      </latitude>
      <longitude>
        <value>7.36023502</value>
      </longitude>
      <depth>
        <value>4.813476562</value>
      </depth>
      <epicenterFixed>true</epicenterFixed>
      <methodID>DETECT</methodID>
      <quality>
        <associatedPhaseCount>1</associatedPhaseCount>
        <usedPhaseCount>1</usedPhaseCount>
        <associatedStationCount>1</associatedStationCount>
        <usedStationCount>1</usedStationCount>
        <standardError>0</standardError>
        <maximumDistance>0.03223286148198979</maximumDistance>
        <minimumDistance>0.03223286148198979</minimumDistance>
        <medianDistance>0.03223286148198979</medianDistance>
      </quality>
      <evaluationMode>automatic</evaluationMode>
      <creationInfo>
        <agencyID>TEST</agencyID>
        <author>scdetect-cc@lscarabellows</author>
        <creationTime>2023-04-20T15:01:22.580486Z</creationTime>
      </creationInfo>
      <comment>
        <text>detector-01</text>
        <id>scdetectDetectorId</id>
      </comment>
      <comment>
        <text>1.000000</text>
        <id>scdetectResultCCC</id>
      </comment>
      <arrival>
        <pickID>Pick/20230420150122.580497.64169</pickID>
        <phase>Pg</phase>
        <azimuth>251.92795642647147</azimuth>
        <distance>0.03223286148198979</distance>
        <weight>1.037711232</weight>
        <creationInfo>
          <agencyID>TEST</agencyID>
          <author>scdetect-cc@lscarabellows</author>
          <creationTime>2023-04-20T15:01:22.580486Z</creationTime>
        </creationInfo>
      </arrival>
      <stationMagnitude publicID="StationMagnitude/20230420150122.580648.64171">
        <magnitude>
          <value>2.7578633639999985</value>
        </magnitude>
        <type>MLx</type>
        <amplitudeID>Amplitude/20230420150122.580634.64170</amplitudeID>
        <waveformID networkCode="8D" stationCode="RAW2" channelCode="HH"/>
      </stationMagnitude>
      <magnitude publicID="Magnitude/20230420150122.580653.64172">
        <magnitude>
          <value>2.7578633639999985</value>
        </magnitude>
        <type>MLx</type>
        <stationCount>1</stationCount>
        <stationMagnitudeContribution>
          <stationMagnitudeID>StationMagnitude/20230420150122.580648.64171</stationMagnitudeID>
          <weight>1</weight>
        </stationMagnitudeContribution>
      </magnitude>
    </origin>
  </EventParameters>
</seiscomp>
