<?xml version="1.0" encoding="UTF-8"?>
<seiscomp xmlns="http://geofon.gfz-potsdam.de/ns/seiscomp3-schema/0.12" version="0.12">
  <EventParameters>
    <pick publicID="Pick/20220110195544.005091.239">
      <time>
        <value>2019-11-05T05:23:50.083442Z</value>
      </time>
      <waveformID networkCode="8D" stationCode="RAW2" channelCode="HH"/>
      <phaseHint>Sg</phaseHint>
      <evaluationMode>automatic</evaluationMode>
      <comment>
        <text>2019-11-05T04:23:49.58Z|2019-11-05T04:23:52.085Z|2019-11-05T04:23:50.083441Z</text>
        <id>scdetectTemplateWaveformTimeInfo</id>
      </comment>
    </pick>
    <amplitude publicID="Amplitude/20220110195544.008781.241">
      <type>MRelative</type>
      <amplitude>
        <value>1</value>
      </amplitude>
      <timeWindow>
        <reference>2019-11-05T05:23:49.580001Z</reference>
        <begin>0</begin>
        <end>2.505</end>
      </timeWindow>
      <waveformID networkCode="8D" stationCode="RAW2"/>
      <creationInfo>
        <agencyID>TEST</agencyID>
        <author>scdetect@seiscomp-fedora34</author>
        <creationTime>2022-01-10T19:55:44.008767Z</creationTime>
      </creationInfo>
      <comment>
        <text>detector-01</text>
        <id>scdetectDetectorId</id>
      </comment>
      <comment>
        <text>Pick/20220110195544.005187.240||Pick/20220110195544.005091.239</text>
        <id>scdetectAmplitudePicks</id>
      </comment>
      <comment>
        <text>8D.RAW2..HHE||8D.RAW2..HHN</text>
        <id>scdetectAmplitudeStreams</id>
      </comment>
    </amplitude>
    <origin publicID="Origin/20220110195544.004879.238">
      <time>
        <value>2019-11-05T05:23:47.640487Z</value>
      </time>
      <latitude>
        <value>46.32480762</value>
      </latitude>
      <longitude>
        <value>7.36023502</value>
      </longitude>
      <depth>
        <value>4.813476562</value>
      </depth>
      <epicenterFixed>true</epicenterFixed>
      <methodID>DETECT</methodID>
      <quality>
        <associatedPhaseCount>2</associatedPhaseCount>
        <usedPhaseCount>2</usedPhaseCount>
        <associatedStationCount>1</associatedStationCount>
        <usedStationCount>1</usedStationCount>
        <standardError>0.0</standardError>
        <maximumDistance>0.03223286148</maximumDistance>
        <minimumDistance>0.03223286148</minimumDistance>
        <medianDistance>0.03223286148</medianDistance>
      </quality>
      <evaluationMode>automatic</evaluationMode>
      <creationInfo>
        <agencyID>TEST</agencyID>
        <author>scdetect@seiscomp-fedora34</author>
        <creationTime>2022-01-10T19:55:44.004788Z</creationTime>
      </creationInfo>
      <comment>
        <text>detector-01</text>
        <id>scdetectDetectorId</id>
      </comment>
      <comment>
        <text>1.000000</text>
        <id>scdetectResultCCC</id>
      </comment>
      <arrival>
        <pickID>Pick/20220110195544.005091.239</pickID>
        <phase>Sg</phase>
        <weight>1.007777254</weight>
        <creationInfo>
          <agencyID>TEST</agencyID>
          <author>scdetect@seiscomp-fedora34</author>
          <creationTime>2022-01-10T19:55:44.004788Z</creationTime>
        </creationInfo>
      </arrival>
      <stationMagnitude publicID="StationMagnitude/20220110195544.009.242">
        <magnitude>
          <value>2.757863364</value>
        </magnitude>
        <type>MRelative</type>
        <amplitudeID>Amplitude/20220110195544.008781.241</amplitudeID>
        <waveformID networkCode="8D" stationCode="RAW2"/>
      </stationMagnitude>
      <magnitude publicID="Magnitude/20220511171146.235473.253">
        <magnitude>
          <value>2.757863364</value>
        </magnitude>
        <type>MRelative</type>
        <stationCount>1</stationCount>
        <stationMagnitudeContribution>
          <stationMagnitudeID>StationMagnitude/20220110195544.009.242</stationMagnitudeID>
          <weight>1</weight>
        </stationMagnitudeContribution>
      </magnitude>
    </origin>
  </EventParameters>
</seiscomp>
