<?xml version="1.0" encoding="UTF-8"?>
<seiscomp xmlns="http://geofon.gfz-potsdam.de/ns/seiscomp3-schema/0.12" version="0.12">
  <EventParameters>
    <pick publicID="Pick/20230420150120.037644.41910">
      <time>
        <value>2019-11-05T04:23:50.535426Z</value>
      </time>
      <waveformID networkCode="CH" stationCode="SENIN" channelCode="HH"/>
      <phaseHint>Sg</phaseHint>
      <evaluationMode>automatic</evaluationMode>
      <creationInfo>
        <agencyID>TEST</agencyID>
        <author>scdetect-cc@lscarabellows</author>
        <creationTime>2023-04-20T15:01:20.037619Z</creationTime>
      </creationInfo>
      <comment>
        <text>2019-11-05T00:54:23.885Z|2019-11-05T00:54:26.14Z|2019-11-05T00:54:24.135425Z</text>
        <id>scdetectTemplateWaveformTimeInfo</id>
      </comment>
    </pick>
    <pick publicID="Pick/20230420150120.037665.41911">
      <time>
        <value>2019-11-05T04:23:49.286724Z</value>
      </time>
      <waveformID networkCode="CH" stationCode="SENIN" channelCode="HH"/>
      <phaseHint>Pg</phaseHint>
      <evaluationMode>automatic</evaluationMode>
      <creationInfo>
        <agencyID>TEST</agencyID>
        <author>scdetect-cc@lscarabellows</author>
        <creationTime>2023-04-20T15:01:20.037619Z</creationTime>
      </creationInfo>
      <comment>
        <text>2019-11-05T00:54:22.68Z|2019-11-05T00:54:23.935Z|2019-11-05T00:54:22.931723Z</text>
        <id>scdetectTemplateWaveformTimeInfo</id>
      </comment>
    </pick>
    <pick publicID="Pick/20230420150120.037671.41912">
      <time>
        <value>2019-11-05T04:23:50.44762Z</value>
      </time>
      <waveformID networkCode="CH" stationCode="STSW2" channelCode="HG"/>
      <phaseHint>Sg</phaseHint>
      <evaluationMode>automatic</evaluationMode>
      <creationInfo>
        <agencyID>TEST</agencyID>
        <author>scdetect-cc@lscarabellows</author>
        <creationTime>2023-04-20T15:01:20.037619Z</creationTime>
      </creationInfo>
      <comment>
        <text>2019-11-05T00:54:23.756Z|2019-11-05T00:54:26.008Z|2019-11-05T00:54:24.007619Z</text>
        <id>scdetectTemplateWaveformTimeInfo</id>
      </comment>
    </pick>
    <pick publicID="Pick/20230420150120.037687.41915">
      <time>
        <value>2019-11-05T04:23:50.279729Z</value>
      </time>
      <waveformID networkCode="CH" stationCode="SAYF2" channelCode="HG"/>
      <phaseHint>Sg</phaseHint>
      <evaluationMode>automatic</evaluationMode>
      <creationInfo>
        <agencyID>TEST</agencyID>
        <author>scdetect-cc@lscarabellows</author>
        <creationTime>2023-04-20T15:01:20.037619Z</creationTime>
      </creationInfo>
      <comment>
        <text>2019-11-05T00:54:23.636Z|2019-11-05T00:54:25.888Z|2019-11-05T00:54:23.887728Z</text>
        <id>scdetectTemplateWaveformTimeInfo</id>
      </comment>
    </pick>
    <pick publicID="Pick/20230420150120.037707.41917">
      <time>
        <value>2019-11-05T04:24:32.860426Z</value>
      </time>
      <waveformID networkCode="CH" stationCode="SENIN" channelCode="HH"/>
      <phaseHint>Sg</phaseHint>
      <evaluationMode>automatic</evaluationMode>
      <creationInfo>
        <agencyID>TEST</agencyID>
        <author>scdetect-cc@lscarabellows</author>
        <creationTime>2023-04-20T15:01:20.0377Z</creationTime>
      </creationInfo>
      <comment>
        <text>2019-11-05T00:54:23.885Z|2019-11-05T00:54:26.14Z|2019-11-05T00:54:24.135425Z</text>
        <id>scdetectTemplateWaveformTimeInfo</id>
      </comment>
    </pick>
    <pick publicID="Pick/20230420150120.037712.41918">
      <time>
        <value>2019-11-05T04:24:31.631724Z</value>
      </time>
      <waveformID networkCode="CH" stationCode="SENIN" channelCode="HH"/>
      <phaseHint>Pg</phaseHint>
      <evaluationMode>automatic</evaluationMode>
      <creationInfo>
        <agencyID>TEST</agencyID>
        <author>scdetect-cc@lscarabellows</author>
        <creationTime>2023-04-20T15:01:20.0377Z</creationTime>
      </creationInfo>
      <comment>
        <text>2019-11-05T00:54:22.68Z|2019-11-05T00:54:23.935Z|2019-11-05T00:54:22.931723Z</text>
        <id>scdetectTemplateWaveformTimeInfo</id>
      </comment>
    </pick>
    <pick publicID="Pick/20230420150120.037718.41919">
      <time>
        <value>2019-11-05T04:24:32.76362Z</value>
      </time>
      <waveformID networkCode="CH" stationCode="STSW2" channelCode="HG"/>
      <phaseHint>Sg</phaseHint>
      <evaluationMode>automatic</evaluationMode>
      <creationInfo>
        <agencyID>TEST</agencyID>
        <author>scdetect-cc@lscarabellows</author>
        <creationTime>2023-04-20T15:01:20.0377Z</creationTime>
      </creationInfo>
      <comment>
        <text>2019-11-05T00:54:23.756Z|2019-11-05T00:54:26.008Z|2019-11-05T00:54:24.007619Z</text>
        <id>scdetectTemplateWaveformTimeInfo</id>
      </comment>
    </pick>
    <pick publicID="Pick/20230420150120.037723.41920">
      <time>
        <value>2019-11-05T04:24:32.619729Z</value>
      </time>
      <waveformID networkCode="CH" stationCode="SAYF2" channelCode="HG"/>
      <phaseHint>Sg</phaseHint>
      <evaluationMode>automatic</evaluationMode>
      <creationInfo>
        <agencyID>TEST</agencyID>
        <author>scdetect-cc@lscarabellows</author>
        <creationTime>2023-04-20T15:01:20.0377Z</creationTime>
      </creationInfo>
      <comment>
        <text>2019-11-05T00:54:23.636Z|2019-11-05T00:54:25.888Z|2019-11-05T00:54:23.887728Z</text>
        <id>scdetectTemplateWaveformTimeInfo</id>
      </comment>
    </pick>
    <pick publicID="Pick/20230420150120.037728.41921">
      <time>
        <value>2019-11-05T04:24:31.616101Z</value>
      </time>
      <waveformID networkCode="CH" stationCode="SAYF2" channelCode="HG"/>
      <phaseHint>Pg</phaseHint>
      <evaluationMode>automatic</evaluationMode>
      <creationInfo>
        <agencyID>TEST</agencyID>
        <author>scdetect-cc@lscarabellows</author>
        <creationTime>2023-04-20T15:01:20.0377Z</creationTime>
      </creationInfo>
      <comment>
        <text>2019-11-05T00:54:22.516Z|2019-11-05T00:54:23.772Z|2019-11-05T00:54:22.7681Z</text>
        <id>scdetectTemplateWaveformTimeInfo</id>
      </comment>
    </pick>
    <pick publicID="Pick/20230420150120.037743.41923">
      <time>
        <value>2019-11-05T04:36:54.290426Z</value>
      </time>
      <waveformID networkCode="CH" stationCode="SENIN" channelCode="HH"/>
      <phaseHint>Sg</phaseHint>
      <evaluationMode>automatic</evaluationMode>
      <creationInfo>
        <agencyID>TEST</agencyID>
        <author>scdetect-cc@lscarabellows</author>
        <creationTime>2023-04-20T15:01:20.037737Z</creationTime>
      </creationInfo>
      <comment>
        <text>2019-11-05T00:54:23.885Z|2019-11-05T00:54:26.14Z|2019-11-05T00:54:24.135425Z</text>
        <id>scdetectTemplateWaveformTimeInfo</id>
      </comment>
    </pick>
    <pick publicID="Pick/20230420150120.037748.41924">
      <time>
        <value>2019-11-05T04:36:53.031724Z</value>
      </time>
      <waveformID networkCode="CH" stationCode="SENIN" channelCode="HH"/>
      <phaseHint>Pg</phaseHint>
      <evaluationMode>automatic</evaluationMode>
      <creationInfo>
        <agencyID>TEST</agencyID>
        <author>scdetect-cc@lscarabellows</author>
        <creationTime>2023-04-20T15:01:20.037737Z</creationTime>
      </creationInfo>
      <comment>
        <text>2019-11-05T00:54:22.68Z|2019-11-05T00:54:23.935Z|2019-11-05T00:54:22.931723Z</text>
        <id>scdetectTemplateWaveformTimeInfo</id>
      </comment>
    </pick>
    <pick publicID="Pick/20230420150120.037753.41925">
      <time>
        <value>2019-11-05T04:36:54.08362Z</value>
      </time>
      <waveformID networkCode="CH" stationCode="STSW2" channelCode="HG"/>
      <phaseHint>Sg</phaseHint>
      <evaluationMode>automatic</evaluationMode>
      <creationInfo>
        <agencyID>TEST</agencyID>
        <author>scdetect-cc@lscarabellows</author>
        <creationTime>2023-04-20T15:01:20.037737Z</creationTime>
      </creationInfo>
      <comment>
        <text>2019-11-05T00:54:23.756Z|2019-11-05T00:54:26.008Z|2019-11-05T00:54:24.007619Z</text>
        <id>scdetectTemplateWaveformTimeInfo</id>
      </comment>
    </pick>
    <pick publicID="Pick/20230420150120.037758.41926">
      <time>
        <value>2019-11-05T04:36:53.975729Z</value>
      </time>
      <waveformID networkCode="CH" stationCode="SAYF2" channelCode="HG"/>
      <phaseHint>Sg</phaseHint>
      <evaluationMode>automatic</evaluationMode>
      <creationInfo>
        <agencyID>TEST</agencyID>
        <author>scdetect-cc@lscarabellows</author>
        <creationTime>2023-04-20T15:01:20.037737Z</creationTime>
      </creationInfo>
      <comment>
        <text>2019-11-05T00:54:23.636Z|2019-11-05T00:54:25.888Z|2019-11-05T00:54:23.887728Z</text>
        <id>scdetectTemplateWaveformTimeInfo</id>
      </comment>
    </pick>
    <pick publicID="Pick/20230420150120.037763.41927">
      <time>
        <value>2019-11-05T04:36:52.972101Z</value>
      </time>
      <waveformID networkCode="CH" stationCode="SAYF2" channelCode="HG"/>
      <phaseHint>Pg</phaseHint>
      <evaluationMode>automatic</evaluationMode>
      <creationInfo>
        <agencyID>TEST</agencyID>
        <author>scdetect-cc@lscarabellows</author>
        <creationTime>2023-04-20T15:01:20.037737Z</creationTime>
      </creationInfo>
      <comment>
        <text>2019-11-05T00:54:22.516Z|2019-11-05T00:54:23.772Z|2019-11-05T00:54:22.7681Z</text>
        <id>scdetectTemplateWaveformTimeInfo</id>
      </comment>
    </pick>
    <origin publicID="Origin/20230420150120.037625.41909">
      <time>
        <value>2019-11-05T04:23:47.611707Z</value>
      </time>
      <latitude>
        <value>46.31826387</value>
      </latitude>
      <longitude>
        <value>7.365508705</value>
      </longitude>
      <depth>
        <value>4.788085938</value>
      </depth>
      <epicenterFixed>true</epicenterFixed>
      <methodID>DETECT</methodID>
      <quality>
        <associatedPhaseCount>9</associatedPhaseCount>
        <usedPhaseCount>6</usedPhaseCount>
        <associatedStationCount>3</associatedStationCount>
        <usedStationCount>3</usedStationCount>
        <standardError>0.34975618143865916</standardError>
        <azimuthalGap>184.30736812070907</azimuthalGap>
        <maximumDistance>0.064163570917234</maximumDistance>
        <minimumDistance>0.04667815472471531</minimumDistance>
        <medianDistance>0.064163570917234</medianDistance>
      </quality>
      <evaluationMode>automatic</evaluationMode>
      <creationInfo>
        <agencyID>TEST</agencyID>
        <author>scdetect-cc@lscarabellows</author>
        <creationTime>2023-04-20T15:01:20.037619Z</creationTime>
      </creationInfo>
      <comment>
        <text>detector-01</text>
        <id>scdetectDetectorId</id>
      </comment>
      <comment>
        <text>0.650244</text>
        <id>scdetectResultCCC</id>
      </comment>
      <arrival>
        <pickID>Pick/20230420150120.037644.41910</pickID>
        <phase>Sg</phase>
        <azimuth>314.6659193228461</azimuth>
        <distance>0.064163570917234</distance>
        <weight>1.08157557</weight>
        <creationInfo>
          <agencyID>TEST</agencyID>
          <author>scdetect-cc@lscarabellows</author>
          <creationTime>2023-04-20T15:01:20.037619Z</creationTime>
        </creationInfo>
      </arrival>
      <arrival>
        <pickID>Pick/20230420150120.037665.41911</pickID>
        <phase>Pg</phase>
        <azimuth>314.6659193228461</azimuth>
        <distance>0.064163570917234</distance>
        <weight>1.113701578</weight>
        <creationInfo>
          <agencyID>TEST</agencyID>
          <author>scdetect-cc@lscarabellows</author>
          <creationTime>2023-04-20T15:01:20.037619Z</creationTime>
        </creationInfo>
      </arrival>
      <arrival>
        <pickID>Pick/20230420150120.037671.41912</pickID>
        <phase>Sg</phase>
        <azimuth>60.2022383673233</azimuth>
        <distance>0.05428506003065986</distance>
        <weight>1.08157557</weight>
        <creationInfo>
          <agencyID>TEST</agencyID>
          <author>scdetect-cc@lscarabellows</author>
          <creationTime>2023-04-20T15:01:20.037619Z</creationTime>
        </creationInfo>
      </arrival>
      <arrival>
        <pickID>Pick/20230420150120.037687.41915</pickID>
        <phase>Sg</phase>
        <azimuth>130.35855120213702</azimuth>
        <distance>0.04667815472471531</distance>
        <weight>0.9696884425</weight>
        <creationInfo>
          <agencyID>TEST</agencyID>
          <author>scdetect-cc@lscarabellows</author>
          <creationTime>2023-04-20T15:01:20.037619Z</creationTime>
        </creationInfo>
      </arrival>
    </origin>
    <origin publicID="Origin/20230420150120.037701.41916">
      <time>
        <value>2019-11-05T04:24:30.104706Z</value>
      </time>
      <latitude>
        <value>46.31826387</value>
      </latitude>
      <longitude>
        <value>7.365508705</value>
      </longitude>
      <depth>
        <value>4.788085938</value>
      </depth>
      <epicenterFixed>true</epicenterFixed>
      <methodID>DETECT</methodID>
      <quality>
        <associatedPhaseCount>9</associatedPhaseCount>
        <usedPhaseCount>5</usedPhaseCount>
        <associatedStationCount>3</associatedStationCount>
        <usedStationCount>3</usedStationCount>
        <standardError>0.4383698693509358</standardError>
        <azimuthalGap>184.30736812070907</azimuthalGap>
        <maximumDistance>0.064163570917234</maximumDistance>
        <minimumDistance>0.04667815472471531</minimumDistance>
        <medianDistance>0.05428506003065986</medianDistance>
      </quality>
      <evaluationMode>automatic</evaluationMode>
      <creationInfo>
        <agencyID>TEST</agencyID>
        <author>scdetect-cc@lscarabellows</author>
        <creationTime>2023-04-20T15:01:20.0377Z</creationTime>
      </creationInfo>
      <comment>
        <text>detector-01</text>
        <id>scdetectDetectorId</id>
      </comment>
      <comment>
        <text>0.561630</text>
        <id>scdetectResultCCC</id>
      </comment>
      <arrival>
        <pickID>Pick/20230420150120.037707.41917</pickID>
        <phase>Sg</phase>
        <azimuth>314.6659193228461</azimuth>
        <distance>0.064163570917234</distance>
        <weight>1.08157557</weight>
        <creationInfo>
          <agencyID>TEST</agencyID>
          <author>scdetect-cc@lscarabellows</author>
          <creationTime>2023-04-20T15:01:20.0377Z</creationTime>
        </creationInfo>
      </arrival>
      <arrival>
        <pickID>Pick/20230420150120.037712.41918</pickID>
        <phase>Pg</phase>
        <azimuth>314.6659193228461</azimuth>
        <distance>0.064163570917234</distance>
        <weight>1.113701578</weight>
        <creationInfo>
          <agencyID>TEST</agencyID>
          <author>scdetect-cc@lscarabellows</author>
          <creationTime>2023-04-20T15:01:20.0377Z</creationTime>
        </creationInfo>
      </arrival>
      <arrival>
        <pickID>Pick/20230420150120.037718.41919</pickID>
        <phase>Sg</phase>
        <azimuth>60.2022383673233</azimuth>
        <distance>0.05428506003065986</distance>
        <weight>1.08157557</weight>
        <creationInfo>
          <agencyID>TEST</agencyID>
          <author>scdetect-cc@lscarabellows</author>
          <creationTime>2023-04-20T15:01:20.0377Z</creationTime>
        </creationInfo>
      </arrival>
      <arrival>
        <pickID>Pick/20230420150120.037723.41920</pickID>
        <phase>Sg</phase>
        <azimuth>130.35855120213702</azimuth>
        <distance>0.04667815472471531</distance>
        <weight>0.9696884425</weight>
        <creationInfo>
          <agencyID>TEST</agencyID>
          <author>scdetect-cc@lscarabellows</author>
          <creationTime>2023-04-20T15:01:20.0377Z</creationTime>
        </creationInfo>
      </arrival>
      <arrival>
        <pickID>Pick/20230420150120.037728.41921</pickID>
        <phase>Pg</phase>
        <azimuth>130.35855120213702</azimuth>
        <distance>0.04667815472471531</distance>
        <weight>1.113701578</weight>
        <creationInfo>
          <agencyID>TEST</agencyID>
          <author>scdetect-cc@lscarabellows</author>
          <creationTime>2023-04-20T15:01:20.0377Z</creationTime>
        </creationInfo>
      </arrival>
    </origin>
    <origin publicID="Origin/20230420150120.037739.41922">
      <time>
        <value>2019-11-05T04:36:51.460707Z</value>
      </time>
      <latitude>
        <value>46.31826387</value>
      </latitude>
      <longitude>
        <value>7.365508705</value>
      </longitude>
      <depth>
        <value>4.788085938</value>
      </depth>
      <epicenterFixed>true</epicenterFixed>
      <methodID>DETECT</methodID>
      <quality>
        <associatedPhaseCount>9</associatedPhaseCount>
        <usedPhaseCount>5</usedPhaseCount>
        <associatedStationCount>3</associatedStationCount>
        <usedStationCount>3</usedStationCount>
        <standardError>0.3956393108721997</standardError>
        <azimuthalGap>184.30736812070907</azimuthalGap>
        <maximumDistance>0.064163570917234</maximumDistance>
        <minimumDistance>0.04667815472471531</minimumDistance>
        <medianDistance>0.05428506003065986</medianDistance>
      </quality>
      <evaluationMode>automatic</evaluationMode>
      <creationInfo>
        <agencyID>TEST</agencyID>
        <author>scdetect-cc@lscarabellows</author>
        <creationTime>2023-04-20T15:01:20.037737Z</creationTime>
      </creationInfo>
      <comment>
        <text>detector-01</text>
        <id>scdetectDetectorId</id>
      </comment>
      <comment>
        <text>0.604361</text>
        <id>scdetectResultCCC</id>
      </comment>
      <arrival>
        <pickID>Pick/20230420150120.037743.41923</pickID>
        <phase>Sg</phase>
        <azimuth>314.6659193228461</azimuth>
        <distance>0.064163570917234</distance>
        <weight>1.08157557</weight>
        <creationInfo>
          <agencyID>TEST</agencyID>
          <author>scdetect-cc@lscarabellows</author>
          <creationTime>2023-04-20T15:01:20.037737Z</creationTime>
        </creationInfo>
      </arrival>
      <arrival>
        <pickID>Pick/20230420150120.037748.41924</pickID>
        <phase>Pg</phase>
        <azimuth>314.6659193228461</azimuth>
        <distance>0.064163570917234</distance>
        <weight>1.113701578</weight>
        <creationInfo>
          <agencyID>TEST</agencyID>
          <author>scdetect-cc@lscarabellows</author>
          <creationTime>2023-04-20T15:01:20.037737Z</creationTime>
        </creationInfo>
      </arrival>
      <arrival>
        <pickID>Pick/20230420150120.037753.41925</pickID>
        <phase>Sg</phase>
        <azimuth>60.2022383673233</azimuth>
        <distance>0.05428506003065986</distance>
        <weight>1.08157557</weight>
        <creationInfo>
          <agencyID>TEST</agencyID>
          <author>scdetect-cc@lscarabellows</author>
          <creationTime>2023-04-20T15:01:20.037737Z</creationTime>
        </creationInfo>
      </arrival>
      <arrival>
        <pickID>Pick/20230420150120.037758.41926</pickID>
        <phase>Sg</phase>
        <azimuth>130.35855120213702</azimuth>
        <distance>0.04667815472471531</distance>
        <weight>0.9696884425</weight>
        <creationInfo>
          <agencyID>TEST</agencyID>
          <author>scdetect-cc@lscarabellows</author>
          <creationTime>2023-04-20T15:01:20.037737Z</creationTime>
        </creationInfo>
      </arrival>
      <arrival>
        <pickID>Pick/20230420150120.037763.41927</pickID>
        <phase>Pg</phase>
        <azimuth>130.35855120213702</azimuth>
        <distance>0.04667815472471531</distance>
        <weight>1.113701578</weight>
        <creationInfo>
          <agencyID>TEST</agencyID>
          <author>scdetect-cc@lscarabellows</author>
