<?xml version="1.0" encoding="UTF-8"?>
<seiscomp xmlns="http://geofon.gfz-potsdam.de/ns/seiscomp3-schema/0.12" version="0.12">
  <EventParameters>
    <pick publicID="Pick/20211122145235.334765.13512">
      <time>
        <value>2019-11-05T04:45:30.59493Z</value>
      </time>
      <waveformID networkCode="8D" stationCode="RAW2" channelCode="HHZ"/>
      <phaseHint>Pg</phaseHint>
      <evaluationMode>automatic</evaluationMode>
      <comment>
        <text>2.505000</text>
        <id>scdetectTemplateWaveformDuration</id>
      </comment>
    </pick>
    <pick publicID="Pick/20211122145235.351337.13514">
      <time>
        <value>2019-11-05T04:45:33.99493Z</value>
      </time>
      <waveformID networkCode="8D" stationCode="RAW2" channelCode="HHZ"/>
      <phaseHint>Pg</phaseHint>
      <evaluationMode>automatic</evaluationMode>
      <comment>
        <text>2.505000</text>
        <id>scdetectTemplateWaveformDuration</id>
      </comment>
    </pick>
    <origin publicID="Origin/20211122145235.334518.13511">
      <time>
        <value>2019-11-05T04:45:29.135489Z</value>
      </time>
      <latitude>
        <value>46.32480762</value>
      </latitude>
      <longitude>
        <value>7.36023502</value>
      </longitude>
      <depth>
        <value>4.813476562</value>
      </depth>
      <epicenterFixed>true</epicenterFixed>
      <methodID>DETECT</methodID>
      <quality>
        <associatedPhaseCount>1</associatedPhaseCount>
        <usedPhaseCount>1</usedPhaseCount>
        <associatedStationCount>1</associatedStationCount>
        <usedStationCount>1</usedStationCount>
        <standardError>0.3126789672</standardError>
        <maximumDistance>0.03223286148</maximumDistance>
        <minimumDistance>0.03223286148</minimumDistance>
        <medianDistance>0.03223286148</medianDistance>
      </quality>
      <evaluationMode>automatic</evaluationMode>
      <creationInfo>
        <agencyID>BAR_AGENCY</agencyID>
        <author>scdetect@jupiter</author>
        <creationTime>2021-11-22T14:52:35.334446Z</creationTime>
      </creationInfo>
      <comment>
        <text>detector-01</text>
        <id>scdetectDetectorId</id>
      </comment>
      <comment>
        <text>0.687321</text>
        <id>scdetectResultCCC</id>
      </comment>
      <arrival>
        <pickID>Pick/20211122145235.334765.13512</pickID>
        <phase>Pg</phase>
        <weight>1.037711232</weight>
        <creationInfo>
          <agencyID>BAR_AGENCY</agencyID>
          <author>scdetect@jupiter</author>
          <creationTime>2021-11-22T14:52:35.334446Z</creationTime>
        </creationInfo>
      </arrival>
    </origin>
    <origin publicID="Origin/20211122145235.351181.13513">
      <time>
        <value>2019-11-05T04:45:32.535489Z</value>
      </time>
      <latitude>
        <value>46.32480762</value>
      </latitude>
      <longitude>
        <value>7.36023502</value>
      </longitude>
      <depth>
        <value>4.813476562</value>
      </depth>
      <epicenterFixed>true</epicenterFixed>
      <methodID>DETECT</methodID>
      <quality>
        <associatedPhaseCount>1</associatedPhaseCount>
        <usedPhaseCount>1</usedPhaseCount>
        <associatedStationCount>1</associatedStationCount>
        <usedStationCount>1</usedStationCount>
        <standardError>0.522313258</standardError>
        <maximumDistance>0.03223286148</maximumDistance>
        <minimumDistance>0.03223286148</minimumDistance>
        <medianDistance>0.03223286148</medianDistance>
      </quality>
      <evaluationMode>automatic</evaluationMode>
      <creationInfo>
        <agencyID>BAR_AGENCY</agencyID>
        <author>scdetect@jupiter</author>
        <creationTime>2021-11-22T14:52:35.351156Z</creationTime>
      </creationInfo>
      <comment>
        <text>detector-01</text>
        <id>scdetectDetectorId</id>
      </comment>
      <comment>
        <text>0.477687</text>
        <id>scdetectResultCCC</id>
      </comment>
      <arrival>
        <pickID>Pick/20211122145235.351337.13514</pickID>
        <phase>Pg</phase>
        <weight>1.037711232</weight>
        <creationInfo>
          <agencyID>BAR_AGENCY</agencyID>
          <author>scdetect@jupiter</author>
          <creationTime>2021-11-22T14:52:35.351156Z</creationTime>
        </creationInfo>
      </arrival>
    </origin>
  </EventParameters>
</seiscomp>
